Tradename,License #,UBI,Street Address,Suite/Rm,City,State,County,ZipCode,PrivDesc,PrivilegeStatus,DateIssued,DayPhone,ManuallyCleaned,Source
DAVE'S PLACE                                 ,415202,6.03E+15,10 MAPLE GROVE RD             ,                         ,SUNNYSIDE               ,WA,YAKIMA,989440000,MARIJUANA RETAILER                 ,ACTIVE (ISSUED),20191217,5098300275,0,0
CUTIE JUDY'S CANNABIS COMPANY                ,422234,6.03E+15,10 VALUE PARKWAY STE A        ,STE A                    ,ELMA                    ,WA,GRAYS HARBOR,984455527,MARIJUANA RETAILER                 ,ACTIVE (ISSUED),20200406,2532412948,0,0
SATORI                                       ,421616,6.03E+15,100 E MAPLE ST STE A          ,                         ,BELLINGHAM              ,WA,WHATCOM,982255006,MARIJUANA RETAILER                 ,ACTIVE (ISSUED),20191012,2064191102,0,0
LA PUSH KUSH                                 ,419178,6.02E+15,100 LA PUSH RD STE 602        ,                         ,FORKS                   ,WA,CLALLAM,983319406,MARIJUANA RETAILER                 ,CLOSED (PERMANENT),20150213,5416109508,0,0
SWEET LEAF CANNABIS CO                       ,415523,6.03E+15,100 OLD HILL RD               ,                         ,ABERDEEN                ,WA,GRAYS HARBOR,985207300,MARIJUANA RETAILER                 ,ACTIVE (ISSUED),20191030,3605325758,0,0
CANNABIS 21                                  ,415567,6.03E+15,1000 E WISHKAH ST             ,                         ,ABERDEEN                ,WA,GRAYS HARBOR,985200000,MARIJUANA RETAILER                 ,ACTIVE (ISSUED),20191019,3602397149,0,0
LOCALAMSTER                                  ,414243,6.04E+15,1006 CALIFORNIA WAY           ,                         ,LONGVIEW                ,WA,COWLITZ,986321615,MARIJUANA RETAILER                 ,ACTIVE (ISSUED),20191203,3603533628,0,0
SWEET RELIEF CANNABIS EXPRESS                ,422336,6.04E+15,1009 E YAKIMA AVE             ,                         ,YAKIMA                  ,WA,YAKIMA,989012558,MARIJUANA RETAILER                 ,ACTIVE (ISSUED),20200221,3609096327,0,0
GREEN LIGHT COLLECTIVE                       ,412492,6.03E+15,10105 122ND ST E              ,                         ,PUYALLUP                ,WA,PIERCE,983733566,MARIJUANA RETAILER                 ,PENDING (NOT ISSUED),,2532416356,0,0
TWISP HOUSE OF CANNABIS                      ,400085,6.04E+15,1017 E METHOW VALLEY HWY      ,                         ,TWISP                   ,WA,OKANOGAN,988560000,MARIJUANA RETAILER                 ,ACTIVE (ISSUED),20200606,5099970996,0,0
GREENLIGHT                                   ,415112,6.03E+15,10309 E TRENT AVE             ,                         ,MILLWOOD                ,WA,SPOKANE,992064514,MARIJUANA RETAILER                 ,ACTIVE (ISSUED),20191213,5094752821,0,0
28 GRAHAMS CANNABIS                          ,428654,6.03E+15,10315 200TH ST E              ,                         ,GRAHAM                  ,WA,PIERCE,983380000,MARIJUANA RETAILER                 ,ACTIVE (ISSUED),20200610,2537405648,0,0
THE BAKEREE                                  ,414456,6.04E+15,10326 AURORA AVE N            ,                         ,SEATTLE                 ,WA,KING,981339228,MARIJUANA RETAILER                 ,ACTIVE (ISSUED),20200514,2066969764,0,0
LUX POT SHOP                                 ,414160,6.03E+15,10333 LAKE CITY WAY NE #101   ,                         ,SEATTLE                 ,WA,KING,981257737,MARIJUANA RETAILER                 ,ACTIVE (ISSUED),20200605,2067193162,0,0
MARY JANES                                   ,414864,6.04E+15,1037 W MARINA DR              ,                         ,MOSES LAKE              ,WA,GRANT,988372635,MARIJUANA RETAILER                 ,ACTIVE (ISSUED),20200530,5098554485,0,0
BETTER BUDS                                  ,425965,6.03E+15,10384 SILVERDALE WAY NW STE 10,                         ,SILVERDALE              ,WA,KITSAP,983837670,MARIJUANA RETAILER                 ,ACTIVE (ISSUED),20190917,3607316611,0,0
CENTRALIA CANNABIS CONNECTION                ,414767,6.01E+15,1039 S GOLD ST                ,                         ,CENTRALIA               ,WA,LEWIS,985313711,MARIJUANA RETAILER                 ,ACTIVE (ISSUED),20191213,3607480807,0,0
THE GRASS STATION                            ,422658,6.04E+15,103B W GALBREATH WAY          ,                         ,RITZVILLE               ,WA,ADAMS,991690000,MARIJUANA RETAILER                 ,ACTIVE (ISSUED),20191105,5094998462,0,0
GREEN COLLAR CANNABIS                        ,412923,6.03E+15,10422 PACIFIC AVE S STE B     ,                         ,TACOMA                  ,WA,PIERCE,984446052,MARIJUANA RETAILER                 ,ACTIVE (ISSUED),20191112,2533145113,0,0
OCEAN GREENS                                 ,428942,6.03E+15,10524 AURORA AVE N            ,                         ,SEATTLE                 ,WA,KING,981338812,MARIJUANA RETAILER                 ,ACTIVE (ISSUED),20190927,2062299893,0,0
SATIVA SISTERS                               ,413739,6.03E+15,10525 E TRENT AVE STE 1       ,                         ,SPOKANE                 ,WA,SPOKANE,992064516,MARIJUANA RETAILER                 ,ACTIVE (ISSUED),20191214,2086603909,0,0
SEATTLE TREES COLLECTIVE                     ,413519,6.03E+15,10532 GREENWOOD AVE N         ,                         ,SEATTLE                 ,WA,KING,981338721,MARIJUANA RETAILER                 ,ACTIVE (ISSUED),20191112,2533208712,0,0
BUD BARN                                     ,428005,6.04E+15,10619 VANCIL RD SE            ,                         ,YELM                    ,WA,THURSTON,985979504,MARIJUANA RETAILER                 ,PENDING (ISSUED),20190701,3609601220,0,0
SHELTON CANNABIS COMPANY                     ,426677,6.04E+15,1065 SE STATE ROUTE 3         ,                         ,SHELTON                 ,WA,MASON,985849195,MARIJUANA RETAILER                 ,ACTIVE (ISSUED),20200313,4044063054,0,0
BLOOM                                        ,414103,6.04E+15,10707 PACIFIC AVE S SUITE D   ,                         ,TACOMA                  ,WA,PIERCE,984446098,MARIJUANA RETAILER                 ,ACTIVE (ISSUED),20190921,0,0,0
THE WEST SEATTLE MARIJUANA COMPANY           ,414868,6.03E+15,10825 MYERS WAY S             ,                         ,SEATTLE                 ,WA,KING,981681367,MARIJUANA RETAILER                 ,ACTIVE (ISSUED),20200414,2069492124,0,0
MODERN CREATIONS LLC                         ,422951,6.03E+15,10825 MYERS WAY S STE 200     ,                         ,SEATTLE                 ,WA,KING,981681367,MARIJUANA RETAILER                 ,ACTIVE (ISSUED),20200205,2063355857,0,0
NIMBIN FARM                                  ,415658,6.03E+15,10859 1ST AVE S STE A         ,                         ,SEATTLE                 ,WA,KING,981681309,MARIJUANA RETAILER                 ,ACTIVE (ISSUED),20200221,2532617600,0,0
THE SAGE SHOP                                ,420764,6.03E+15,1096 HWY 153                  ,                         ,METHOW                  ,WA,OKANOGAN,988340000,MARIJUANA RETAILER                 ,ACTIVE (ISSUED),20191106,5093225286,0,0
MUKILTEO CANNABIS CO                         ,421952,6.04E+15,11012 MUKILTEO SPEEDWAY #A    ,                         ,MUKILTEO                ,WA,SNOHOMISH,982755400,MARIJUANA RETAILER                 ,CLOSED (PERMANENT),20170201,2534595741,0,0
HERBN ELEMENTS                               ,413570,6.04E+15,11013 LAKE CITY WAY NE        ,                         ,SEATTLE                 ,WA,KING,981250000,MARIJUANA RETAILER                 ,ACTIVE (ISSUED),20200409,4029269892,0,0
STAR 21                                      ,421695,6.04E+15,11042 1ST AVENUE S            ,                         ,SEATTLE                 ,WA,KING,981681402,MARIJUANA RETAILER                 ,ACTIVE (ISSUED),20200226,2065367791,0,0
UNCLE IKE'S                                  ,420793,6.05E+15,11064 LAKE CITY WAY NE  STE 6 ,STE 6                    ,SEATTLE                 ,WA,KING,981256730,MARIJUANA RETAILER                 ,ACTIVE (ISSUED),20200624,2064203784,0,0
THE REEF                                     ,413870,6.03E+15,1107 N CALLOW AVE STE C       ,                         ,BREMERTON               ,WA,KITSAP,983123007,MARIJUANA RETAILER                 ,ACTIVE (ISSUED),20191005,2066866362,0,0
CANNABIZ                                     ,87932,6.03E+15,1109 RIVER RD STE A           ,                         ,PUYALLUP                ,WA,PIERCE,983713848,MARIJUANA RETAILER                 ,ACTIVE (ISSUED),20191018,2532611850,0,0
HWY 420                                      ,413843,6.03E+15,1110 CHARLESTON BEACH RD W    ,                         ,BREMERTON               ,WA,KITSAP,983124504,MARIJUANA RETAILER                 ,ACTIVE (ISSUED),20200414,3609323182,0,0
KING CRONIC                                  ,425925,6.04E+15,1110 E YELM AVE STE C         ,                         ,YELM                    ,WA,THURSTON,985977690,MARIJUANA RETAILER                 ,ACTIVE (ISSUED),20191219,3609676056,0,0
LUCKY LEAF                                   ,422442,6.03E+15,1111 W 1ST AVE STE A          ,                         ,SPOKANE                 ,WA,SPOKANE,992014005,MARIJUANA RETAILER                 ,ACTIVE (ISSUED),20191008,5095194248,0,0
KUSHMAN                                      ,415287,6.03E+15,11110 MUKILTEO SPEEDWAY       ,SUITE 102                ,MUKILTEO                ,WA,SNOHOMISH,982755450,MARIJUANA RETAILER                 ,ACTIVE (ISSUED),20200117,4254441575,0,0
THE SMOKIAM                                  ,88262,6.03E+15,112 DAISY ST S                ,                         ,SOAP LAKE               ,WA,GRANT,988519119,MARIJUANA RETAILER                 ,PENDING (NOT ISSUED),,5092899443,0,0
URBAN BUD                                    ,415010,6.03E+15,112 S 24TH ST                 ,                         ,TACOMA                  ,WA,PIERCE,984022904,MARIJUANA RETAILER                 ,PENDING (ISSUED),20200220,2533271572,0,0
GREEN RUSH INVESTMENT                        ,421632,6.04E+15,1123 SLEATER KINNEY RD SE     ,                         ,LACEY                   ,WA,THURSTON,985032300,MARIJUANA RETAILER                 ,ACTIVE (ISSUED),20190824,2487050988,0,0
BUD HUT                                      ,413901,6.03E+15,1131 E STATE ROUTE 532        ,                         ,CAMANO ISLAND           ,WA,ISLAND,982828833,MARIJUANA RETAILER                 ,ACTIVE (ISSUED),20200515,4254789928,0,0
BLOOM CANNABIS                               ,350766,6.04E+15,11311 HWY 99                  ,                         ,EVERETT                 ,WA,SNOHOMISH,982044816,MARIJUANA RETAILER                 ,ACTIVE (ISSUED),20190921,0,0,0
"HIGH TIDE COMPANIES, LLC                     ",420894,6.04E+15,11325 HIGHWAY 99              ,                         ,EVERETT                 ,WA,SNOHOMISH,982044816,MARIJUANA RETAILER                 ,ACTIVE (ISSUED),20200114,0,0,0
WESTERN BUD                                  ,414959,6.03E+15,11401 RAINIER AVE S           ,                         ,SEATTLE                 ,WA,KING,981783947,MARIJUANA RETAILER                 ,ACTIVE (ISSUED),20191218,2066124887,0,0
LUCID CANNABIS COMPANY                       ,420497,6.04E+15,11414 N. NEWPORT HWY          ,                         ,SPOKANE                 ,WA,SPOKANE,992181616,MARIJUANA RETAILER                 ,ACTIVE (ISSUED),20191127,2532269284,0,0
EVERGREEN MARKET - KIRKLAND                  ,357129,6.04E+15,11438 NE 124TH ST             ,                         ,KIRKLAND                ,WA,KING,980344305,MARIJUANA RETAILER                 ,ACTIVE (ISSUED),20191220,4257652935,0,0
OZ. KING CANNABIS                            ,414573,6.03E+15,11463 RAINIER AVE S STE A     ,                         ,SEATTLE                 ,WA,KING,981783963,MARIJUANA RETAILER                 ,ACTIVE (ISSUED),20191107,2062517358,0,0
HWY 420                                      ,413427,6.03E+15,11493 CLEAR CREEK RD          ,                         ,SILVERDALE              ,WA,KITSAP,983839657,MARIJUANA RETAILER                 ,ACTIVE (ISSUED),20200605,3604408671,0,0
HAVE A HEART                                 ,423379,6.03E+15,115 BLANCHARD ST              ,                         ,SEATTLE                 ,WA,KING,981212020,MARIJUANA RETAILER                 ,ACTIVE (ISSUED),20191004,5202508988,0,0
THE SLOW BURN                                ,414470,6.03E+15,1151 MARKET ST                ,                         ,UNION GAP               ,WA,YAKIMA,989030000,MARIJUANA RETAILER                 ,ACTIVE (ISSUED),20200605,5094522787,0,0
NORTHWEST CANNABIS CONNECTION                ,423492,6.03E+15,11522 CANYON RD E             ,                         ,PUYALLUP                ,WA,PIERCE,983734360,MARIJUANA RETAILER                 ,ACTIVE (ISSUED),20190702,2532920444,0,0
CLUTCH CANNABIS                              ,413803,6.03E+15,11537 RAINIER AVE S           ,                         ,SEATTLE                 ,WA,KING,981783984,MARIJUANA RETAILER                 ,ACTIVE (ISSUED),20191022,2063210149,0,0
BUD HUT                                      ,415504,6.03E+15,11603 HWY 99                  ,                         ,EVERETT                 ,WA,SNOHOMISH,982044811,MARIJUANA RETAILER                 ,ACTIVE (ISSUED),20191024,4253531449,0,0
EVERETT CANNABIS                             ,421448,6.04E+15,11627 AIRPORT RD              ,SUITE F                  ,EVERETT                 ,WA,SNOHOMISH,982048714,MARIJUANA RETAILER                 ,CLOSED (PERMANENT),20171123,2068908368,0,0
FORBIDDEN CANNABIS CLUB                      ,422785,6.04E+15,1171 WIND RIVER HIGHWAY       ,SUITE A                  ,CARSON                  ,WA,SKAMANIA,986100000,MARIJUANA RETAILER                 ,ACTIVE (ISSUED),20200414,2532241442,0,0
SEEDZ FAMILY                                 ,422232,6.03E+15,1180 BURLINGTON BLVD          ,                         ,BURLINGTON              ,WA,SKAGIT,982333333,MARIJUANA RETAILER                 ,ACTIVE (ISSUED),20200604,4252809482,0,0
ORCHARDS CANNABIS MARKET                     ,83380,6.04E+15,11800 NE 65TH ST              ,                         ,VANCOUVER               ,WA,CLARK,986625552,MARIJUANA RETAILER                 ,ACTIVE (ISSUED),20200429,3607987194,0,0
KUSH POINTE                                  ,421630,6.03E+15,11811 MUKILTEO SPEEDWAY       ,UNIT 111                 ,MUKILTEO                ,WA,SNOHOMISH,982755442,MARIJUANA RETAILER                 ,ACTIVE (ISSUED),20191128,2065795394,0,0
THE GALLERY CANYON                           ,413813,6.03E+15,11821 CANYON RD E             ,                         ,PUYALLUP                ,WA,PIERCE,983734453,MARIJUANA RETAILER                 ,ACTIVE (ISSUED),20191207,3052988577,0,0
STARBUDS LLC                                 ,420336,6.04E+15,11834 NE 90TH ST              ,                         ,KIRKLAND                ,WA,KING,980335814,MARIJUANA RETAILER                 ,ACTIVE (ISSUED),20200618,4252693242,0,0
HERBAL E SCENTS                              ,411970,6.02E+15,120 NE CANNING DR             ,                         ,COLVILLE                ,WA,STEVENS,991142004,MARIJUANA RETAILER                 ,ACTIVE (ISSUED),20200619,5096844420,0,0
FWEEDOM CANNABIS                             ,412922,6.03E+15,12001 AURORA AVE N UNIT #1    ,                         ,SEATTLE                 ,WA,KING,981338249,MARIJUANA RETAILER                 ,PENDING (ISSUED),20200424,2064190260,0,0
SEATTLE TONICS                               ,414731,6.03E+15,12059 AURORA AVE N            ,                         ,SEATTLE                 ,WA,KING,981338249,MARIJUANA RETAILER                 ,ACTIVE (ISSUED),20191024,2063636000,0,0
"MOUNT BAKER RETAIL PARTNERS, LLC             ",422361,6.03E+15,1209 HWY 281 SPUR SUITE K     ,                         ,QUINCY                  ,WA,GRANT,988489510,MARIJUANA RETAILER                 ,ACTIVE (ISSUED),20191227,4257530673,0,0
THE HAPPY CROP SHOPPE                        ,420934,6.03E+15,1210 N WENATCHEE AVE STE J    ,                         ,WENATCHEE               ,WA,CHELAN,988016707,MARIJUANA RETAILER                 ,ACTIVE (ISSUED),20190720,5096696835,0,0
NSK CANNABIS                                 ,425584,6.03E+15,1212 N GRAND AVE              ,                         ,PULLMAN                 ,WA,WHITMAN,991633427,MARIJUANA RETAILER                 ,ACTIVE (ISSUED),20200104,2069308577,0,0
SPARKET                                      ,86823,6.03E+15,1215 E FRONT ST               ,                         ,PORT ANGELES            ,WA,CLALLAM,983624309,MARIJUANA RETAILER                 ,ACTIVE (ISSUED),20191018,3604604902,0,0
MARIJUANA CLUB 99                            ,415674,6.04E+15,1215 N LAKE SAMISH DR STE 2   ,                         ,BELLINGHAM              ,WA,WHATCOM,982299310,MARIJUANA RETAILER                 ,CLOSED (PERMANENT),20180403,2533208712,0,0
SOUTH BELLINGHAM BUDS                        ,422930,6.03E+15,1215 N LAKE SAMISH DR UNIT 1  ,                         ,BELLINGHAM              ,WA,WHATCOM,982299310,MARIJUANA RETAILER                 ,ACTIVE (ISSUED),20191023,3038295712,0,0
DESTINATION HIGHWAY 420                      ,414503,6.03E+15,1225 HOLLIS ST                ,                         ,BREMERTON               ,WA,KITSAP,983103611,MARIJUANA RETAILER                 ,ACTIVE (ISSUED),20191225,3603406996,0,0
PEND OREILLE CANNABIS CO                     ,76189,6.04E+15,124 RIVERSIDE AVE             ,                         ,IONE                    ,WA,PEND OREILLE,991390000,MARIJUANA RETAILER                 ,ACTIVE (ISSUED),20191011,5094423420,0,0
CASCADE HERB COMPANY                         ,415094,6.03E+15,1240 E MAPLE ST STE 103       ,                         ,BELLINGHAM              ,WA,WHATCOM,982255749,MARIJUANA RETAILER                 ,ACTIVE (ISSUED),20191210,3607782357,0,0
NW CHRONICLES                                ,415634,6.03E+15,12402 134TH AVE KPN           ,STE A                    ,GIG HARBOR              ,WA,PIERCE,983295544,MARIJUANA RETAILER                 ,ACTIVE (ISSUED),20200331,2535740955,0,0
HIGHER LEAF MARIJUANA BOUTIQUE               ,422218,6.03E+15,12525 WILLOWS RD NE STE 10    ,                         ,KIRKLAND                ,WA,KING,980348735,MARIJUANA RETAILER                 ,ACTIVE (ISSUED),20200512,4258205967,0,0
"MOUNT BAKER RETAIL PARTNERSHIP,LLC           ",422981,6.03E+15,12539 E MARGINAL WAY S STE C  ,                         ,TUKWILA                 ,WA,KING,981682560,MARIJUANA RETAILER                 ,ACTIVE (ISSUED),20200131,4257530673,0,0
TRU GREENTHUMB                               ,407950,6.04E+15,1254 MT SAINT HELENS WAY NE #C,STE C                    ,CASTLE ROCK             ,WA,COWLITZ,986119010,MARIJUANA RETAILER                 ,ACTIVE (ISSUED),20200130,0,0,0
MARIJUANA CLUB 99                            ,426895,6.04E+15,12631 HWY 99 STE A            ,                         ,EVERETT                 ,WA,SNOHOMISH,982040000,MARIJUANA RETAILER                 ,ACTIVE (ISSUED),20200213,4252688875,0,0
GREEN THEORY FACTORIA                        ,421777,6.04E+15,12827 SE 40TH PL              ,                         ,BELLEVUE                ,WA,KING,980061232,MARIJUANA RETAILER                 ,ACTIVE (ISSUED),20200512,2069921911,0,0
HAVE A HEART                                 ,415333,6.03E+15,12833 MARTIN LUTHER KING JR   ,WAY S                    ,SEATTLE                 ,WA,KING,981783513,MARIJUANA RETAILER                 ,ACTIVE (ISSUED),20200221,2062618206,0,0
III KING COMPANY                             ,414750,6.03E+15,12925 MARTIN LUTHER KINGJR WAY,                         ,SEATTLE                 ,WA,KING,981780000,MARIJUANA RETAILER                 ,ACTIVE (ISSUED),20191019,2064911397,0,0
SLOW BURN                                    ,414508,6.03E+15,1300 N 40TH ST STE 111        ,                         ,YAKIMA                  ,WA,YAKIMA,989080000,MARIJUANA RETAILER                 ,ACTIVE (ISSUED),20200605,5099692600,0,0
FORBIDDEN FLOWER                             ,422303,6.04E+15,13003 TUKWILA INTERNATIONAL BL,UNIT A                   ,TUKWILA                 ,WA,KING,981683139,MARIJUANA RETAILER                 ,ACTIVE (ISSUED),20200305,2062350635,0,0
THE GALLERY PARKLAND                         ,413258,6.03E+15,13005 PACIFIC AVE S           ,                         ,TACOMA                  ,WA,PIERCE,984444857,MARIJUANA RETAILER                 ,ACTIVE (ISSUED),20190709,3052988577,0,0
V.S.W.                                       ,362444,6.04E+15,13014 WA-99                   ,                         ,EVERETT                 ,WA,SNOHOMISH,982040000,MARIJUANA RETAILER                 ,CLOSED (PERMANENT),20171225,2062715468,0,0
THE TOP SHELF                                ,414716,6.04E+15,1305 S HAYFORD RD STE A       ,                         ,AIRWAY HEIGHTS          ,WA,SPOKANE,992245276,MARIJUANA RETAILER                 ,ACTIVE (ISSUED),20200505,5094741050,0,0
KARMA CANNABIS                               ,421168,6.04E+15,131 RIVER RD   STE A          ,                         ,SEQUIM                  ,WA,CLALLAM,983829804,MARIJUANA RETAILER                 ,ACTIVE (ISSUED),20191010,3604606641,0,0
HAPPY TIME                                   ,354876,6.04E+15,1315 N 1ST ST                 ,                         ,YAKIMA                  ,WA,YAKIMA,989011801,MARIJUANA RETAILER                 ,ACTIVE (ISSUED),20200430,5094802097,0,0
THE POT SHOP BELLINGHAM                      ,430084,6.04E+15,1321 W BAKERVIEW RD           ,                         ,BELLINGHAM              ,WA,WHATCOM,982269691,MARIJUANA RETAILER                 ,ACTIVE (ISSUED),20200317,3607560000,0,0
KUSHMART SOUTH EVERETT                       ,416102,6.04E+15,13220 HWY 99 S                ,                         ,EVERETT                 ,WA,SNOHOMISH,982045424,MARIJUANA RETAILER                 ,ACTIVE (ISSUED),20200401,4255820088,0,0
KUSH 21                                      ,415406,6.05E+15,13224 HWY 99 STE A            ,                         ,EVERETT                 ,WA,SNOHOMISH,982045424,MARIJUANA RETAILER                 ,PENDING (NOT ISSUED),,3605611664,0,0
THE VAULT CANNABIS                           ,88920,6.03E+15,1323 E PIONEER HWY            ,                         ,STANWOOD                ,WA,SNOHOMISH,982920000,MARIJUANA RETAILER                 ,ACTIVE (ISSUED),20191019,4252488559,0,0
APEX CANNABIS                                ,425767,6.03E+15,1325 N DIVISION ST STE 104    ,                         ,SPOKANE                 ,WA,SPOKANE,992021808,MARIJUANA RETAILER                 ,ACTIVE (ISSUED),20190702,5094990646,0,0
FREEDOM MARKET ILWACO                        ,421757,6.04E+15,133 HOWERTON AVE SE STE B     ,                         ,ILWACO                  ,WA,PACIFIC,986249088,MARIJUANA RETAILER                 ,ACTIVE (ISSUED),20191017,3607036090,0,0
THE ROACH 420                                ,414216,6.03E+15,133 STATE AVE                 ,                         ,BREWSTER                ,WA,DOUGLAS,988129643,MARIJUANA RETAILER                 ,ACTIVE (ISSUED),20191031,5094497334,0,0
SATORI                                       ,417114,6.03E+15,1330 SE BISHOP BLVD           ,                         ,PULLMAN                 ,WA,WHITMAN,991630000,MARIJUANA RETAILER                 ,ACTIVE (ISSUED),20200601,5099947051,0,0
MJ'S POT SHOP                                ,415314,6.03E+15,1335 SE BISHOP BLVD           ,                         ,PULLMAN                 ,WA,WHITMAN,991636408,MARIJUANA RETAILER                 ,ACTIVE (ISSUED),20191217,5093321011,0,0
WE'RE JUST BUDS                              ,414995,6.03E+15,1340 SE BISHOP BLVD STE A     ,                         ,PULLMAN                 ,WA,WHITMAN,991636409,MARIJUANA RETAILER                 ,ACTIVE (ISSUED),20200602,5093320160,0,0
MARY JANE                                    ,415652,6.03E+15,13513 NE 126TH PL SUITE C     ,                         ,KIRKLAND                ,WA,KING,980340000,MARIJUANA RETAILER                 ,ACTIVE (ISSUED),20200327,4252996565,0,0
GREEN CITY COLLECTIVE                        ,413737,6.03E+15,13601 HIGHWAY 99 STE B        ,                         ,EVERETT                 ,WA,SNOHOMISH,982045496,MARIJUANA RETAILER                 ,CLOSED (PERMANENT),20171021,4258693670,0,0
420 SPOT SHOP                                ,414550,6.03E+15,1374 SE LUND AVE              ,                         ,PORT ORCHARD            ,WA,KITSAP,983665628,MARIJUANA RETAILER                 ,ACTIVE (ISSUED),20200307,3603405966,0,0
EUPHORIUM 420                                ,422120,6.03E+15,13813 HWY 99                  ,                         ,LYNNWOOD                ,WA,SNOHOMISH,980871723,MARIJUANA RETAILER                 ,ACTIVE (ISSUED),20191125,4255774533,0,0
WESTERN BUD                                  ,421707,6.04E+15,1401 IOWA ST                  ,                         ,BELLINGHAM              ,WA,WHATCOM,982294763,MARIJUANA RETAILER                 ,ACTIVE (ISSUED),20190821,3609331428,0,0
THE HERBERY                                  ,428826,6.03E+15,1401 NE 78TH ST               ,                         ,VANCOUVER               ,WA,CLARK,986650000,MARIJUANA RETAILER                 ,ACTIVE (ISSUED),20200511,3609079694,0,0
FLOYD'S CANNABIS CO.                         ,414223,6.04E+15,1403 E 1ST STREET             ,                         ,PORT ANGELES            ,WA,CLALLAM,983624607,MARIJUANA RETAILER                 ,ACTIVE (ISSUED),20200228,0,0,0
LOVELY BUDS DIVISION                         ,410798,6.04E+15,1403 N DIVISION ST STE A      ,                         ,SPOKANE                 ,WA,SPOKANE,992021810,MARIJUANA RETAILER                 ,ACTIVE (ISSUED),20190731,2082904347,0,0
STARBUDS                                     ,429453,6.04E+15,141 SAMISH WAY STE 145        ,                         ,BELLINGHAM              ,WA,WHATCOM,982256033,MARIJUANA RETAILER                 ,ACTIVE (ISSUED),20191104,3606710111,0,0
MR. DOOBEES                                  ,424190,6.03E+15,1410 40TH ST                  ,                         ,SEAVIEW                 ,WA,PACIFIC,986442037,MARIJUANA RETAILER                 ,ACTIVE (ISSUED),20200623,3608758016,0,0
NORTHWEST CANNABIS                           ,413996,6.04E+15,1411 E OLIVE WAY              ,                         ,SEATTLE                 ,WA,KING,981222127,MARIJUANA RETAILER                 ,ACTIVE (ISSUED),20200618,4256985381,0,0
CINDER                                       ,414817,6.03E+15,1421 N MULLAN RD STE B        ,                         ,SPOKANE VALLEY          ,WA,SPOKANE,992064051,MARIJUANA RETAILER                 ,ACTIVE (ISSUED),20191101,5092413726,0,0
GREEN LADY EVERETT                           ,421667,6.04E+15,14221 LAKE RD                 ,                         ,LYNNWOOD                ,WA,SNOHOMISH,980871710,MARIJUANA RETAILER                 ,ACTIVE (ISSUED),20191221,5098697574,0,0
"TJ'S CANNABIS BUDS, OILS, AND MORE           ",415183,6.04E+15,1428 OLYMPIC HWY S STE A      ,                         ,SHELTON                 ,WA,MASON,985840000,MARIJUANA RETAILER                 ,ACTIVE (ISSUED),20190810,3604272990,0,0
THE JOINT                                    ,420389,6.03E+15,14325 1ST AVE S STE 101       ,                         ,BURIEN                  ,WA,KING,981683418,MARIJUANA RETAILER                 ,ACTIVE (ISSUED),20200321,2062255555,0,0
MULTIVERSE HOLDINGS                          ,414785,6.04E+15,14343 15TH AVE NE             ,                         ,SEATTLE                 ,WA,KING,981253162,MARIJUANA RETAILER                 ,ACTIVE (ISSUED),20190216,4256985381,0,0
TREEHOUSE CLUB                               ,413369,6.03E+15,14421 E TRENT AVE             ,                         ,SPOKANE VALLEY          ,WA,SPOKANE,992161392,MARIJUANA RETAILER                 ,ACTIVE (ISSUED),20200618,5094132169,0,0
CANNARAIL STATION                            ,413366,6.04E+15,1448 BASIN ST NW SUITE A      ,                         ,EPHRATA                 ,WA,GRANT,988239695,MARIJUANA RETAILER                 ,ACTIVE (ISSUED),20190919,5067541047,0,0
"WEST COAST ENGINE DESIGN, LLC                ",422753,6.03E+15,14500 468TH AVE SE STE B      ,                         ,NORTH BEND              ,WA,KING,980450000,MARIJUANA RETAILER                 ,ACTIVE (ISSUED),20191113,4257667077,0,0
A GREENER TODAY MARIJUANA-LYNNWOOD           ,422109,6.04E+15,14608 HWY 99 SUITE #304       ,                         ,LYNNWOOD                ,WA,SNOHOMISH,980875500,MARIJUANA RETAILER                 ,ACTIVE (ISSUED),20191105,4257736037,0,0
SWEET RELEAF                                 ,413385,6.04E+15,14637 STATE ROUTE 20          ,                         ,MOUNT VERNON            ,WA,SKAGIT,982737276,MARIJUANA RETAILER                 ,ACTIVE (ISSUED),20200116,2069621025,0,0
RUCKUS                                       ,413692,6.03E+15,1465 E REPUBLICAN ST          ,                         ,SEATTLE                 ,WA,KING,981124512,MARIJUANA RETAILER                 ,ACTIVE (ISSUED),20190719,2063630930,0,0
HYPEHERBALLY                                 ,425498,6.04E+15,14702 HIGHWAY 99              ,                         ,LYNNWOOD                ,WA,SNOHOMISH,980875522,MARIJUANA RETAILER                 ,ACTIVE (ISSUED),20200604,4252809482,0,0
DOCKSIDE CANNABIS                            ,414569,6.03E+15,15001 AURORA AVE N            ,STE 15029                ,SHORELINE               ,WA,KING,981336134,MARIJUANA RETAILER                 ,ACTIVE (ISSUED),20191221,2066186094,0,0
MR. GREENS CANNABIS                          ,427850,6.04E+15,15029 BOTHELL WAY NE STE 100  ,                         ,LAKE FOREST PARK        ,WA,KING,981557600,MARIJUANA RETAILER                 ,ACTIVE (ISSUED),20200618,2069202178,0,0
THE M STORE                                  ,415303,6.04E+15,1503 A E NOB HILL BLVD        ,                         ,YAKIMA                  ,WA,YAKIMA,989010000,MARIJUANA RETAILER                 ,ACTIVE (ISSUED),20191018,4252603482,0,0
ALTERNATIVE MEDICINE COLLECTIVE,77000,6.03E+15,15041 BOTHELL WAY NE,,SEATTLE,WA,KING,981093019,MARIJUANA RETAILER                 ,ACTIVE (ISSUED),20180327,2069159212,1,https://data.lcb.wa.gov/Licensing/Licensed-Businesses/u3zh-ri66
CRAFT CANNABIS                               ,414065,6.04E+15,1510 N WENATCHEE AVE          ,                         ,WENATCHEE               ,WA,CHELAN,988011157,MARIJUANA RETAILER                 ,ACTIVE (ISSUED),20200624,5096799999,0,0
CANNABIS CENTRAL                             ,422944,6.03E+15,1514 W UNIVERSITY WAY         ,                         ,ELLENSBURG              ,WA,KITTITAS,989262337,MARIJUANA RETAILER                 ,ACTIVE (ISSUED),20200320,5092011144,0,0
4:20 FRIENDLY                                ,413586,6.03E+15,1515 LEWIS ST                 ,                         ,SPOKANE                 ,WA,SPOKANE,992249785,MARIJUANA RETAILER                 ,ACTIVE (ISSUED),20190924,5094990999,0,0
TOKER FRIENDLY                               ,417486,6.03E+15,1515 S LYONS RD  STE B        ,STE B                    ,AIRWAY HEIGHTS          ,WA,SPOKANE,990010000,MARIJUANA RETAILER                 ,ACTIVE (ISSUED),20190809,5092448728,0,0
THE REEF                                     ,426562,6.04E+15,1525 E OLIVE WAY STE B        ,                         ,SEATTLE                 ,WA,KING,981222129,MARIJUANA RETAILER                 ,ACTIVE (ISSUED),20200214,2067556345,0,0
ORCAS ISLAND CANNABIS                        ,420390,6.03E+15,1533 MT BAKER RD              ,                         ,EASTSOUND               ,WA,SAN JUAN,982450000,MARIJUANA RETAILER                 ,ACTIVE (ISSUED),20200602,3603175704,0,0
GYPSY GREEN                                  ,421900,6.03E+15,1570 N NATIONAL AVE STE 105   ,                         ,CHEHALIS                ,WA,LEWIS,985322215,MARIJUANA RETAILER                 ,ACTIVE (ISSUED),20200407,5055507710,0,0
KUSHMAN                                      ,421552,6.03E+15,15804 HIGHWAY 99 UNIT A       ,                         ,LYNNWOOD                ,WA,SNOHOMISH,980871426,MARIJUANA RETAILER                 ,ACTIVE (ISSUED),20200121,4254441575,0,0
PUFF N CHILL LLC                             ,415238,6.04E+15,15919 HWY 99                  ,                         ,LYNNWOOD                ,WA,SNOHOMISH,980871427,MARIJUANA RETAILER                 ,ACTIVE (ISSUED),20200417,4252437082,0,0
WHITE RABBIT RETAIL                          ,414398,6.03E+15,15928 HWY 99                  ,                         ,LYNNWOOD                ,WA,SNOHOMISH,980870000,MARIJUANA RETAILER                 ,ACTIVE (ISSUED),20191012,4257454242,0,0
THE GRASS IS ALWAYS GREENER                  ,430424,6.03E+15,15935 REDMOND WAY             ,                         ,REDMOND                 ,WA,KING,980523836,MARIJUANA RETAILER                 ,ACTIVE (ISSUED),20200616,2064094398,0,0
ALWAYS GREENER DOWNTOWN                      ,415486,6.04E+15,15937 REDMOND WAY STE B       ,                         ,REDMOND                 ,WA,KING,980523836,MARIJUANA RETAILER                 ,ACTIVE (ISSUED),20200312,4258615497,0,0
A GREENER TODAY MARIJUANA                    ,414814,6.03E+15,16053 AURORA AVE N STE B      ,STE B                    ,SHORELINE               ,WA,KING,981332610,MARIJUANA RETAILER                 ,ACTIVE (ISSUED),20191018,2068017756,0,0
YAKIMA WEED CO                               ,353928,6.04E+15,1606 FRUITVALE BLVD           ,                         ,YAKIMA                  ,WA,YAKIMA,989021237,MARIJUANA RETAILER                 ,ACTIVE (ISSUED),20190830,2066826644,0,0
IT IS LIT                                    ,423203,6.04E+15,1611 S SMITTYS BLVD  STE B    ,STE B                    ,RITZVILLE               ,WA,ADAMS,991692264,MARIJUANA RETAILER                 ,ACTIVE (ISSUED),20200320,5096600497,0,0
2020 SOLUTIONS                       ,422239,6.04E+15,1615 BASIN ST SW              ,                         ,EPHRATA                 ,WA,GRANT,988232134,MARIJUANA RETAILER                 ,ACTIVE (ISSUED),20191213,3609154944,0,0
MARLEY 420                                   ,420889,6.03E+15,16204 SE 272ND ST  STE 1      ,STE 1                    ,COVINGTON               ,WA,KING,980428213,MARIJUANA RETAILER                 ,ACTIVE (ISSUED),20191224,2067147733,0,0
MAIN STREET MARIJUANA EAST                   ,421805,6.04E+15,16219 SE 12TH ST STE 104      ,                         ,VANCOUVER               ,WA,CLARK,986838905,MARIJUANA RETAILER                 ,ACTIVE (ISSUED),20200320,3606063260,0,0
POT SHOP                                     ,79013,6.03E+15,1628 DEXTER AVE N STE A       ,                         ,SEATTLE                 ,WA,KING,981093019,MARIJUANA RETAILER                 ,ACTIVE (ISSUED),20190822,6145615684,0,0
SEEDZ FAMILY                                 ,430373,6.03E+15,16300 MOTOR PL STE A          ,                         ,LYNNWOOD                ,WA,SNOHOMISH,980876516,MARIJUANA RETAILER                 ,ACTIVE (ISSUED),20200603,4252809482,0,0
ORIGINS                                      ,425507,6.04E+15,16390 CLEVELAND ST            ,                         ,REDMOND                 ,WA,KING,980524314,MARIJUANA RETAILER                 ,ACTIVE (ISSUED),20190924,2069223954,0,0
GREEN ROOM OH INC.                           ,422103,6.04E+15,1640 NE GOLDIE ST STE B       ,                         ,OAK HARBOR              ,WA,ISLAND,982774835,MARIJUANA RETAILER                 ,ACTIVE (ISSUED),20190620,2065048629,0,0
A GREENER TODAY MARIJUANA-GOLD BAR           ,422168,6.04E+15,16810 415TH AVE SE STE A-2    ,                         ,GOLD BAR                ,WA,SNOHOMISH,982510000,MARIJUANA RETAILER                 ,ACTIVE (ISSUED),20191105,4257736037,0,0
THE FORBIDDEN FLOWER                         ,413903,6.03E+15,1701 NW MARKET ST             ,                         ,SEATTLE                 ,WA,KING,981075225,MARIJUANA RETAILER                 ,PENDING (NOT ISSUED),,2062350635,0,0
NATURAL BLESSING CANNABIS                    ,423390,6.03E+15,17024 PACIFIC AVE S           ,STE B                    ,SPANAWAY                ,WA,PIERCE,983874940,MARIJUANA RETAILER                 ,ACTIVE (ISSUED),20200529,2534333961,0,0
POT ZONE                                     ,415229,6.03E+15,1703 SE SEDGWICK RD           ,STE 113                  ,PORT ORCHARD            ,WA,KITSAP,983669599,MARIJUANA RETAILER                 ,ACTIVE (ISSUED),20191025,2533127280,0,0
SEATTLE CANNABIS CO.                         ,426896,6.03E+15,1713 NW MARKET ST,,SEATTLE,WA,KING,981075225,MARIJUANA RETAILER                 ,ACTIVE (ISSUED),20180605,2062945839,0,0
THE FIRE HOUSE                               ,400772,6.04E+15,1714 CANYON RD                ,                         ,ELLENSBURG              ,WA,KITTITAS,989269739,MARIJUANA RETAILER                 ,ACTIVE (ISSUED),20200125,3607910112,0,0
DOCKSIDE CANNABIS                            ,414174,6.03E+15,1728 4TH AVE S                ,                         ,SEATTLE                 ,WA,KING,981340000,MARIJUANA RETAILER                 ,ACTIVE (ISSUED),20191221,2062236292,0,0
365 RECREATIONAL CANNABIS                    ,423784,6.03E+15,17517 15TH AVE NE #B          ,                         ,SHORELINE               ,WA,KING,981553801,MARIJUANA RETAILER                 ,ACTIVE (ISSUED),20200619,2065577778,0,0
KUSH KLUB                                    ,421876,6.04E+15,17547 15TH AVE NE             ,                         ,SHORELINE               ,WA,KING,981553801,MARIJUANA RETAILER                 ,ACTIVE (ISSUED),20191025,2067691282,0,0
KITSAP CANNABIS 2                            ,421359,6.04E+15,1762 VILLAGE LN SE            ,                         ,PORT ORCHARD            ,WA,KITSAP,983662644,MARIJUANA RETAILER                 ,PENDING (ISSUED),20191029,3608658092,0,0
LIVING WELL ENTERPRISES                      ,420741,6.03E+15,17730 AMBAUM BLVD S UNIT E    ,                         ,BURIEN                  ,WA,KING,981481785,MARIJUANA RETAILER                 ,PENDING (ISSUED),20191101,2068128092,0,0
CANNAZONE                                    ,422000,6.03E+15,17903 STATE ROUTE 536         ,                         ,MOUNT VERNON            ,WA,SKAGIT,982733269,MARIJUANA RETAILER                 ,ACTIVE (ISSUED),20200422,8602092288,0,0
CANNAZONE                                    ,424599,6.03E+15,17905 STATE ROUTE 536         ,                         ,MOUNT VERNON            ,WA,SKAGIT,982733269,MARIJUANA RETAILER                 ,ACTIVE (ISSUED),20191227,8602092288,0,0
EUPHORIUM 420                                ,420895,6.04E+15,17917 VASHON HWY SW           ,                         ,VASHON                  ,WA,KING,980705204,MARIJUANA RETAILER                 ,ACTIVE (ISSUED),20200523,4255774533,0,0
MOUNT VERNON CANNABIS                        ,422796,6.04E+15,17929 STATE ROUTE 536         ,STE B                    ,MOUNT VERNON            ,WA,SKAGIT,982733216,MARIJUANA RETAILER                 ,ACTIVE (ISSUED),20191227,3608994428,0,0
THE KUSHERY                                  ,415517,6.03E+15,18026 STATE ROUTE 9 SE STE 2  ,                         ,SNOHOMISH               ,WA,SNOHOMISH,982965330,MARIJUANA RETAILER                 ,ACTIVE (ISSUED),20200527,3608633256,0,0
THE NOVEL TREE                               ,414983,6.03E+15,1817 130TH AVE NE SUITE B & C ,                         ,BELLEVUE                ,WA,KING,980052225,MARIJUANA RETAILER                 ,ACTIVE (ISSUED),20191101,3609301700,0,0
CM&N ENTERPRISES                             ,422527,6.04E+15,1821 SE 192ND AVE             ,                         ,VANCOUVER               ,WA,CLARK,986070000,MARIJUANA RETAILER                 ,CLOSED (PERMANENT),20170422,2064987301,0,0
HIGH SOCIETY                                 ,414430,6.03E+15,1824 BROADWAY                 ,                         ,EVERETT                 ,WA,SNOHOMISH,982012349,MARIJUANA RETAILER                 ,ACTIVE (ISSUED),20191219,2063071651,0,0
GREEN SOLUTION PLACE                         ,422504,6.03E+15,1845 1ST ST                   ,                         ,CHENEY                  ,WA,SPOKANE,990041966,MARIJUANA RETAILER                 ,ACTIVE (ISSUED),20191115,2539732476,0,0
WHIDBEY ISLAND CANNABIS CO.                  ,423993,6.03E+15,1860 SCOTT RD                 ,                         ,FREELAND                ,WA,ISLAND,982499430,MARIJUANA RETAILER                 ,ACTIVE (ISSUED),20191218,3603216151,0,0
FREELAND CANNABIS COMPANY                    ,422777,6.04E+15,18646 SR 525 STE B            ,STE B                    ,FREELAND                ,WA,ISLAND,982498752,MARIJUANA RETAILER                 ,ACTIVE (ISSUED),20200325,4255126880,0,0
PRC                                          ,414574,6.03E+15,18729 FIR ISLAND RD STE C     ,                         ,MOUNT VERNON            ,WA,SKAGIT,982738159,MARIJUANA RETAILER                 ,PENDING (ISSUED),20190518,3604456221,0,0
KAHD HOLDING                                 ,421826,6.04E+15,18850 103RD AVE SW UNIT 105   ,                         ,VASHON                  ,WA,KING,980705250,MARIJUANA RETAILER                 ,ACTIVE (ISSUED),20191112,2068985900,0,0
LIVING WELL ENTERPRISES                      ,414454,6.03E+15,19001 VASHON HIGHWAY SOUTHWEST,                         ,VASHON ISLAND           ,WA,KING,980700000,MARIJUANA RETAILER                 ,ACTIVE (ISSUED),20191101,2062612916,0,0
UNCLE ANDO'S WURLD OF WEED                   ,415045,6.03E+15,1905 JOHNSON RD STE A         ,                         ,CENTRALIA               ,WA,LEWIS,985311926,MARIJUANA RETAILER                 ,ACTIVE (ISSUED),20191113,3602813921,0,0
CANNABIS COUNTRY STORE                       ,414970,6.03E+15,1910 W MAIN ST SUITE 101      ,                         ,BATTLE GROUND           ,WA,CLARK,986040000,MARIJUANA RETAILER                 ,ACTIVE (ISSUED),20200108,3607987194,0,0
SMUGGLER BROTHERS                            ,413762,6.03E+15,1912 STATE ROUTE 20           ,                         ,SEDRO WOOLLEY           ,WA,SKAGIT,982840000,MARIJUANA RETAILER                 ,ACTIVE (ISSUED),20191112,3606473437,0,0
CASCADE KROPZ                                ,425539,6.03E+15,19127 SMOKEY POINT BLVD BLDG 1,                         ,ARLINGTON               ,WA,SNOHOMISH,982234264,MARIJUANA RETAILER                 ,ACTIVE (ISSUED),20191214,3606595422,0,0
LOVELY BUDS NORTH                            ,412490,6.04E+15,1919 E FRANCIS AVE  STE B     ,                         ,SPOKANE                 ,WA,SPOKANE,992082747,MARIJUANA RETAILER                 ,ACTIVE (ISSUED),20200130,4065465411,0,0
HIGH END MARKET PLACE                        ,429699,6.03E+15,1924 BROADWAY ST SUITE A      ,                         ,VANCOUVER               ,WA,CLARK,986633380,MARIJUANA RETAILER                 ,ACTIVE (ISSUED),20191231,3606953612,0,0
THE KUSHERY                                  ,415513,6.04E+15,19258 15TH AVE NE STE B       ,                         ,LAKE FOREST PARK        ,WA,KING,981552315,MARIJUANA RETAILER                 ,ACTIVE (ISSUED),20200527,4252098924,0,0
HERBAL NATION                                ,413683,6.03E+15,19302 BOTHELL EVERETT HWY     ,                         ,BOTHELL                 ,WA,SNOHOMISH,980127113,MARIJUANA RETAILER                 ,ACTIVE (ISSUED),20200110,4254861111,0,0
A GREENER TODAY MARIJUANA                    ,422044,6.04E+15,19315 BOTHELL EVERETT HWY #1  ,UNIT 1                   ,BOTHELL                 ,WA,SNOHOMISH,980127112,MARIJUANA RETAILER                 ,ACTIVE (ISSUED),20200604,4257736021,0,0
GREEN THEORY                                 ,425068,6.04E+15,1940 124TH AVE NE STE A-101   ,                         ,BELLEVUE                ,WA,KING,980052130,MARIJUANA RETAILER                 ,ACTIVE (ISSUED),20200512,2069921911,1,googlemaps
GREEN FIRE CANNABIS                          ,350641,6.03E+15,1956 1ST AVE S                ,                         ,SEATTLE                 ,WA,KING,981341406,MARIJUANA RETAILER                 ,ACTIVE (ISSUED),20190810,2066233792,0,0
BLOWIN SMOKE                                 ,422202,6.03E+15,1967 HIGHWAY 395 S STE C      ,                         ,CHEWELAH                ,WA,STEVENS,991099708,MARIJUANA RETAILER                 ,ACTIVE (ISSUED),20200103,5099357420,0,0
THE BAKE SHOP                                ,413426,6.03E+15,19705 N GRIFFIN RD            ,                         ,PROSSER                 ,WA,BENTON,993500000,MARIJUANA RETAILER                 ,ACTIVE (ISSUED),20200430,5097782512,0,0
420 GRAND CENTRAL                            ,428560,6.04E+15,19941 OLD HIGHWAY 99 SW       ,                         ,ROCHESTER               ,WA,THURSTON,985798689,MARIJUANA RETAILER                 ,ACTIVE (ISSUED),20200306,3604026368,0,0
SWEET GREENS NORTHWEST                       ,413847,6.03E+15,19943 OLD HWY 99 SW           ,                         ,ROCHESTER               ,WA,THURSTON,985798689,MARIJUANA RETAILER                 ,CLOSED (PERMANENT),20171212,3608587630,0,0
SECRET HERB SHOP                             ,413994,6.02E+15,2 COLUMBIA DR                 ,STE A                    ,KETTLE FALLS            ,WA,FERRY,991419461,MARIJUANA RETAILER                 ,PENDING (ISSUED),20200522,5096844420,0,0
BUD HUT                                      ,422781,6.04E+15,200 SUZANNE LANE STE D        ,                         ,MOUNT VERNON            ,WA,SKAGIT,982739514,MARIJUANA RETAILER                 ,ACTIVE (ISSUED),20200128,3606681111,0,0
GREEN2GO TOKIO                               ,422655,6.03E+15,2008 N DURRY RD UNIT 2        ,                         ,SPRAGUE                 ,WA,ADAMS,990329621,MARIJUANA RETAILER                 ,ACTIVE (ISSUED),20200307,5095917100,0,0
2020 SOLUTIONS                   ,415470,6.04E+15,2018 IRON ST STE A            ,                         ,BELLINGHAM              ,WA,WHATCOM,982264212,MARIJUANA RETAILER                 ,PENDING (ISSUED),20191011,2068180966,0,0
SHADE'S GREEN EMPORIUM                       ,415521,6.03E+15,202 AVE D                     ,                         ,SNOHOMISH               ,WA,SNOHOMISH,982902745,MARIJUANA RETAILER                 ,PENDING (NOT ISSUED),,4256337515,0,0
420 HOLIDAY                                  ,415526,6.03E+15,2028 10TH AVE                 ,                         ,LONGVIEW                ,WA,COWLITZ,986324007,MARIJUANA RETAILER                 ,ACTIVE (ISSUED),20191214,3607033103,0,0
WESTERN BUD                                  ,422037,6.04E+15,20291 SR 20 UNIT 2            ,                         ,BURLINGTON              ,WA,SKAGIT,941409316,MARIJUANA RETAILER                 ,ACTIVE (ISSUED),20191023,2062097254,0,0
DANK'S WONDER EMPORIUM                       ,423571,6.03E+15,203 KINWOOD ST SE             ,                         ,LACEY                   ,WA,THURSTON,985031445,MARIJUANA RETAILER                 ,PENDING (NOT ISSUED),,3609158468,0,0
GRASS                                        ,415531,6.03E+15,205 W STEWART RD              ,SUITE 107                ,MOUNT VERNON            ,WA,SKAGIT,982735411,MARIJUANA RETAILER                 ,CLOSED (PERMANENT),20161220,3604738393,0,0
MOLECULE                                     ,426443,6.04E+15,206 MORGAN ST                 ,                         ,DAVENPORT               ,WA,LINCOLN,991225178,MARIJUANA RETAILER                 ,ACTIVE (ISSUED),20190228,5099362310,0,0
EVERGREEN MEADOWS                            ,425605,6.04E+15,208 E PINE ST                 ,                         ,SHELTON                 ,WA,MASON,985841418,MARIJUANA RETAILER                 ,ACTIVE (ISSUED),20191024,4258294959,0,0
SAPPHIRE CANNABIS                            ,422701,6.02E+15,209 E 4TH ST STE B            ,                         ,SPRAGUE                 ,WA,LINCOLN,990320000,MARIJUANA RETAILER                 ,ACTIVE (ISSUED),20200501,5099880219,0,0
EUPHORIUM 420                                ,414500,6.03E+15,20925 CYPRESS WAY STE C-103   ,                         ,LYNNWOOD                ,WA,SNOHOMISH,980367989,MARIJUANA RETAILER                 ,ACTIVE (ISSUED),20190917,9168359616,0,0
NORTH BAY MARIJUANA                          ,413407,6.03E+15,211 E NORTH BAY RD            ,STE B                    ,ALLYN                   ,WA,MASON,985240000,MARIJUANA RETAILER                 ,ACTIVE (ISSUED),20190907,3608014269,0,0
BUDEEZ                                       ,420661,6.04E+15,2111 E 11TH ST                ,                         ,BREMERTON               ,WA,KITSAP,983104810,MARIJUANA RETAILER                 ,ACTIVE (ISSUED),20191213,3606207114,0,0
EUPHORIUM                                    ,414495,6.03E+15,21127 STATE ROUTE 9 SE        ,                         ,WOODINVILLE             ,WA,SNOHOMISH,980729703,MARIJUANA RETAILER                 ,ACTIVE (ISSUED),20191008,2063352683,0,0
HERBAL LEGENDS                               ,413702,6.03E+15,2118 JAMES ST                 ,                         ,BELLINGHAM              ,WA,WHATCOM,982254140,MARIJUANA RETAILER                 ,CLOSED (PERMANENT),20170825,3605941738,0,0
THE HERBERY                                  ,84045,6.03E+15,212 NE 164TH AVE STE 11       ,                         ,VANCOUVER               ,WA,CLARK,986840000,MARIJUANA RETAILER                 ,CLOSED (TEMPORARY),20191024,3609490319,0,0
CHRONIC SOLUTIONS                            ,415222,6.03E+15,"212 W WINESAP RD STE 101, 102 ",                         ,BOTHELL                 ,WA,SNOHOMISH,980129210,MARIJUANA RETAILER                 ,ACTIVE (ISSUED),20200121,4256737420,0,0
REEFER DEN                                   ,404933,6.03E+15,2123 W SIMS WAY APT 1         ,                         ,PORT TOWNSEND           ,WA,JEFFERSON,983680000,MARIJUANA RETAILER                 ,ACTIVE (ISSUED),20191220,3603020393,0,0
420 TACOMA                                   ,423372,6.03E+15,2128 S 37TH ST                ,                         ,TACOMA                  ,WA,PIERCE,984097445,MARIJUANA RETAILER                 ,ACTIVE (ISSUED),20200116,3604026368,0,0
SEAWEED RETAIL                               ,422570,6.04E+15,21412 HIGHWAY 99 STE A        ,                         ,EDMONDS                 ,WA,SNOHOMISH,980267748,MARIJUANA RETAILER                 ,ACTIVE (ISSUED),20191023,4255333589,0,0
GREEN2GO                                     ,410273,6.03E+15,214307 E SR 397               ,                         ,KENNEWICK               ,WA,BENTON,993377198,MARIJUANA RETAILER                 ,ACTIVE (ISSUED),20200307,5095917100,0,0
APEX CANNABIS                                ,422447,6.03E+15,21502 E GILBERT RD            ,                         ,OTIS ORCHARDS           ,WA,SPOKANE,990279241,MARIJUANA RETAILER                 ,ACTIVE (ISSUED),20190702,5094990646,0,0
FORBIDDEN CANNABIS CLUB                      ,426808,6.03E+15,21509 HWY 410 STE 1           ,                         ,BONNEY LAKE             ,WA,PIERCE,983910000,MARIJUANA RETAILER                 ,ACTIVE (ISSUED),20200228,2532241442,0,0
THE GRASS STATION                            ,424877,6.04E+15,216 ROYAL ANNE DR SW          ,                         ,GEORGE                  ,WA,GRANT,988480000,MARIJUANA RETAILER                 ,ACTIVE (ISSUED),20191106,5094998462,0,0
PRIMO CANNABIS                               ,423885,6.04E+15,21630 E GILBERT AVE           ,                         ,OTIS ORCHARDS           ,WA,SPOKANE,990279241,MARIJUANA RETAILER                 ,ACTIVE (ISSUED),20200320,5099279333,0,0
TROVE MEDICAL AND RECREATIONAL               ,414871,6.03E+15,218 N SAMISH WAY STE 103      ,                         ,BELLINGHAM              ,WA,WHATCOM,982250000,MARIJUANA RETAILER                 ,PENDING (ISSUED),20191224,3603933459,0,0
THE GALLERY - SOUTH HILL                     ,414130,6.03E+15,21802 MOUNTAIN HIGHWAY E STE 2,                         ,SPANAWAY                ,WA,PIERCE,983870000,MARIJUANA RETAILER                 ,ACTIVE (ISSUED),20190926,3052988577,0,0
THE GALLERY SPANAWAY                         ,413420,6.03E+15,21802 MOUNTAIN HWY E  STE 1   ,                         ,SPANAWAY                ,WA,PIERCE,983870000,MARIJUANA RETAILER                 ,ACTIVE (ISSUED),20190709,3052988577,0,0
FWEEDOM CANNABIS                             ,415031,6.03E+15,21911 64TH AVE W   STE D      ,STE D                    ,MOUNTLAKE TERRACE       ,WA,SNOHOMISH,980430000,MARIJUANA RETAILER                 ,ACTIVE (ISSUED),20191120,4259540640,0,0
BUD HUT                                      ,422792,6.04E+15,2200 TALLEY WAY  STE A        ,SUITE A                  ,KELSO                   ,WA,COWLITZ,986265511,MARIJUANA RETAILER                 ,ACTIVE (ISSUED),20200128,3606681111,0,0
RAINIER CANNABIS                             ,423224,6.03E+15,22002 64TH AVE W STE 2A       ,SUITE 2A                 ,MOUNTLAKE TERRACE       ,WA,SNOHOMISH,980432547,MARIJUANA RETAILER                 ,ACTIVE (ISSUED),20191122,4252100546,0,0
GREEN GROTTO,423779,6.03E+15,22106 SE 51ST PL,,ISSAQUAH                ,WA,KING,980272519,MARIJUANA RETAILER                 ,ACTIVE (ISSUED),20180309,4252466547,1,https://data.lcb.wa.gov/Licensing/Licensed-Businesses/u3zh-ri66
THE LINK                                     ,422632,6.04E+15,2211 46TH AVE                 ,                         ,LONGVIEW                ,WA,COWLITZ,986325013,MARIJUANA RETAILER                 ,ACTIVE (ISSUED),20200417,2062000462,0,0
ZIPS CANNABIS                                ,423754,6.04E+15,2215 4TH AVE S                ,                         ,SEATTLE                 ,WA,KING,981341516,MARIJUANA RETAILER                 ,ACTIVE (ISSUED),20200207,5099903124,0,0
PHAT SACKS CORP                              ,423536,6.03E+15,22624 MERIDIAN AVE S STE B    ,                         ,BOTHELL                 ,WA,SNOHOMISH,980218358,MARIJUANA RETAILER                 ,ACTIVE (ISSUED),20191121,2062618206,0,0
KALEAFA                                      ,422251,6.04E+15,22834 PACIFIC HWY S           ,                         ,DES MOINES              ,WA,KING,981987262,MARIJUANA RETAILER                 ,CLOSED (PERMANENT),20180221,3602861348,0,0
THE WEED SHACK                               ,414712,6.03E+15,2294 STATE ROUTE 109          ,                         ,HOQUIAM                 ,WA,GRAYS HARBOR,985500000,MARIJUANA RETAILER                 ,ACTIVE (ISSUED),20191220,2539059448,0,0
KINDLEBERGER LLC                             ,429212,6.04E+15,230 NE JUNIPER ST STE 100     ,                         ,ISSAQUAH                ,WA,KING,980272519,MARIJUANA RETAILER                 ,ACTIVE (ISSUED),20200310,2063355857,0,0
ISSAQUAH CANNABIS COMPANY                    ,414867,6.03E+15,230 NE JUNIPER ST STE#201     ,STE#201                  ,ISSAQUAH                ,WA,KING,980272519,MARIJUANA RETAILER                 ,PENDING (ISSUED),20191011,2069492124,0,0
UNCLES IKE'S                                 ,414533,6.05E+15,2310 EAST UNION ST            ,                         ,SEATTLE                 ,WA,KING,981222966,MARIJUANA RETAILER                 ,ACTIVE (ISSUED),20200624,2064203784,0,0
MAIN STREET MARIJUANA                        ,414876,6.03E+15,2314 MAIN ST                  ,                         ,VANCOUVER               ,WA,CLARK,986602642,MARIJUANA RETAILER                 ,ACTIVE (ISSUED),20200320,3606063260,0,0
PRC                                          ,415198,6.05E+15,23221 EDMONDS WAY STE A       ,STE A                    ,EDMONDS                 ,WA,SNOHOMISH,980260000,MARIJUANA RETAILER                 ,ACTIVE (ISSUED),20200514,4253432272,0,0
A & J MANAGEMENT GROUP                       ,421491,6.03E+15,234 DIVISION ST NW STE B      ,                         ,OLYMPIA                 ,WA,THURSTON,985024916,MARIJUANA RETAILER                 ,ACTIVE (ISSUED),20200407,5055507710,0,0
GREENSIDE                                    ,414295,6.03E+15,23407 PACIFIC HWY S           ,                         ,DES MOINES              ,WA,KING,981988738,MARIJUANA RETAILER                 ,ACTIVE (ISSUED),20200603,2067907036,0,0
GANJA VITA                                   ,415539,6.03E+15,23441 NE STATE ROUTE 3        ,                         ,BELFAIR                 ,WA,MASON,985280000,MARIJUANA RETAILER                 ,ACTIVE (ISSUED),20191206,2535143949,0,0
FORBIDDEN CANNABIS LLC                       ,414803,6.04E+15,2358 ELMWAY                   ,                         ,OKANOGAN                ,WA,OKANOGAN,988400000,MARIJUANA RETAILER                 ,ACTIVE (ISSUED),20200414,2532241442,0,0
FORBIDDEN CANNABIS CLUB                      ,421015,6.04E+15,2358 ELMWAY UNIT B            ,                         ,OKANOGAN                ,WA,OKANOGAN,988409790,MARIJUANA RETAILER                 ,ACTIVE (ISSUED),20190517,2539876637,0,0
THE ROOT CELLAR                              ,415343,6.03E+15,23632 NE STATE ROUTE 3        ,                         ,BELFAIR                 ,WA,MASON,985288309,MARIJUANA RETAILER                 ,ACTIVE (ISSUED),20191227,3604348767,0,0
"GREEN LADY WESTSIDE, INC.                    ",416540,6.04E+15,2405 HARRISON AVE NW STE 201  ,                         ,OLYMPIA                 ,WA,THURSTON,985024592,MARIJUANA RETAILER                 ,ACTIVE (ISSUED),20191221,5098697475,0,0
SWEET LEAF 3                                 ,422298,6.04E+15,24090 NE STATE ROUTE 3 STE I  ,                         ,BELFAIR                 ,WA,MASON,985289665,MARIJUANA RETAILER                 ,ACTIVE (ISSUED),20190807,3606278754,0,0
PONDER                                       ,413809,6.03E+15,2413 E UNION ST               ,                         ,SEATTLE                 ,WA,KING,981223045,MARIJUANA RETAILER                 ,ACTIVE (ISSUED),20191203,2064202180,0,0
WASHINGTON STATE CANNABIS COMPANY            ,414559,6.04E+15,2415 ROBERTSON DRIVE          ,                         ,RICHLAND                ,WA,BENTON,993540000,MARIJUANA RETAILER                 ,ACTIVE (ISSUED),20200116,2066607221,0,0
GREENHAND                                    ,420898,6.03E+15,2424 N MONROE STREET          ,                         ,SPOKANE                 ,WA,SPOKANE,992053349,MARIJUANA RETAILER                 ,ACTIVE (ISSUED),20200418,2067357072,0,0
CHOICE CANNABIS                              ,422466,6.04E+15,2427 W SIMS WAY STE F         ,                         ,PORT TOWNSEND           ,WA,JEFFERSON,983682247,MARIJUANA RETAILER                 ,ACTIVE (ISSUED),20200512,3603794006,0,0
NIRVANA CANNABIS COMPANY                     ,427666,6.03E+15,24713 E WELLESLEY AVE         ,                         ,OTIS ORCHARDS           ,WA,SPOKANE,990279709,MARIJUANA RETAILER                 ,ACTIVE (ISSUED),20191125,5098082361,0,0
420 EVERGREEN                                ,427533,6.03E+15,25 NE 2ND ST STE B            ,                         ,STEVENSON               ,WA,SKAMANIA,986484215,MARIJUANA RETAILER                 ,ACTIVE (ISSUED),20200221,9715060696,0,0
CANNABIS 21                                  ,415344,6.03E+15,2510 SANDRA AVE STE A         ,                         ,CENTRALIA               ,WA,LEWIS,985319321,MARIJUANA RETAILER                 ,CLOSED (PERMANENT),20170131,3602397149,0,0
NXNW RETAIL LLC / CANNABIS AND GLASS         ,428760,6.03E+15,25101 E APPLEWAY AVE          ,                         ,LIBERTY LAKE            ,WA,SPOKANE,990190000,MARIJUANA RETAILER                 ,ACTIVE (ISSUED),20200324,5093096974,0,0
DOUGLAS COUNTY 502                           ,412865,6.03E+15,2512 FOSTER CREEK AVE         ,                         ,BRIDGEPORT              ,WA,DOUGLAS,988130000,MARIJUANA RETAILER                 ,ACTIVE (ISSUED),20190905,5033177035,0,0
THE WEED SHOP                                ,422457,6.04E+15,25171 SR 525                  ,#2                       ,GREENBANK               ,WA,ISLAND,982530000,MARIJUANA RETAILER                 ,ACTIVE (ISSUED),20191115,4252603482,0,0
DANK OF AMERICA                              ,422817,6.04E+15,2530 PEACE PORTAL DR STE B    ,                         ,BLAINE                  ,WA,WHATCOM,982308063,MARIJUANA RETAILER                 ,ACTIVE (ISSUED),20200214,4252314439,0,0
"THE ZEN DEN, LLC                             ",420812,6.04E+15,257 ENGH RD                   ,                         ,OMAK                    ,WA,OKANOGAN,988419472,MARIJUANA RETAILER                 ,ACTIVE (ISSUED),20200530,5096990471,0,0
KALEAFA                                      ,429441,6.04E+15,25960 PACIFIC HWY S           ,                         ,DES MOINES              ,WA,KING,981980000,MARIJUANA RETAILER                 ,ACTIVE (ISSUED),20200623,0,0,0
ALTITUDE                                     ,414225,6.03E+15,260 MERLOT DR                 ,                         ,PROSSER                 ,WA,BENTON,993509533,MARIJUANA RETAILER                 ,ACTIVE (ISSUED),20191128,5097864200,0,0
KITSAP CANNABIS                              ,424117,6.04E+15,2600 NW RANDALL WAY STE 103   ,                         ,SILVERDALE              ,WA,KITSAP,983839427,MARIJUANA RETAILER                 ,CLOSED (PERMANENT),20200404,3608658092,0,0
WAYNE SEMINOFF COMPANY                       ,422752,6.01E+15,2600 W BRUNEAU PL             ,                         ,KENNEWICK               ,WA,BENTON,983360000,MARIJUANA RETAILER                 ,ACTIVE (ISSUED),20200205,5039396724,0,0
POULSBO HAZE                                 ,413255,6.03E+15,26011 OHIO AVE NE             ,                         ,KINGSTON                ,WA,KITSAP,983460000,MARIJUANA RETAILER                 ,PENDING (NOT ISSUED),,3605983672,0,0
2020 SOLUTIONS                   ,422363,6.04E+15,261 STATE HWY 28 WEST         ,                         ,SOAP LAKE               ,WA,GRANT,988510000,MARIJUANA RETAILER                 ,ACTIVE (ISSUED),20191213,3609154944,0,0
LOVING FARMS                                 ,412370,6.03E+15,2615 OLD HIGHWAY 99 S         ,                         ,MOUNT VERNON            ,WA,SKAGIT,982730000,MARIJUANA RETAILER                 ,ACTIVE (ISSUED),20191018,3605405168,0,0
BIG EYES LLC DBA BUDHUT                      ,427458,6.04E+15,2616 NE 112TH AVE             ,                         ,VANCOUVER               ,WA,CLARK,986844284,MARIJUANA RETAILER                 ,ACTIVE (ISSUED),20190919,4252494949,0,0
BUD HUT                                      ,410831,6.04E+15,26207 MAPLE VALLEY BLACK      ,DIAMOND RD               ,MAPLE VALLEY            ,WA,KING,980388378,MARIJUANA RETAILER                 ,ACTIVE (ISSUED),20191205,4257604345,0,0
TACOMA HOUSE OF CANNABIS                     ,424473,6.04E+15,2632 S 38TH ST STE A          ,                         ,TACOMA                  ,WA,PIERCE,984097304,MARIJUANA RETAILER                 ,ACTIVE (ISSUED),20200606,2532413261,0,0
EMERALD LEAVES                               ,413363,6.04E+15,2702 6TH AVE                  ,                         ,TACOMA                  ,WA,PIERCE,984067213,MARIJUANA RETAILER                 ,ACTIVE (ISSUED),20191101,2064825627,0,0
STATION 420                                  ,426284,6.03E+15,2704 MAIN ST                  ,                         ,UNION GAP               ,WA,YAKIMA,989031754,MARIJUANA RETAILER                 ,ACTIVE (ISSUED),20200530,5094524200,0,0
CANNABLYSS                                   ,415575,6.03E+15,2705 HARTFORD DR STE A        ,                         ,LAKE STEVENS            ,WA,SNOHOMISH,982589204,MARIJUANA RETAILER                 ,ACTIVE (ISSUED),20191018,4253277529,0,0
CANNAREX                                     ,414060,6.03E+15,2714 HENSON RD                ,                         ,MOUNT VERNON            ,WA,SKAGIT,982739036,MARIJUANA RETAILER                 ,ACTIVE (ISSUED),20190927,4254058179,0,0
HERBAL LEGENDS CANNABIS                      ,422978,6.03E+15,2714 HENSON RD STE B          ,                         ,MOUNT VERNON            ,WA,SKAGIT,982730000,MARIJUANA RETAILER                 ,ACTIVE (ISSUED),20190824,3607783904,0,0
THE VAULT                                    ,426050,6.03E+15,2720 E 29TH AVE               ,                         ,SPOKANE                 ,WA,SPOKANE,992234808,MARIJUANA RETAILER                 ,ACTIVE (ISSUED),20200214,4252488559,0,0
THE KUSHERY                                  ,420645,6.03E+15,27206 88TH AVE NW             ,                         ,STANWOOD                ,WA,SNOHOMISH,982920000,MARIJUANA RETAILER                 ,ACTIVE (ISSUED),20200527,4256337515,0,0
CANNABIS CITY                                ,413319,6.03E+15,2733 4TH AVE S 1ST FLOOR      ,1ST FLOOR UNIT           ,SEATTLE                 ,WA,KING,981341912,MARIJUANA RETAILER                 ,ACTIVE (ISSUED),20190914,2066821332,0,0
EUPHORIUM 420                                ,414491,6.03E+15,27623 COVINGTON WAY SE UNIT 1 ,                         ,COVINGTON               ,WA,KING,980420000,MARIJUANA RETAILER                 ,ACTIVE (ISSUED),20191008,4255774533,0,0
NEXT STEPS                                   ,421698,6.04E+15,2804 E 30TH AVE               ,                         ,SPOKANE                 ,WA,SPOKANE,992234782,MARIJUANA RETAILER                 ,ACTIVE (ISSUED),20191116,5202508988,0,0
THE GREEN DOOR                               ,415410,6.03E+15,28120 HWY 410 E UNIT A8       ,                         ,BUCKLEY                 ,WA,PIERCE,983218482,MARIJUANA RETAILER                 ,ACTIVE (ISSUED),20200522,2532248299,0,0
GREEN HEAD CANNABIS                          ,414761,6.00E+15,2815 ST. JOHNS ROAD   STE B   ,                         ,VANCOUVER               ,WA,CLARK,986610000,MARIJUANA RETAILER                 ,ACTIVE (ISSUED),20200313,3606091479,0,0
DISCOVERY BAY CANNABIS                       ,423036,6.04E+15,282023 HWY 101                ,                         ,PORT TOWNSEND           ,WA,JEFFERSON,983689331,MARIJUANA RETAILER                 ,ACTIVE (ISSUED),20200115,2066607221,0,0
SEA CHANGE CANNABIS                          ,353260,6.04E+15,282332 HIGHWAY 101 STE 2      ,                         ,PORT TOWNSEND           ,WA,JEFFERSON,983688700,MARIJUANA RETAILER                 ,ACTIVE (ISSUED),20191002,3603020973,0,0
MARY JANE'S                                  ,417646,6.04E+15,2829 N MARKET ST              ,                         ,SPOKANE                 ,WA,SPOKANE,992075553,MARIJUANA RETAILER                 ,ACTIVE (ISSUED),20200530,5098554485,0,0
FILLABONG                                    ,415211,6.04E+15,2839 NW KITSAP PL STE A       ,                         ,SILVERDALE              ,WA,KITSAP,983839447,MARIJUANA RETAILER                 ,ACTIVE (ISSUED),20190912,3606980353,0,0
GREEN 101                                    ,422525,6.04E+15,2840 E HWY 101                ,                         ,PORT ANGELES            ,WA,CLALLAM,983629080,MARIJUANA RETAILER                 ,ACTIVE (ISSUED),20200208,4253124423,0,0
GOOBIE'S DOOBIES                             ,421953,6.04E+15,28680 MAPLE VALLEY BLACK      ,DIAMOND RD SE STE A      ,MAPLE VALLEY            ,WA,KING,980388193,MARIJUANA RETAILER                 ,ACTIVE (ISSUED),20200131,2534595741,0,0
FRESH GREENS                                 ,413530,6.04E+15,29 HORIZON FLATS RD STE 8     ,                         ,WINTHROP                ,WA,OKANOGAN,988628400,MARIJUANA RETAILER                 ,ACTIVE (ISSUED),20191224,5094295556,0,0
MR. BILLS OF BUCKLEY                         ,424751,6.03E+15,29393 STATE ROUTE 410 E STE D ,                         ,BUCKLEY                 ,WA,PIERCE,983219424,MARIJUANA RETAILER                 ,ACTIVE (ISSUED),20200418,3607617540,0,0
SWEET RELIEF CANNABIS EXPRESS                ,422460,6.04E+15,"2947 E HWY 101  STE A, B      ",SUITE A AND B            ,PORT ANGELES            ,WA,CLALLAM,983629059,MARIJUANA RETAILER                 ,ACTIVE (ISSUED),20200205,3609096327,0,0
MJA  DISTRIBUTION                            ,414659,6.03E+15,300 19TH AVE                  ,                         ,SEATTLE                 ,WA,KING,981225736,MARIJUANA RETAILER                 ,PENDING (NOT ISSUED),,2068606885,0,0
HAVE A HEART CC                              ,421409,6.03E+15,300 NW 85TH ST STE A          ,                         ,SEATTLE                 ,WA,KING,981170000,MARIJUANA RETAILER                 ,ACTIVE (ISSUED),20200221,2062574500,0,0
THE GREEN ROOM                               ,414696,6.03E+15,300 W MILL PLAIN BLVD         ,                         ,VANCOUVER               ,WA,CLARK,986602979,MARIJUANA RETAILER                 ,PENDING (NOT ISSUED),,3606094544,0,0
MARY MART INC                                ,424311,6.04E+15,3002 6TH AVE STE 100          ,                         ,TACOMA                  ,WA,PIERCE,984066203,MARIJUANA RETAILER                 ,ACTIVE (ISSUED),20200416,2539614231,0,0
CANNAZONE                                    ,427742,6.03E+15,3010 OLD HWY 99 SOUTH RD STE B,                         ,MOUNT VERNON            ,WA,SKAGIT,982730000,MARIJUANA RETAILER                 ,ACTIVE (ISSUED),20191227,8602092288,0,0
GREEN LIFE CANNABIS                          ,414755,6.03E+15,3012 GS CENTER RD STE A       ,                         ,WENATCHEE               ,WA,CHELAN,988019116,MARIJUANA RETAILER                 ,ACTIVE (ISSUED),20191010,2817260614,0,0
BUDS GARAGE                                  ,421005,6.03E+15,3015 EVERETT AVE              ,                         ,EVERETT                 ,WA,SNOHOMISH,982013822,MARIJUANA RETAILER                 ,ACTIVE (ISSUED),20191010,4258793437,0,0
TOP SHELF 420                                ,413782,6.04E+15,3015 PACIFIC AVE SE           ,                         ,OLYMPIA                 ,WA,THURSTON,985012042,MARIJUANA RETAILER                 ,ACTIVE (ISSUED),20190824,2539249915,0,0
20AFTER4                                     ,425128,6.03E+15,302 HAZEL ST                  ,                         ,KELSO                   ,WA,COWLITZ,986261410,MARIJUANA RETAILER                 ,ACTIVE (ISSUED),20191203,2069293060,0,0
MAIN STREET MARIJUANA                        ,429502,6.04E+15,3035 1ST AVE STE B            ,                         ,SEATTLE                 ,WA,KING,981211010,MARIJUANA RETAILER                 ,PENDING (ISSUED),20200304,4256985381,0,0
THE SLOW BURN                                ,415185,6.03E+15,304 W SEATTLE AVE STE F       ,                         ,MOXEE                   ,WA,YAKIMA,989360000,MARIJUANA RETAILER                 ,ACTIVE (ISSUED),20200605,5099692600,0,0
GREEN LADY                                   ,415130,6.03E+15,3044 PACIFIC AVE SE STE B     ,                         ,OLYMPIA                 ,WA,THURSTON,985012043,MARIJUANA RETAILER                 ,ACTIVE (ISSUED),20191221,5098697574,0,0
420 ELMA ON MAIN                             ,426678,6.04E+15,306 W MAIN ST                 ,                         ,ELMA                    ,WA,GRAYS HARBOR,985410000,MARIJUANA RETAILER                 ,PENDING (ISSUED),20200225,2539061919,0,0
HIGHER LEAF MARIJUANA BELLEVUE               ,423000,6.03E+15,3079 156TH AVE SE             ,                         ,BELLEVUE                ,WA,KING,980076526,MARIJUANA RETAILER                 ,ACTIVE (ISSUED),20191119,4258706335,0,0
KITSAP CANNABIS 3                            ,428263,6.04E+15,308 S 5TH AVE                 ,                         ,KELSO                   ,WA,COWLITZ,986262324,MARIJUANA RETAILER                 ,ACTIVE (ISSUED),20200402,3608658092,0,0
ACCESS CANIBUS LLC                           ,422765,6.04E+15,3082 WAITTS LAKE RD           ,                         ,VALLEY                  ,WA,STEVENS,991810000,MARIJUANA RETAILER                 ,ACTIVE (ISSUED),20191029,3604703051,0,0
TONASKET HOUSE OF CANNABIS                   ,422454,6.04E+15,309 4TH ST W STE A            ,                         ,TONASKET                ,WA,OKANOGAN,988550000,MARIJUANA RETAILER                 ,ACTIVE (ISSUED),20200606,3607853843,0,0
SAGE SHOP                                    ,426888,6.03E+15,309 N MAIN ST                 ,                         ,OMAK                    ,WA,OKANOGAN,988419745,MARIJUANA RETAILER                 ,ACTIVE (ISSUED),20200110,5093225286,0,0
THE STASH BOX                                ,412494,6.03E+15,3108 A ST SE STE F & G        ,                         ,AUBURN                  ,WA,KING,980028811,MARIJUANA RETAILER                 ,ACTIVE (ISSUED),20200205,2537970959,0,0
HIGH SOCIETY TACOMA                          ,412940,6.04E+15,3111 S PINE ST                ,                         ,TACOMA                  ,WA,PIERCE,984094711,MARIJUANA RETAILER                 ,ACTIVE (ISSUED),20190703,3603023121,0,0
RAINIER ON PINE                              ,414723,6.03E+15,3111 S PINE ST                ,                         ,TACOMA                  ,WA,PIERCE,984094711,MARIJUANA RETAILER                 ,CLOSED (PERMANENT),20171226,2066508908,0,0
MUFFYS POT SHOP                              ,413930,6.03E+15,3134 E HIGHWAY 101 SUITE A    ,                         ,PORT ANGELES            ,WA,CLALLAM,983629074,MARIJUANA RETAILER                 ,ACTIVE (ISSUED),20191221,3608082532,0,0
GREENWORKS N.W.                              ,413428,6.02E+15,315 N 105TH ST                ,                         ,SEATTLE                 ,WA,KING,981330000,MARIJUANA RETAILER                 ,ACTIVE (ISSUED),20190926,2064925132,0,0
SATORI FREMONT                               ,421708,6.04E+15,316 N 36TH ST STE B           ,                         ,SEATTLE                 ,WA,KING,981038953,MARIJUANA RETAILER                 ,ACTIVE (ISSUED),20191009,5099947051,0,0
ZIPS CANNABIS                                ,427634,6.04E+15,317 S 72ND ST                 ,                         ,TACOMA                  ,WA,PIERCE,984086003,MARIJUANA RETAILER                 ,ACTIVE (ISSUED),20200618,2533024192,0,0
LOCAL AMSTERDAM                              ,429803,6.04E+15,3200 15TH AVE W UNIT B        ,                         ,SEATTLE                 ,WA,KING,981191705,MARIJUANA RETAILER                 ,PENDING (ISSUED),20200127,2063699597,0,0
WORLD OF WEED                                ,414449,6.03E+15,3202 E PORTLAND AVE           ,                         ,TACOMA                  ,WA,PIERCE,984044929,MARIJUANA RETAILER                 ,ACTIVE (ISSUED),20200422,2532729333,0,0
THC OF OLYMPIA                               ,421069,6.04E+15,3203 MARTIN WAY E STE D       ,                         ,OLYMPIA                 ,WA,THURSTON,985064951,MARIJUANA RETAILER                 ,ACTIVE (ISSUED),20200208,3605281719,0,0
GANJA GODDESS                                ,413558,6.03E+15,3207 1ST AVE S  UNIT A        ,UNIT A                   ,SEATTLE                 ,WA,KING,981341819,MARIJUANA RETAILER                 ,ACTIVE (ISSUED),20190803,2066827220,0,0
AMERICAN MARY                                ,410332,6.03E+15,321 NE 45TH ST                ,                         ,SEATTLE                 ,WA,KING,981056133,MARIJUANA RETAILER                 ,ACTIVE (ISSUED),20191105,3038295712,0,0
ZIPS CANNABIS                                ,84154,6.04E+15,3213 S 38TH STE C             ,                         ,TACOMA                  ,WA,PIERCE,984041094,MARIJUANA RETAILER                 ,ACTIVE (ISSUED),20200617,2532920197,0,0
LAWRENCE ENTERPRISES                         ,414881,6.03E+15,322 DANIEL LN                 ,                         ,FRIDAY HARBOR           ,WA,SAN JUAN,982500000,MARIJUANA RETAILER                 ,ACTIVE (ISSUED),20200118,3603782288,0,0
THE GREEN NUGGET                             ,427121,6.03E+15,322 E FRANCIS AVE STE A       ,                         ,SPOKANE                 ,WA,SPOKANE,992081086,MARIJUANA RETAILER                 ,PENDING (ISSUED),20191114,5093092130,0,0
HOMEGROWN NORTHWEST                          ,429000,6.04E+15,3230 1ST AVE S                ,                         ,SEATTLE                 ,WA,KING,981341818,MARIJUANA RETAILER                 ,ACTIVE (ISSUED),20191203,2062255555,0,0
THE HIDDEN BUSH                              ,412921,6.03E+15,3230 E HWY 101                ,                         ,PORT ANGELES            ,WA,CLALLAM,983629073,MARIJUANA RETAILER                 ,ACTIVE (ISSUED),20191120,3604529395,0,0
FILLABONG                                    ,79720,6.04E+15,3249 PERRY AVE STE B          ,                         ,BREMERTON               ,WA,KITSAP,983105371,MARIJUANA RETAILER                 ,ACTIVE (ISSUED),20190912,3604432293,0,0
FREEDOM MARKET CATHLAMET CORP                ,422459,6.04E+15,327 SR 4                      ,                         ,CATHLAMET               ,WA,WAHKIAKUM,986120000,MARIJUANA RETAILER                 ,ACTIVE (ISSUED),20190810,3607036090,0,0
THE HERBERY                                  ,71368,6.03E+15,330 NE CHKALOV DR STE C & D   ,STE C & D                ,VANCOUVER               ,WA,CLARK,986845032,MARIJUANA RETAILER                 ,ACTIVE (ISSUED),20191024,3609079694,0,0
"LUCID AUBURN, 21+ CANNABIS, 21+ MARIJUANA    ",422194,6.02E+15,3310 AUBURN WAY N STE C/D     ,                         ,AUBURN                  ,WA,KING,980021800,MARIJUANA RETAILER                 ,ACTIVE (ISSUED),20200215,2539732476,0,0
KALEAFA                                      ,417643,6.03E+15,33858 SR 20 STE 102           ,                         ,OAK HARBOR              ,WA,ISLAND,982772664,MARIJUANA RETAILER                 ,ACTIVE (ISSUED),20200521,3606822420,0,0
THE LUCKY LEAF                               ,413295,6.04E+15,3411 N CAPITOL AVE STE A      ,                         ,PASCO                   ,WA,FRANKLIN,993010000,MARIJUANA RETAILER                 ,ACTIVE (ISSUED),20200213,5096194887,0,0
GREEN LEAF                                   ,414918,6.04E+15,3435 BIRCH BAY LYNDEN RD      ,                         ,CUSTER                  ,WA,WHATCOM,982409507,MARIJUANA RETAILER                 ,ACTIVE (ISSUED),20191205,3603032860,0,0
MAGIC TREE COLLECTIVE 206                    ,421151,6.03E+15,350 NE STADIUM WAY UNIT B     ,                         ,PULLMAN                 ,WA,WHITMAN,991630000,MARIJUANA RETAILER                 ,ACTIVE (ISSUED),20190830,2532056372,0,0
THE JOINT                                    ,426606,6.03E+15,3502 S 74TH ST                ,                         ,TACOMA                  ,WA,PIERCE,984093912,MARIJUANA RETAILER                 ,ACTIVE (ISSUED),20191220,4254710283,0,0
#HASHTAG                                     ,414884,6.03E+15,3540 STONE WAY N              ,                         ,SEATTLE                 ,WA,KING,981038924,MARIJUANA RETAILER                 ,ACTIVE (ISSUED),20191221,3608184000,0,0
LEGAL MARIJUANA SUPERSTORE                   ,417880,6.03E+15,3610 BETHEL RD SE             ,SUITE 100                ,PORT ORCHARD            ,WA,KITSAP,983670000,MARIJUANA RETAILER                 ,ACTIVE (ISSUED),20191219,3603401009,0,0
"CANNABIS COAST FORKS, LLC                    ",430237,6.04E+15,362 LA PUSH RD                ,                         ,FORKS                   ,WA,CLALLAM,983319504,MARIJUANA RETAILER                 ,ACTIVE (ISSUED),20200506,3603744020,0,0
KASSABIAN GENERAL                            ,413294,6.03E+15,3620 IRONGATE RD              ,                         ,BELLINGHAM              ,WA,WHATCOM,982260000,MARIJUANA RETAILER                 ,PENDING (NOT ISSUED),,3603038761,0,0
365 RECREATIONAL CANNABIS                    ,422099,6.04E+15,36711 U.S. HIGHWAY 12         ,                         ,DAYTON                  ,WA,COLUMBIA,983288622,MARIJUANA RETAILER                 ,ACTIVE (ISSUED),20200507,5093823161,0,0
W.C.W. ENTERPRISES                           ,415445,6.03E+15,3708 MT BAKER HWY             ,                         ,EVERSON                 ,WA,WHATCOM,982470000,MARIJUANA RETAILER                 ,ACTIVE (ISSUED),20191205,3603928309,0,0
EVERGREEN STATE ENTERPRISES                  ,427156,6.04E+15,3772 SR 4 STE A               ,                         ,GRAYS RIVER             ,WA,WAHKIAKUM,986210000,MARIJUANA RETAILER                 ,ACTIVE (ISSUED),20200327,5033170557,0,0
SMOKANE                                      ,425362,6.03E+15,3801 E SPRAGUE AVE            ,                         ,SPOKANE                 ,WA,SPOKANE,992020000,MARIJUANA RETAILER                 ,ACTIVE (ISSUED),20191128,5095364000,0,0
CANNA CASA                                   ,422913,6.04E+15,3818 OLD HIGHWAY 99 S RD      ,                         ,MOUNT VERNON            ,WA,SKAGIT,982739018,MARIJUANA RETAILER                 ,ACTIVE (ISSUED),20200521,2533598978,0,0
BAYSHORE CANNABIS CO                         ,415127,6.04E+15,3831 HIGHWAY 3                ,                         ,SHELTON                 ,WA,MASON,985840000,MARIJUANA RETAILER                 ,ACTIVE (ISSUED),20190802,2062344663,0,0
OZ.                                          ,415348,6.03E+15,3831 STONE WAY N              ,                         ,SEATTLE                 ,WA,KING,981038005,MARIJUANA RETAILER                 ,ACTIVE (ISSUED),20191214,2062510630,0,0
NATURES RECREATIONAL CENTER                  ,421562,6.04E+15,3833 PACIFIC AVE STE 3-C      ,                         ,TACOMA                  ,WA,PIERCE,984187897,MARIJUANA RETAILER                 ,PENDING (ISSUED),20190807,2535721500,0,0
TOP SHELF CANNABIS                           ,414256,6.03E+15,3863 HANNEGAN RD              ,                         ,BELLINGHAM              ,WA,WHATCOM,982269103,MARIJUANA RETAILER                 ,CLOSED (PERMANENT),20171202,3602243735,0,0
OLD TOBY                                     ,413551,6.03E+15,391 NW STATE AVE STE 1        ,                         ,CHEHALIS                ,WA,LEWIS,985321637,MARIJUANA RETAILER                 ,ACTIVE (ISSUED),20190831,3604853255,0,0
395 HERB                                     ,430369,6.04E+15,3948B 3RD AVE UNIT 2          ,                         ,LOON LAKE               ,WA,STEVENS,991489683,MARIJUANA RETAILER                 ,ACTIVE (ISSUED),20200602,5096440420,0,0
HERBAN MARKET                                ,427457,6.04E+15,3965 BETHEL RD SE STE 3       ,                         ,PORT ORCHARD            ,WA,KITSAP,983661915,MARIJUANA RETAILER                 ,ACTIVE (ISSUED),20200122,3608133644,0,0
B STREET BUD                                 ,414558,6.03E+15,400 BURDIN AVE                ,                         ,GRAND COULEE            ,WA,GRANT,991335009,MARIJUANA RETAILER                 ,ACTIVE (ISSUED),20190829,5096332453,0,0
THE GREENHOUSE                               ,420633,6.03E+15,400 OLYMPIA AVE NE STE A1     ,                         ,RENTON                  ,WA,KING,980563900,MARIJUANA RETAILER                 ,PENDING (NOT ISSUED),,7328016300,0,0
THE GREEN SHELF                              ,414958,6.03E+15,400 S. MAIN STREET            ,UNIT #1                  ,ELLENSBURG              ,WA,KITTITAS,989263689,MARIJUANA RETAILER                 ,ACTIVE (ISSUED),20200110,2065560305,0,0
DIAMOND GREEN                                ,413374,6.03E+15,4002 S 12TH ST                ,                         ,TACOMA                  ,WA,PIERCE,984051509,MARIJUANA RETAILER                 ,ACTIVE (ISSUED),20191115,2532225697,0,0
THE BAKE SHOP                                ,413596,6.04E+15,4007 MAIN ST                  ,                         ,UNION GAP               ,WA,YAKIMA,989032040,MARIJUANA RETAILER                 ,ACTIVE (ISSUED),20200529,5093149941,0,0
OLYMPIA WEED COMPANY                         ,427769,6.03E+15,401 93RD AVE SE               ,                         ,OLYMPIA                 ,WA,THURSTON,985019701,MARIJUANA RETAILER                 ,ACTIVE (ISSUED),20200303,3609156071,0,0
UNCLE ANDO'S WURLD OF WEED                   ,414345,6.04E+15,401 SOUTH BOONE               ,                         ,ABERDEEN                ,WA,GRAYS HARBOR,985208508,MARIJUANA RETAILER                 ,ACTIVE (ISSUED),20190829,4255036116,0,0
EVERGREEN MARKET - AUBURN                    ,414714,6.03E+15,402 16TH ST NE STE A-100      ,                         ,AUBURN                  ,WA,KING,980021600,MARIJUANA RETAILER                 ,ACTIVE (ISSUED),20191107,2068527155,0,0
EMERALD HAZE CANNABIS EMPORIUM               ,414841,6.03E+15,4033 NE SUNSET BLVD UNIT 5    ,                         ,RENTON                  ,WA,KING,980564003,MARIJUANA RETAILER                 ,ACTIVE (ISSUED),20191121,2533069151,0,0
GREEN RUSH INVESTMENT                        ,422027,6.04E+15,404 AUBURN WAY S STE 100      ,                         ,AUBURN                  ,WA,KING,980025418,MARIJUANA RETAILER                 ,ACTIVE (ISSUED),20190824,2487050988,0,0
GREEN STATION 1                              ,415308,6.02E+15,4040 AUBURN WAY N STE 5       ,                         ,AUBURN                  ,WA,KING,980021394,MARIJUANA RETAILER                 ,PENDING (NOT ISSUED),,2062413760,0,0
MARGIES'S POT SHOP LLC                       ,413414,6.03E+15,405 E STEUBEN ST              ,                         ,BINGEN                  ,WA,KLICKITAT,986050000,MARIJUANA RETAILER                 ,ACTIVE (ISSUED),20200623,5099699824,0,0
MARIJUANA MART                               ,422450,6.03E+15,405 E UNION ST                ,                         ,CENTRALIA               ,WA,LEWIS,985313759,MARIJUANA RETAILER                 ,PENDING (ISSUED),20191206,3607891364,0,0
HAPPY TREES                                  ,424273,6.03E+15,407 E 1ST ST                  ,                         ,CLE ELUM                ,WA,KITTITAS,989221255,MARIJUANA RETAILER                 ,ACTIVE (ISSUED),20191112,2532262135,0,0
EVERGREEN MARKET - NORTH RENTON              ,413791,6.03E+15,409 RAINIER AVE N             ,                         ,RENTON                  ,WA,KING,980575319,MARIJUANA RETAILER                 ,ACTIVE (ISSUED),20191107,4253188898,0,0
420 WEST                                     ,414733,6.03E+15,410 RONLEE LN NW A1           ,                         ,OLYMPIA                 ,WA,THURSTON,985029266,MARIJUANA RETAILER                 ,PENDING (ISSUED),20191121,3604026368,0,0
FLOYDS                                       ,422049,6.04E+15,410 W STATE ST                ,                         ,SEDRO WOOLLEY           ,WA,SKAGIT,982841557,MARIJUANA RETAILER                 ,ACTIVE (ISSUED),20191221,3605884473,0,0
THE SLOW BURN                                ,413773,6.03E+15,4101 MAIN STREET              ,                         ,UNION GAP               ,WA,YAKIMA,989032042,MARIJUANA RETAILER                 ,ACTIVE (ISSUED),20200605,5098234792,0,0
LOVELY BUDS                                  ,422278,6.04E+15,4107 E SPRAGUE AVE            ,                         ,SPOKANE                 ,WA,SPOKANE,992024850,MARIJUANA RETAILER                 ,ACTIVE (ISSUED),20200130,2082904347,0,0
JACOB JAMES SATTLEEN                         ,413302,6.02E+15,412 N RIVER RD                ,                         ,USK                     ,WA,PEND OREILLE,991800000,MARIJUANA RETAILER                 ,CLOSED (PERMANENT),20151019,5094471032,0,0
THE GREEN SEED                               ,86054,6.03E+15,412 S INTERLAKE RD            ,                         ,MOSES LAKE              ,WA,GRANT,988372908,MARIJUANA RETAILER                 ,ACTIVE (ISSUED),20200407,5098552271,0,0
ARKY VANDELAY LLC                            ,414450,6.04E+15,417 NW 65TH ST                ,                         ,SEATTLE                 ,WA,KING,981175027,MARIJUANA RETAILER                 ,ACTIVE (ISSUED),20190719,0,0,0
LAST STOP POT SHOP                           ,415509,6.03E+15,"41711 STATE ROUTE 2, #1       ",                         ,GOLD BAR                ,WA,SNOHOMISH,982510000,MARIJUANA RETAILER                 ,ACTIVE (ISSUED),20200527,3602178951,0,0
BUDDY'S                                      ,413893,6.03E+15,420 SUNSET BLVD N STE A       ,                         ,RENTON                  ,WA,KING,980555512,MARIJUANA RETAILER                 ,PENDING (ISSUED),20191126,4252269333,0,0
RENGAR LLC                                   ,429044,6.04E+15,4204 RUSSELL RD STE M         ,                         ,MUKILTEO                ,WA,SNOHOMISH,982755424,MARIJUANA RETAILER                 ,PENDING (ISSUED),20200128,2083403970,0,0
PURPLE HAZE                                  ,414680,6.03E+15,4218 RUCKER AVE               ,                         ,EVERETT                 ,WA,SNOHOMISH,982032214,MARIJUANA RETAILER                 ,ACTIVE (ISSUED),20200425,4252583054,0,0
420 CARPENTER                                ,415083,6.03E+15,422 CARPENTER RD STE 105      ,                         ,LACEY                   ,WA,THURSTON,985037906,MARIJUANA RETAILER                 ,ACTIVE (ISSUED),20191121,3604026368,0,0
GREEN LEAF                                   ,413886,6.03E+15,4220 MERIDIAN ST STE 102      ,                         ,BELLINGHAM              ,WA,WHATCOM,982269153,MARIJUANA RETAILER                 ,PENDING (ISSUED),20191205,3605262198,0,0
EVERGREEN MARKET - SOUTH RENTON              ,424747,6.04E+15,4242 E VALLEY RD              ,                         ,RENTON                  ,WA,KING,980574903,MARIJUANA RETAILER                 ,ACTIVE (ISSUED),20200501,4253188898,0,0
SMOKING CROW                                 ,422139,6.04E+15,4264 PACIFIC HWY              ,                         ,BELLINGHAM              ,WA,WHATCOM,982269042,MARIJUANA RETAILER                 ,ACTIVE (ISSUED),20200205,3603068007,0,0
THE SLOW BURN                                ,414996,6.03E+15,4278C W VAN GIESEN ST         ,                         ,WEST RICHLAND           ,WA,BENTON,993535066,MARIJUANA RETAILER                 ,ACTIVE (ISSUED),20190715,5093140968,0,0
CANNABIS 21                                  ,353993,6.03E+15,428 10TH ST                   ,                         ,HOQUIAM                 ,WA,GRAYS HARBOR,985503804,MARIJUANA RETAILER                 ,PENDING (NOT ISSUED),,3606379282,0,0
MR. GREEN JEANS                              ,414973,6.04E+15,4316 NE 399TH ST              ,                         ,LA CENTER               ,WA,CLARK,986294627,MARIJUANA RETAILER                 ,CLOSED (PERMANENT),20170315,3609034055,0,0
THE JOINT                                    ,421804,6.03E+15,4336 ROOSEVELT WAY NE STE C   ,                         ,SEATTLE                 ,WA,KING,981054764,MARIJUANA RETAILER                 ,ACTIVE (ISSUED),20191002,2062854005,0,0
SAVAGE THC                                   ,428107,6.04E+15,4426 WILLIAMS VALLEY RD STE B ,                         ,CLAYTON                 ,WA,STEVENS,991109745,MARIJUANA RETAILER                 ,ACTIVE (ISSUED),20191228,5099992989,0,0
LUX POT SHOP                                 ,420819,6.04E+15,4465 FREMONT AVE N            ,                         ,SEATTLE                 ,WA,KING,981037225,MARIJUANA RETAILER                 ,ACTIVE (ISSUED),20200303,2067193162,0,0
TENINO CANNABIS BOUTIQUE                     ,415484,6.04E+15,449 WICHMAN ST S STE A        ,                         ,TENINO                  ,WA,THURSTON,985899376,MARIJUANA RETAILER                 ,ACTIVE (ISSUED),20191213,2068185038,0,0
WESTSIDE420 RECREATIONAL                     ,412466,6.03E+15,4503 OCEAN BEACH HWY STE 103  ,                         ,LONGVIEW                ,WA,COWLITZ,986325055,MARIJUANA RETAILER                 ,ACTIVE (ISSUED),20191024,3604235261,0,0
SWEET MARY JANE'S                            ,412467,6.02E+15,4525 5TH AVE NE               ,                         ,SEATTLE                 ,WA,KING,981054816,MARIJUANA RETAILER                 ,PENDING (NOT ISSUED),,2069620346,0,0
EPHEMERAL TOAST                              ,424463,6.04E+15,4601 LEARY WAY NW             ,                         ,SEATTLE                 ,WA,KING,981074544,MARIJUANA RETAILER                 ,ACTIVE (ISSUED),20191221,2066186094,0,0
TOP SHELF CANNABIS                           ,417469,6.03E+15,4712 PACIFIC HWY              ,                         ,BELLINGHAM              ,WA,WHATCOM,982269049,MARIJUANA RETAILER                 ,ACTIVE (ISSUED),20191112,3603194102,0,0
2020 SOLUTIONS               ,420908,6.04E+15,4770 PACIFIC HWY STE A        ,                         ,BELLINGHAM              ,WA,WHATCOM,982269049,MARIJUANA RETAILER                 ,ACTIVE (ISSUED),20200114,3607342020,0,0
ORIGINS CANNABIS                             ,423402,6.04E+15,4800 40TH AVE SW STE B        ,                         ,SEATTLE                 ,WA,KING,981164506,MARIJUANA RETAILER                 ,ACTIVE (ISSUED),20190924,2535072167,0,0
THE HERBAL GARDENS                           ,423634,6.03E+15,4803 CENTER STREET STE A      ,                         ,TACOMA                  ,WA,PIERCE,984092319,MARIJUANA RETAILER                 ,ACTIVE (ISSUED),20190727,2532725265,0,0
THE KUSHERY                                  ,78577,6.04E+15,4809 EVERGREEN WAY            ,                         ,EVERETT                 ,WA,SNOHOMISH,982032830,MARIJUANA RETAILER                 ,PENDING (NOT ISSUED),        ,4256337515,0,0
LUCID                                        ,414963,6.03E+15,4820 YELM HWY SE SUITE D      ,                         ,LACEY                   ,WA,THURSTON,985033402,MARIJUANA RETAILER                 ,ACTIVE (ISSUED),20200104,5304010839,0,0
GREENWAY MARIJUANA                           ,413541,6.03E+15,4851 GEIGER RD SE             ,                         ,PORT ORCHARD            ,WA,KITSAP,983669350,MARIJUANA RETAILER                 ,ACTIVE (ISSUED),20191107,3604436988,0,0
LUX POT SHOP                                 ,414532,6.03E+15,4912 17TH AVE NW STE A        ,                         ,SEATTLE                 ,WA,KING,981074726,MARIJUANA RETAILER                 ,ACTIVE (ISSUED),20200605,2067193162,0,0
NIRVANA CANNABIS COMPANY                     ,424951,6.03E+15,4950 ARENA RD                 ,                         ,RICHLAND                ,WA,BENTON,993527857,MARIJUANA RETAILER                 ,ACTIVE (ISSUED),20191030,5098082391,0,0
FILLABONG                                    ,415210,6.04E+15,4978 SE MILE HILL DR          ,                         ,PORT ORCHARD            ,WA,KITSAP,983662102,MARIJUANA RETAILER                 ,CLOSED (PERMANENT),20170406,3604432293,0,0
THE HAPPY CROP SHOPPE                        ,413481,6.03E+15,50 ROCK ISLAND RD             ,                         ,EAST WENATCHEE          ,WA,DOUGLAS,988025352,MARIJUANA RETAILER                 ,ACTIVE (ISSUED),20191018,5098881597,0,0
UNCLE IKE'S                                  ,421141,6.05E+15,501 15TH AVE E                ,                         ,SEATTLE                 ,WA,KING,981120000,MARIJUANA RETAILER                 ,ACTIVE (ISSUED),20200624,2064203784,0,0
NATURAL GREEN                                ,421687,6.04E+15,51 MORGAN ST UNIT B           ,                         ,DAVENPORT               ,WA,LINCOLN,991220000,MARIJUANA RETAILER                 ,ACTIVE (ISSUED),20200111,2062269725,0,0
KNN MANAGEMENT LLC                           ,415008,6.03E+15,5100 PACIFIC HWY              ,                         ,FERNDALE                ,WA,WHATCOM,982488927,MARIJUANA RETAILER                 ,PENDING (NOT ISSUED),,2539518530,0,0
KUSH 21                                      ,425493,6.05E+15,517 128TH ST SW STE B         ,                         ,EVERETT                 ,WA,SNOHOMISH,982047311,MARIJUANA RETAILER                 ,PENDING (NOT ISSUED),,2063830943,0,0
PRC                                          ,421084,6.03E+15,5200 172ND ST NE F-101        ,                         ,ARLINGTON               ,WA,SNOHOMISH,982234703,MARIJUANA RETAILER                 ,ACTIVE (ISSUED),20200512,4253432272,0,0
A GREENER TODAY MARIJUANA                    ,414441,6.03E+15,5209 MARTIN LUTHER KING JR.   ,WAY S                    ,SEATTLE                 ,WA,KING,981186131,MARIJUANA RETAILER                 ,ACTIVE (ISSUED),20191018,2066877877,0,0
MARIJUANA MART                               ,420400,6.03E+15,530 7TH AVE STE D             ,                         ,LONGVIEW                ,WA,COWLITZ,986320000,MARIJUANA RETAILER                 ,ACTIVE (ISSUED),20191002,3607891364,0,0
WASHINGTON O G                               ,420382,6.03E+15,5300 17TH AVE NW   STE B      ,                         ,SEATTLE                 ,WA,KING,981073815,MARIJUANA RETAILER                 ,ACTIVE (ISSUED),20191105,3038295712,0,0
AMERICAN MARY CANNABIS 21+                   ,420292,6.03E+15,5300 17TH AVE NW STE A        ,                         ,SEATTLE                 ,WA,KING,981073815,MARIJUANA RETAILER                 ,ACTIVE (ISSUED),20191105,3038295712,0,0
THE GALLERY FIFE                             ,413812,6.03E+15,5303 PACIFIC HWY E            ,                         ,FIFE                    ,WA,PIERCE,984242601,MARIJUANA RETAILER                 ,ACTIVE (ISSUED),20191207,2538586202,0,0
HIGH SOCIETY                                 ,414539,6.03E+15,5309 GUIDE MERIDIAN RD SUITE A,                         ,BELLINGHAM              ,WA,WHATCOM,982260000,MARIJUANA RETAILER                 ,ACTIVE (ISSUED),20200609,3603063257,0,0
MISTER BUDS                                  ,414735,6.02E+15,536 MARINE DR STE B           ,                         ,PORT ANGELES            ,WA,CLALLAM,983632230,MARIJUANA RETAILER                 ,ACTIVE (ISSUED),20190912,3607971966,0,0
GOODBUDS                                     ,415294,6.02E+15,5384 NW K RD STE A            ,                         ,QUINCY                  ,WA,GRANT,988480000,MARIJUANA RETAILER                 ,ACTIVE (ISSUED),20200221,5093988843,0,0
CANNA WEST SEATTLE                           ,420666,6.03E+15,5440 CALIFORNIA AVE SW        ,                         ,SEATTLE                 ,WA,KING,981361513,MARIJUANA RETAILER                 ,ACTIVE (ISSUED),20191010,2066969240,0,0
HERBAN LEGENDS                               ,420291,6.03E+15,55 BELL ST STE 100            ,                         ,SEATTLE                 ,WA,KING,981211762,MARIJUANA RETAILER                 ,PENDING (ISSUED),20190920,2068495596,0,0
ISLAND HERB                                  ,413727,6.03E+15,5565 VANBARR PLACE UNIT F     ,                         ,FREELAND                ,WA,ISLAND,982490000,MARIJUANA RETAILER                 ,ACTIVE (ISSUED),20190928,3603312898,0,0
"PABLO & CO., LLC                             ",422138,6.04E+15,5602 STATE ROUTE 270 STE B    ,                         ,PULLMAN                 ,WA,WHITMAN,991638708,MARIJUANA RETAILER                 ,ACTIVE (ISSUED),20191024,4257896996,0,0
THE KUSHERY                                  ,415507,6.03E+15,5626 134TH PL SE STE B        ,                         ,EVERETT                 ,WA,SNOHOMISH,982085615,MARIJUANA RETAILER                 ,ACTIVE (ISSUED),20200527,4256337515,0,0
2020 SOLUTIONS               ,413314,6.04E+15,5655 GUIDE MERIDIAN STE A     ,                         ,BELLINGHAM              ,WA,WHATCOM,982269722,MARIJUANA RETAILER                 ,ACTIVE (ISSUED),20191108,2068180966,0,0
CANNAZONE                                    ,421813,6.03E+15,5655 GUIDE MERIDIAN STE B     ,SUITE B                  ,BELLINGHAM              ,WA,WHATCOM,982269722,MARIJUANA RETAILER                 ,ACTIVE (ISSUED),20191227,8602092288,0,0
MILLER'S MARIJUANA                           ,415001,6.03E+15,5675 STATE ROUTE 12 STE 1     ,                         ,ELMA                    ,WA,GRAYS HARBOR,985410000,MARIJUANA RETAILER                 ,ACTIVE (ISSUED),20191121,3604709265,0,0
THE HAPPY CROP SHOPPE                        ,413600,6.03E+15,5736 VALE RD                  ,                         ,CASHMERE                ,WA,CHELAN,988150000,MARIJUANA RETAILER                 ,ACTIVE (ISSUED),20191018,5098882454,0,0
T BROTHERS BUD LODGE                         ,414002,6.03E+15,5740 RUDDELL RD SE STE C      ,                         ,LACEY                   ,WA,THURSTON,985030000,MARIJUANA RETAILER                 ,ACTIVE (ISSUED),20191231,3607917139,0,0
112TH STREET CANNABIS                        ,423413,6.03E+15,5809 112TH ST E BLDG B        ,                         ,PUYALLUP                ,WA,PIERCE,983734323,MARIJUANA RETAILER                 ,ACTIVE (ISSUED),20191011,2069924008,0,0
GREEN TOKEN TACOMA CANNABIS                  ,420785,6.04E+15,5917 N 26TH ST STE A          ,                         ,TACOMA                  ,WA,PIERCE,984072359,MARIJUANA RETAILER                 ,ACTIVE (ISSUED),20200115,2532675428,0,0
FLOYD'S CANNABIS COMPANY                     ,422055,6.04E+15,5952 AIRPORT RD               ,                         ,PULLMAN                 ,WA,WHITMAN,991638958,MARIJUANA RETAILER                 ,ACTIVE (ISSUED),20200116,5098723080,0,0
HIGH LIFE CANNABIS                           ,430097,6.02E+15,5978 HIGHWAY 291 UNIT 6       ,                         ,NINE MILE FALLS         ,WA,STEVENS,990269556,MARIJUANA RETAILER                 ,ACTIVE (ISSUED),20200522,2086102829,0,0
420 CAPITOL                                  ,424848,6.04E+15,5980 CAPITOL BLVD SE          ,                         ,TUMWATER                ,WA,THURSTON,985015274,MARIJUANA RETAILER                 ,ACTIVE (ISSUED),20200616,3604026368,0,0
ROSLYN HERBS                                 ,414460,6.03E+15,600 S FIRST STREET            ,                         ,ROSLYN                  ,WA,KITTITAS,989410000,MARIJUANA RETAILER                 ,ACTIVE (ISSUED),20191227,4256478338,0,0
CINDER                                       ,422294,6.03E+15,6010 N DIVISION ST            ,                         ,SPOKANE                 ,WA,SPOKANE,992081028,MARIJUANA RETAILER                 ,ACTIVE (ISSUED),20191231,5092413091,0,0
THE HERBERY                                  ,426563,6.03E+15,6018 NE ST JOHNS RD STE D     ,                         ,VANCOUVER               ,WA,CLARK,986610000,MARIJUANA RETAILER                 ,ACTIVE (ISSUED),20191024,3608417505,0,0
ALL NATURAL HERBS LLC                        ,422709,6.04E+15,6020 PACIFIC AVE SE # M1973   ,                         ,LACEY                   ,WA,THURSTON,985031319,MARIJUANA RETAILER                 ,PENDING (NOT ISSUED),,3602393363,0,0
CANNABIS & GLASS                             ,360307,6.03E+15,605 E FRANCIS                 ,                         ,SPOKANE                 ,WA,SPOKANE,992080000,MARIJUANA RETAILER                 ,ACTIVE (ISSUED),20191123,5099991112,0,0
CULT CANNABIS CO.                            ,413729,6.03E+15,6061 PORTAL WAY               ,                         ,FERNDALE                ,WA,WHATCOM,982489360,MARIJUANA RETAILER                 ,ACTIVE (ISSUED),20200402,3609334263,0,0
TERP CANNABIS                                ,426632,6.04E+15,6063B HIGHWAY 291             ,                         ,NINE MILE FALLS         ,WA,STEVENS,990269565,MARIJUANA RETAILER                 ,ACTIVE (ISSUED),20190727,5097106899,0,0
GROWERS OUTLET                               ,415124,6.03E+15,613 MONTANA AVE STE 2         ,                         ,SOUTH BEND              ,WA,PACIFIC,985860000,MARIJUANA RETAILER                 ,ACTIVE (ISSUED),20200107,3608758222,0,0
CASCADE HERB COMPANY                         ,414749,6.03E+15,6167 PORTAL WAY               ,                         ,FERNDALE                ,WA,WHATCOM,982489363,MARIJUANA RETAILER                 ,ACTIVE (ISSUED),20200430,3607468587,0,0
WESTERN BUD                                  ,426849,6.04E+15,6186 STATE ROUTE 20 STE B     ,                         ,ANACORTES               ,WA,SKAGIT,982218496,MARIJUANA RETAILER                 ,ACTIVE (ISSUED),20191112,2062097254,0,0
MARIJUANA MART                               ,428846,6.03E+15,6230 197TH SW AVE             ,                         ,ROCHESTER               ,WA,THURSTON,985790000,MARIJUANA RETAILER                 ,ACTIVE (ISSUED),20191119,3608587188,0,0
PACIFIC CANNABIS COMPANY                     ,414656,6.03E+15,625 N CALLOW AVE              ,                         ,BREMERTON               ,WA,KITSAP,983123903,MARIJUANA RETAILER                 ,ACTIVE (ISSUED),20191018,3606162014,0,0
KUSHMART                                     ,414520,6.03E+15,6309 EVERGREEN WAY STE C      ,                         ,EVERETT                 ,WA,SNOHOMISH,982034559,MARIJUANA RETAILER                 ,PENDING (ISSUED),20191025,2067691282,0,0
THEOREM                                      ,415115,6.03E+15,6323 NE BOTHEL WAY            ,                         ,KENMORE                 ,WA,KING,980280000,MARIJUANA RETAILER                 ,ACTIVE (ISSUED),20191024,2066418344,0,0
EUPHORIC 360                                 ,425185,6.04E+15,6326 MARTIN WAY E STE 103     ,                         ,LACEY                   ,WA,THURSTON,985165561,MARIJUANA RETAILER                 ,ACTIVE (ISSUED),20190621,3608922878,0,0
EVERGREEN MARKET - BELLEVUE                  ,426125,6.04E+15,638 116TH AVE NE              ,                         ,BELLEVUE                ,WA,KING,980045216,MARIJUANA RETAILER                 ,ACTIVE (ISSUED),20191107,2068527155,0,0
GOLDEN DISPENSARIES                          ,414292,6.03E+15,650 LLAMA LN                  ,                         ,GOLDENDALE              ,WA,KLICKITAT,986209140,MARIJUANA RETAILER                 ,ACTIVE (ISSUED),20191024,5097730700,0,0
HIGH-5 CANNABIS                              ,421702,6.03E+15,6511 NE 137TH AVE             ,                         ,VANCOUVER               ,WA,CLARK,986825948,MARIJUANA RETAILER                 ,ACTIVE (ISSUED),20200313,3605714568,0,0
NEW VANSTERDAM                               ,413732,6.03E+15,6515 E MILL PLAIN BLVD        ,                         ,VANCOUVER               ,WA,CLARK,986617455,MARIJUANA RETAILER                 ,ACTIVE (ISSUED),20200330,5033417097,0,0
A GREENER TODAY WALLA WALLA                  ,426039,6.04E+15,655 WEST POPLAR ST            ,                         ,WALLA WALLA             ,WA,WALLA WALLA,993620000,MARIJUANA RETAILER                 ,ACTIVE (ISSUED),20200604,2063803608,0,0
L & M MANAGEMENT LLC                         ,421375,6.03E+15,6611 KITSAP WAY               ,                         ,BREMERTON               ,WA,KITSAP,983121741,MARIJUANA RETAILER                 ,PENDING (NOT ISSUED),,0,0,0
KUSH21                                       ,422992,6.04E+15,6620 N MARKET ST STE 101      ,                         ,SPOKANE                 ,WA,SPOKANE,992177809,MARIJUANA RETAILER                 ,ACTIVE (ISSUED),20200313,3605611664,0,0
GREEN OUTFITTERS                             ,413798,6.03E+15,668 OCEAN SHORES BLVD NW      ,                         ,OCEAN SHORES            ,WA,GRAYS HARBOR,985699344,MARIJUANA RETAILER                 ,ACTIVE (ISSUED),20190928,4252684391,0,0
BUD STOP                                     ,421335,6.04E+15,6725 MARTIN WAY E             ,                         ,OLYMPIA                 ,WA,THURSTON,985165541,MARIJUANA RETAILER                 ,ACTIVE (ISSUED),20190701,3605150258,0,0
CLEAR CHOICE CANNABIS                        ,421877,6.04E+15,6733 STATE HWY 303 NE         ,                         ,BREMERTON               ,WA,KITSAP,983113736,MARIJUANA RETAILER                 ,ACTIVE (ISSUED),20191018,2538826344,0,0
FIRE AND FROST CANNABIS                      ,428276,6.03E+15,6818 NE 4TH PLAIN BLVD STE C  ,                         ,VANCOUVER               ,WA,CLARK,986617357,MARIJUANA RETAILER                 ,ACTIVE (ISSUED),20190917,3603357823,0,0
BUD HUT                                      ,422332,6.04E+15,70 SALTSPRING DR  UNIT 2A     ,UNIT 2A                  ,FRIDAY HARBOR           ,WA,SAN JUAN,982509062,MARIJUANA RETAILER                 ,ACTIVE (ISSUED),20191205,3606681111,0,0
CANNABIS SUPER STORE                         ,402780,6.04E+15,705 EAST 1ST ST               ,                         ,CLE ELUM                ,WA,KITTITAS,989221252,MARIJUANA RETAILER                 ,ACTIVE (ISSUED),20190906,5096745356,0,0
ROYAL'S CANNABIS                             ,415132,6.03E+15,7115 N DIVISION ST STE A      ,                         ,SPOKANE                 ,WA,SPOKANE,992086507,MARIJUANA RETAILER                 ,ACTIVE (ISSUED),20200627,5099954896,0,0
SATIVA SISTERS II                            ,422764,6.04E+15,712 5TH ST                    ,                         ,CLARKSTON               ,WA,ASOTIN,994032632,MARIJUANA RETAILER                 ,ACTIVE (ISSUED),20200219,2062350635,0,0
STAR OUTLET                                  ,422010,6.04E+15,7157 GUIDE MERIDIAN RD #3     ,#3                       ,LYNDEN                  ,WA,WHATCOM,982649213,MARIJUANA RETAILER                 ,PENDING (ISSUED),20200226,4255244840,0,0
HERB'S HOUSE                                 ,402039,6.03E+15,716 NW 65TH ST                ,                         ,SEATTLE                 ,WA,KING,981175049,MARIJUANA RETAILER                 ,ACTIVE (ISSUED),20200123,2065577388,0,0
DANK'S WONDER EMPORIUM                       ,364799,6.04E+15,7207 212TH ST SW              ,                         ,EDMONDS                 ,WA,SNOHOMISH,980207735,MARIJUANA RETAILER                 ,PENDING (ISSUED),20191225,3609154944,0,0
CANNA4LIFE                                   ,414211,6.03E+15,721 6TH ST                    ,                         ,CLARKSTON               ,WA,ASOTIN,994032001,MARIJUANA RETAILER                 ,ACTIVE (ISSUED),20190809,5099903124,0,0
GREEN TOKEN CANNABIS                         ,421650,6.04E+15,7215 212TH ST SW              ,                         ,EDMONDS                 ,WA,SNOHOMISH,980267735,MARIJUANA RETAILER                 ,CLOSED (PERMANENT),20171208,2532267186,0,0
HERBAL LEGENDS CANNABIS                      ,420477,6.03E+15,7217 212TH ST SW              ,                         ,EDMONDS                 ,WA,SNOHOMISH,980267735,MARIJUANA RETAILER                 ,ACTIVE (ISSUED),20190930,3605941738,0,0
SEATTLE CANNABIS CO.                         ,426199,6.03E+15,7262 RAINIER AVE S STE B      ,                         ,SEATTLE                 ,WA,KING,981183864,MARIJUANA RETAILER                 ,PENDING (ISSUED),20190806,2064201042,0,0
GREENFIELD COMPANY CANNABIS MERCANTILE       ,414356,6.03E+15,728 6TH ST                    ,                         ,CLARKSTON               ,WA,ASOTIN,994032012,MARIJUANA RETAILER                 ,ACTIVE (ISSUED),20190928,2069621025,0,0
WALLA WALLA WEEDERY                          ,425273,6.03E+15,728 IRENE ST                  ,                         ,WALLA WALLA             ,WA,WALLA WALLA,993621604,MARIJUANA RETAILER                 ,ACTIVE (ISSUED),20200428,5098764279,0,0
LUCID                                        ,415429,6.03E+15,7294 MARTIN WAY E             ,                         ,OLYMPIA                 ,WA,THURSTON,985165533,MARIJUANA RETAILER                 ,ACTIVE (ISSUED),20200104,5304010839,0,0
HIGH SOCIETY BURLINGTON                      ,413533,6.04E+15,735 S. BURLINGTON BLVD        ,                         ,BURLINGTON              ,WA,SKAGIT,982332219,MARIJUANA RETAILER                 ,ACTIVE (ISSUED),20190702,3606610168,0,0
GREEN LADY MARIJUANA                         ,423145,6.04E+15,7359 OLD PACIFIC HWY S        ,                         ,KALAMA                  ,WA,COWLITZ,986250000,MARIJUANA RETAILER                 ,ACTIVE (ISSUED),20200311,3607898891,0,0
THE BAKEREE                                  ,421261,6.04E+15,74 S LUCILE ST  STE 102       ,STE 102                  ,SEATTLE                 ,WA,KING,981342444,MARIJUANA RETAILER                 ,ACTIVE (ISSUED),20200323,2066590574,0,0
GREEN STOP CANNABIS                          ,413801,6.03E+15,7466 MT BAKER HWY             ,                         ,MAPLE FALLS             ,WA,WHATCOM,982660000,MARIJUANA RETAILER                 ,ACTIVE (ISSUED),20191231,3607468734,0,0
NATURE'S GIFTS                               ,414181,6.03E+15,755 W WASHINGTON ST STE C     ,                         ,SEQUIM                  ,WA,CLALLAM,983823272,MARIJUANA RETAILER                 ,ACTIVE (ISSUED),20191030,3607971993,0,0
AMERICAN HARVEST                             ,422954,6.03E+15,7550 US 97                    ,                         ,PESHASTIN               ,WA,CHELAN,988470000,MARIJUANA RETAILER                 ,ACTIVE (ISSUED),20191105,5033177035,0,0
ANACORTES CANNABIS                           ,421652,6.03E+15,7656 STATE ROUTE 20 UNIT A    ,                         ,ANACORTES               ,WA,SKAGIT,982218311,MARIJUANA RETAILER                 ,ACTIVE (ISSUED),20191225,3605886222,0,0
POT ZONE OF VANCOUVER                        ,361259,6.04E+15,7701 NE HWY 99 STE B          ,                         ,VANCOUVER               ,WA,CLARK,986650000,MARIJUANA RETAILER                 ,PENDING (NOT ISSUED),        ,5099795989,0,0
HASHTAG CANNABIS                             ,430254,6.04E+15,7829 LEARY WAY NE             ,                         ,REDMOND                 ,WA,KING,980524338,MARIJUANA RETAILER                 ,PENDING (ISSUED),20200511,2066508928,0,0
LUCID PUYALLUP                               ,352673,6.02E+15,7924 RIVER ROAD               ,                         ,PUYALLUP                ,WA,PIERCE,983713839,MARIJUANA RETAILER                 ,ACTIVE (ISSUED),20200501,2539732476,0,0
DANCING GYPSIES                              ,413529,6.03E+15,794 KENTUCKY ST               ,                         ,BELLINGHAM              ,WA,WHATCOM,982250000,MARIJUANA RETAILER                 ,ACTIVE (ISSUED),20191121,2088192110,0,0
CLEAR CHOICE CANNABIS                        ,413358,6.03E+15,8001 S HOSMER ST              ,                         ,TACOMA                  ,WA,PIERCE,984081017,MARIJUANA RETAILER                 ,ACTIVE (ISSUED),20200104,2534445444,0,0
GREEN TIKI CANNABIS                          ,414931,6.04E+15,8002 NE HIGHWAY 99 STE B      ,                         ,VANCOUVER               ,WA,CLARK,986658875,MARIJUANA RETAILER                 ,PENDING (NOT ISSUED),        ,3607101577,0,0
PAPER AND LEAF                               ,414812,6.03E+15,8040 NE DAY RD W BLDG 3 STE 1 ,                         ,BAINBRIDGE ISLAND       ,WA,KITSAP,981100000,MARIJUANA RETAILER                 ,ACTIVE (ISSUED),20190907,2067807814,0,0
BIRCH BAY BUDZ                               ,429761,6.04E+15,8125 BIRCH BAY SQUARE ST #222 ,                         ,BLAINE                  ,WA,WHATCOM,982309660,MARIJUANA RETAILER                 ,ACTIVE (ISSUED),20200117,5092094569,0,0
BUD HUT                                      ,415361,6.03E+15,8142 HIGHWAY 14               ,                         ,LYLE                    ,WA,KLICKITAT,986350000,MARIJUANA RETAILER                 ,ACTIVE (ISSUED),20190919,4254781077,0,0
POT ZONE                                     ,425686,6.03E+15,816 72ND ST E                 ,                         ,TACOMA                  ,WA,PIERCE,983660926,MARIJUANA RETAILER                 ,ACTIVE (ISSUED),20191025,2533127286,0,0
FREEDOM MARKET                               ,414280,6.03E+15,820 WESTSIDE HWY             ,                         ,KELSO                   ,WA,COWLITZ,986264355,MARIJUANA RETAILER                 ,ACTIVE (ISSUED),20200512,3603550682,1,Manual Validation
GREEN TIKI CANNABIS                          ,81400,6.04E+15,8202 NE STATE HWY 104 STE 101,STE 101                  ,KINGSTON                ,WA,KITSAP,983460000,MARIJUANA RETAILER                 ,ACTIVE (ISSUED),20200404,3607101577,0,0
THE GREEN DOOR SEATTLE                       ,414425,6.03E+15,828 RAINIER AVE S             ,                         ,SEATTLE                 ,WA,KING,981442838,MARIJUANA RETAILER                 ,ACTIVE (ISSUED),20200118,2065510403,0,0
CANNABIS PROVISIONS EAST                     ,423542,6.03E+15,831 N MILLER ST               ,                         ,WENATCHEE               ,WA,CHELAN,988012046,MARIJUANA RETAILER                 ,ACTIVE (ISSUED),20200108,2533347082,0,0
TOKEN HERB                                   ,400209,6.03E+15,837 A CRESCENT BEACH RD       ,                         ,EASTSOUND               ,WA,SAN JUAN,982451695,MARIJUANA RETAILER                 ,ACTIVE (ISSUED),20190919,3603766900,0,0
DOCKSIDE CANNABIS                            ,427158,6.04E+15,8401 AURORA AVE N STE E1      ,                         ,SEATTLE                 ,WA,KING,981034332,MARIJUANA RETAILER                 ,PENDING (NOT ISSUED),,8443625420,0,0
BETTER BUDS                                  ,421709,6.04E+15,841 NESS CORNER RD  STE B     ,STE B                    ,PORT HADLOCK            ,WA,JEFFERSON,983399572,MARIJUANA RETAILER                 ,ACTIVE (ISSUED),20200130,3607316611,0,0
THE MARIJUANA MERCANTILE                     ,415216,6.03E+15,8411 SR 92 STE 5              ,                         ,GRANITE FALLS           ,WA,SNOHOMISH,982520000,MARIJUANA RETAILER                 ,ACTIVE (ISSUED),20191226,3603227122,0,0
BAD ASS WEED CO.                             ,85059,6.03E+15,8459 MAIN ST  UNIT B          ,UNIT B                   ,DRYDEN                  ,WA,CHELAN,988210000,MARIJUANA RETAILER                 ,ACTIVE (ISSUED),20200430,5092648044,0,0
EVERGREEN STATE ENTERPRISES                  ,422825,6.04E+15,847 E SR 4                    ,                         ,CATHLAMET               ,WA,WAHKIAKUM,986120000,MARIJUANA RETAILER                 ,CLOSED (PERMANENT),20180419,5033170557,0,0
BUD COMMANDER                                ,413802,6.03E+15,849 TROSPER RD SW STE 207     ,                         ,TUMWATER                ,WA,THURSTON,985128145,MARIJUANA RETAILER                 ,ACTIVE (ISSUED),20191005,3606881709,0,0
BUDHUT                                       ,421642,6.04E+15,8529 52ND ST SE               ,                         ,SNOHOMISH               ,WA,SNOHOMISH,982909282,MARIJUANA RETAILER                 ,ACTIVE (ISSUED),20191024,4257896996,0,0
THE WASHINGTON STATE CANNABIS GROUP          ,421658,6.03E+15,8606 PRESTON FALL CITY RD SE  ,                         ,PRESTON                 ,WA,KING,980500000,MARIJUANA RETAILER                 ,PENDING (ISSUED),20190827,2535834309,0,0
HIGH SOCIETY                                 ,413534,6.03E+15,8630 S MARCH POINT RD         ,                         ,ANACORTES               ,WA,SKAGIT,982213412,MARIJUANA RETAILER                 ,ACTIVE (ISSUED),20191203,3606610168,0,0
CANNABIS PURVEYORS                           ,413785,6.03E+15,8701 14TH AVE S               ,                         ,SEATTLE                 ,WA,KING,981084808,MARIJUANA RETAILER                 ,PENDING (NOT ISSUED),,2069191572,0,0
KUSHMAN                                      ,426731,6.03E+15,8911 EVERGREEN WAY            ,                         ,EVERETT                 ,WA,SNOHOMISH,982082626,MARIJUANA RETAILER                 ,ACTIVE (ISSUED),20200117,4254441575,0,0
HERBAL ACCESS RETAIL                         ,421918,6.03E+15,8962 BEAVER VALLEY RD         ,                         ,CHIMACUM                ,WA,JEFFERSON,983250000,MARIJUANA RETAILER                 ,ACTIVE (ISSUED),20190620,2068543538,0,0
FIRE CANNABIS CO                             ,421738,6.03E+15,903 ENGH RD SUITE D           ,                         ,OMAK                    ,WA,OKANOGAN,988419627,MARIJUANA RETAILER                 ,ACTIVE (ISSUED),20190925,7202719997,0,0
CHIMACUM CANNABIS                            ,413492,6.04E+15,9034 BEAVER VALLEY ROAD       ,                         ,CHIMACUM                ,WA,JEFFERSON,983258781,MARIJUANA RETAILER                 ,ACTIVE (ISSUED),20200514,2066818394,0,0
ZIA RECREATIONAL                             ,415488,6.03E+15,905 SIMPSON AVENUE            ,                         ,HOQUIAM                 ,WA,GRAYS HARBOR,985503020,MARIJUANA RETAILER                 ,ACTIVE (ISSUED),20191121,5057128255,0,0
THE BACK PORCH                               ,415645,6.04E+15,907 N WENATCHEE AVENUE STE B  ,                         ,WENATCHEE               ,WA,CHELAN,985011572,MARIJUANA RETAILER                 ,ACTIVE (ISSUED),20190726,5098881536,0,0
SPOKANE GREEN LEAF                           ,422146,6.03E+15,9107 N COUNTRY HOMES BLVD #13 ,STE 13                   ,SPOKANE                 ,WA,SPOKANE,992185007,MARIJUANA RETAILER                 ,ACTIVE (ISSUED),20191019,5099193467,0,0
BLAINE CANNABIS                              ,415064,6.05E+15,922 PEACE PORTAL DR           ,                         ,BLAINE                  ,WA,WHATCOM,982304409,MARIJUANA RETAILER                 ,PENDING (NOT ISSUED),,3603328922,0,0
CINDER                                       ,423096,6.03E+15,927 W 2ND AVE STE 1           ,                         ,SPOKANE                 ,WA,SPOKANE,992014501,MARIJUANA RETAILER                 ,ACTIVE (ISSUED),20191231,5092930365,0,0
WALLA WALLA CANNABIS COMPANY                 ,415641,6.03E+15,927 W MAIN ST                 ,                         ,WALLA WALLA             ,WA,WALLA WALLA,993622746,MARIJUANA RETAILER                 ,ACTIVE (ISSUED),20191218,5098764946,0,0
NIRVANA CANNABIS COMPANY                     ,422329,6.03E+15,930 1/2 VALLEY MALL PKWY      ,                         ,EAST WENATCHEE          ,WA,DOUGLAS,988024402,MARIJUANA RETAILER                 ,ACTIVE (ISSUED),20191030,5098082361,0,0
SATORI                                       ,414664,6.03E+15,9301 N DIVISION ST STE B-C    ,                         ,SPOKANE                 ,WA,SPOKANE,992181254,MARIJUANA RETAILER                 ,ACTIVE (ISSUED),20200504,5099947051,0,0
FLOYD'S                                      ,420478,6.04E+15,933 E JOHNS PRAIRIE RD        ,                         ,SHELTON                 ,WA,MASON,985841270,MARIJUANA RETAILER                 ,ACTIVE (ISSUED),20200228,2067710350,0,0
CANNABIS PROVISIONS INC.                     ,425585,6.03E+15,938 N 200TH ST STE C          ,                         ,SHORELINE               ,WA,KING,981333149,MARIJUANA RETAILER                 ,ACTIVE (ISSUED),20191003,2066295235,0,0
EMERALD COAST                                ,420416,6.03E+15,939 N CALLOW AVE # 100-B      ,                         ,BREMERTON               ,WA,KITSAP,983123806,MARIJUANA RETAILER                 ,ACTIVE (ISSUED),20200523,3608131006,0,0
NXNW RETAIL LLC/CANNABIS & GLASS             ,82587,6.03E+15,9403 E TRENT AVE              ,                         ,MILLWOOD                ,WA,SPOKANE,992064218,MARIJUANA RETAILER                 ,ACTIVE (ISSUED),20191123,5093096974,0,0
STICKY'S                                     ,421326,6.03E+15,9411 NE HIGHWAY 99 STE 4      ,                         ,VANCOUVER               ,WA,CLARK,986658969,MARIJUANA RETAILER                 ,ACTIVE (ISSUED),20191003,5099521602,0,0
MAIN STREET MARIJUANA LONGVIEW               ,421789,6.04E+15,945 WASHINGTON WAY STE 121    ,                         ,LONGVIEW                ,WA,COWLITZ,986324059,MARIJUANA RETAILER                 ,ACTIVE (ISSUED),20200320,3606063260,0,0
BETTER BUDS                                  ,430175,6.04E+15,946 WASHINGTON WAY STE 100    ,                         ,LONGVIEW                ,WA,COWLITZ,986324030,MARIJUANA RETAILER                 ,ACTIVE (ISSUED),20200421,3609676056,0,0
MARI J'S HIGHWAY POT SHOP                    ,414893,6.03E+15,9506 19TH AVE SE              ,                         ,EVERETT                 ,WA,SNOHOMISH,982083801,MARIJUANA RETAILER                 ,CLOSED (PERMANENT),20190110,2065506021,0,0
SWEET JANE                                   ,423829,6.03E+15,9507 STATE ROUTE 302 NW # B   ,                         ,GIG HARBOR              ,WA,PIERCE,983297102,MARIJUANA RETAILER                 ,ACTIVE (ISSUED),20191025,2532457831,0,0
APEX CANNABIS                                ,421110,6.03E+15,955 W BROADWAY AVE            ,                         ,MOSES LAKE              ,WA,GRANT,988370000,MARIJUANA RETAILER                 ,ACTIVE (ISSUED),20190702,5094990646,0,0
THE JOINT                                    ,420801,6.04E+15,9574 OLD HWY 99 NORTH RD STE B,                         ,BURLINGTON              ,WA,SKAGIT,982336811,MARIJUANA RETAILER                 ,ACTIVE (ISSUED),20200222,3607550755,0,0
LTTLE MOON TRADING COMPANY                   ,413820,6.03E+15,9601 EL CAMINO LN SE          ,                         ,YELM                    ,WA,THURSTON,985978717,MARIJUANA RETAILER                 ,PENDING (NOT ISSUED),,3602642775,0,0
LOCALS CANNA HOUSE                           ,414823,6.03E+15,9616 E SPRAGUE AVE            ,STE B                    ,SPOKANE VALLEY          ,WA,SPOKANE,992060000,MARIJUANA RETAILER                 ,ACTIVE (ISSUED),20191122,5092946552,0,0
THE VAULT CANNABIS                           ,414829,6.04E+15,9626 32ND ST SE               ,                         ,LAKE STEVENS            ,WA,SNOHOMISH,982050000,MARIJUANA RETAILER                 ,ACTIVE (ISSUED),20200130,4252488559,0,0
BUD NATION                                   ,415203,6.04E+15,9640 16TH AVE SW STE C & D    ,                         ,SEATTLE                 ,WA,KING,981062827,MARIJUANA RETAILER                 ,ACTIVE (ISSUED),20200222,2066027888,0,0
LONGVIEW FREEDOM MARKET                      ,413544,6.03E+15,971 14TH AVE STE 110          ,                         ,LONGVIEW                ,WA,COWLITZ,986324049,MARIJUANA RETAILER                 ,ACTIVE (ISSUED),20191214,3602617055,0,0
GREENSIDE RECREATIONAL                       ,413372,6.03E+15,9724 AURORA AVE N             ,                         ,SEATTLE                 ,WA,KING,981033223,MARIJUANA RETAILER                 ,ACTIVE (ISSUED),20200124,2067907036,0,0
UNCLE IKE'S                                  ,421514,6.05E+15,9822 15TH AVE SW STE B        ,                         ,SEATTLE                 ,WA,KING,981062850,MARIJUANA RETAILER                 ,ACTIVE (ISSUED),20200624,2064203784,0,0
MR. O.G.                                     ,417949,6.04E+15,9823 15TH AVE SW UNIT D1      ,UNIT D1                  ,SEATTLE                 ,WA,KING,981062847,MARIJUANA RETAILER                 ,ACTIVE (ISSUED),20200612,2066128710,0,0
HANGER 420 SNOHOMISH                         ,421873,6.04E+15,9929 AIRPORT WAY UNIT 1       ,                         ,SNOHOMISH               ,WA,SNOHOMISH,982968229,MARIJUANA RETAILER                 ,ACTIVE (ISSUED),20200222,2064987171,0,0
CHRONICS                                     ,415292,6.03E+15,PARCEL #10102000301           ,                         ,ROCK ISLAND             ,WA,DOUGLAS,988500000,MARIJUANA RETAILER                 ,PENDING (NOT ISSUED),,2062354678,0,0
A PIPE DREAM                                 ,422849,6.04E+15,RETAIL TITLE CERTIFICATE      ,                         ,MORTON                  ,WA,LEWIS,983560000,MARIJUANA RETAILER                 ,CLOSED (PERMANENT),20180618,2069632900,0,0
ALIEN COMMANDER LLC                          ,422663,6.04E+15,RETAIL TITLE CERTIFICATE      ,                         ,BELLEVUE                ,WA,KING,980040000,MARIJUANA RETAILER                 ,CLOSED (PERMANENT),20190327,2064099468,0,0
"C4U2, LLC (TITLE OWNER ONLY)                 ",422362,6.04E+15,RETAIL TITLE CERTIFICATE      ,                         ,VANCOUVER               ,WA,CLARK,986658928,MARIJUANA RETAILER                 ,CLOSED (PERMANENT),20190715,3607987194,0,0
CANNABIS SUPER STORE LLC                     ,422745,6.04E+15,RETAIL TITLE CERTIFICATE      ,                         ,BAINBRIDGE ISLAND       ,WA,KITSAP,981102188,MARIJUANA RETAILER                 ,CLOSED (PERMANENT),20191105,4255030962,0,0
CHAMBERS BAY CANNABIS COMPANY                ,423272,6.04E+15,RETAIL TITLE CERTIFICATE      ,                         ,UNIVERSITY PLACE        ,WA,PIERCE,984664107,MARIJUANA RETAILER                 ,CLOSED (PERMANENT),20170508,3607101577,0,0
CHOICE RETAIL                                ,421114,6.04E+15,RETAIL TITLE CERTIFICATE      ,                         ,CAMAS                   ,WA,CLARK,986072454,MARIJUANA RETAILER                 ,CLOSED (PERMANENT),20171102,2532250200,0,0
CLEAR MIND CANNABIS                          ,422713,6.03E+15,RETAIL TITLE CERTIFICATE      ,                         ,PASCO                   ,WA,FRANKLIN,993016402,MARIJUANA RETAILER                 ,CLOSED (PERMANENT),20180310,3607981619,0,0
CREDIBLE COMMODITIES                         ,421576,6.04E+15,RETAIL TITLE CERTIFICATE      ,                         ,EVERETT                 ,WA,SNOHOMISH,982015082,MARIJUANA RETAILER                 ,CLOSED (PERMANENT),20171227,2066508928,0,0
DANK'S WONDER EMPORIUM                       ,412485,6.03E+15,RETAIL TITLE CERTIFICATE      ,                         ,CENTRALIA               ,WA,LEWIS,985313338,MARIJUANA RETAILER                 ,CLOSED (PERMANENT),20190119,3234543767,0,0
EXPONENTIAL 3                                ,426448,6.04E+15,RETAIL TITLE CERTIFICATE      ,                         ,BELLEVUE                ,WA,KING,980043800,MARIJUANA RETAILER                 ,CLOSED (PERMANENT),20180314,2068527155,0,0
FIVE POINTS OF PIERCE COUNTY LLC             ,424498,6.03E+15,RETAIL TITLE CERTIFICATE      ,                         ,CHEHALIS                ,WA,LEWIS,985328717,MARIJUANA RETAILER                 ,CLOSED (PERMANENT),20171109,2532731260,0,0
FLORAL FANATIX LLC                           ,422059,6.04E+15,RETAIL TITLE CERTIFICATE      ,                         ,OCEAN SHORES            ,WA,GRAYS HARBOR,985690000,MARIJUANA RETAILER                 ,CLOSED (PERMANENT),20180308,3608904918,0,0
GREEN LADY MARIJUANA                         ,422578,6.04E+15,RETAIL TITLE CERTIFICATE      ,                         ,LYNNWOOD                ,WA,SNOHOMISH,980364716,MARIJUANA RETAILER                 ,CLOSED (PERMANENT),20170411,3607898891,0,0
GREEN STATION 1                              ,414506,6.02E+15,RETAIL TITLE CERTIFICATE      ,                         ,SEATAC                  ,WA,KING,981481965,MARIJUANA RETAILER                 ,CLOSED (PERMANENT),20200115,2062413760,0,0
GREEN2GO PASCO                               ,422782,6.03E+15,RETAIL TITLE CERTIFICATE      ,                         ,PASCO                   ,WA,FRANKLIN,993010000,MARIJUANA RETAILER                 ,CLOSED (PERMANENT),20181022,5095917100,0,0
GRINGO CALIENTE                              ,421846,6.03E+15,RETAIL TITLE CERTIFICATE      ,                         ,RICHLAND                ,WA,BENTON,993520000,MARIJUANA RETAILER                 ,CLOSED (PERMANENT),20171027,2067907229,0,0
HIGH 502                                     ,421726,6.03E+15,RETAIL TITLE CERTIFICATE      ,                         ,TOLEDO                  ,WA,LEWIS,985910000,MARIJUANA RETAILER                 ,CLOSED (PERMANENT),20181103,2532731260,0,0
J & K CANNABIS                               ,355804,6.03E+15,RETAIL TITLE CERTIFICATE      ,                         ,LAKEWOOD                ,WA,PIERCE,984991030,MARIJUANA RETAILER                 ,CLOSED (PERMANENT),20170912,2534684440,0,0
JD'S PROCUREMENT                             ,422725,6.04E+15,RETAIL TITLE CERTIFICATE      ,                         ,MOSSYROCK               ,WA,LEWIS,985640000,MARIJUANA RETAILER                 ,CLOSED (PERMANENT),20181213,3607987194,0,0
JST INTERNATIONAL                            ,415053,6.03E+15,RETAIL TITLE CERTIFICATE      ,                         ,FEDERAL WAY             ,WA,KING,980030000,MARIJUANA RETAILER                 ,CLOSED (PERMANENT),20191211,2533328800,0,0
KEYSTONE CREATIONS                           ,414090,6.03E+15,RETAIL TITLE CERTIFICATE      ,                         ,FEDERAL WAY             ,WA,KING,980034994,MARIJUANA RETAILER                 ,CLOSED (PERMANENT),20190926,2533559704,0,0
MARY JANE'S HOUSE OF MARIJUANA               ,413844,6.03E+15,RETAIL TITLE CERTIFICATE      ,                         ,WASHOUGAL               ,WA,CLARK,986712123,MARIJUANA RETAILER                 ,CLOSED (PERMANENT),20200110,3609312169,0,0
ONE LOVE COLLECTIVE                          ,421910,6.03E+15,RETAIL TITLE CERTIFICATE      ,                         ,MONROE                  ,WA,SNOHOMISH,982721938,MARIJUANA RETAILER                 ,CLOSED (PERMANENT),20180404,2062278088,0,0
ONE LOVE COLLECTIVE                          ,422107,6.03E+15,RETAIL TITLE CERTIFICATE      ,                         ,KENT                    ,WA,KING,980320000,MARIJUANA RETAILER                 ,CLOSED (PERMANENT),20180228,2062278088,0,0
ORIGINS CANNABIS                             ,421432,6.04E+15,RETAIL TITLE CERTIFICATE      ,                         ,MONROE                  ,WA,SNOHOMISH,982721938,MARIJUANA RETAILER                 ,CLOSED (PERMANENT),20180103,2535072167,0,0
PMR INDUSTRIES                               ,425851,6.04E+15,RETAIL TITLE CERTIFICATE      ,                         ,LAKEWOOD                ,WA,PIERCE,984993514,MARIJUANA RETAILER                 ,CLOSED (PERMANENT),20171121,2536786934,0,0
SATORI                                       ,421848,6.04E+15,RETAIL TITLE CERTIFICATE      ,                         ,NEWPORT                 ,WA,PEND OREILLE,991569302,MARIJUANA RETAILER                 ,CLOSED (PERMANENT),20180103,5099990148,0,0
SATORI                                       ,422659,6.04E+15,RETAIL TITLE CERTIFICATE      ,                         ,RICHLAND                ,WA,BENTON,993520000,MARIJUANA RETAILER                 ,CLOSED (PERMANENT),20180103,5099990148,0,0
SATORI                                       ,422703,6.04E+15,RETAIL TITLE CERTIFICATE      ,                         ,KENNEWICK               ,WA,BENTON,993361966,MARIJUANA RETAILER                 ,CLOSED (PERMANENT),20170717,5202508988,0,0
SMP RETAIL LLC (TITLE OWNER ONLY)            ,422390,6.03E+15,RETAIL TITLE CERTIFICATE      ,                         ,EVERETT                 ,WA,SNOHOMISH,982036103,MARIJUANA RETAILER                 ,CLOSED (PERMANENT),20181108,4254710283,0,0
TEAM CREME                                   ,414663,6.04E+15,RETAIL TITLE CERTIFICATE      ,                         ,VANCOUVER               ,WA,CLARK,986611246,MARIJUANA RETAILER                 ,CLOSED (PERMANENT),20171216,5093276833,0,0
THE FORBIDDEN FLOWER                         ,422328,6.03E+15,RETAIL TITLE CERTIFICATE      ,                         ,KENNEWICK               ,WA,BENTON,993362677,MARIJUANA RETAILER                 ,CLOSED (PERMANENT),20171109,2062350635,0,0
THE GREEN RECREATIONAL CANNABIS              ,413603,6.03E+15,RETAIL TITLE CERTIFICATE      ,                         ,KENT                    ,WA,KING,980322718,MARIJUANA RETAILER                 ,CLOSED (PERMANENT),20171019,2065793661,0,0
THE HERBAL GARDENS                           ,426198,6.03E+15,RETAIL TITLE CERTIFICATE      ,                         ,PUYALLUP                ,WA,PIERCE,983713313,MARIJUANA RETAILER                 ,CLOSED (PERMANENT),20180129,2533530740,0,0
THE HERBERY (TITLE OWNER ONLY)               ,414886,6.03E+15,RETAIL TITLE CERTIFICATE      ,                         ,RIDGEFIELD              ,WA,CLARK,986423354,MARIJUANA RETAILER                 ,CLOSED (PERMANENT),20190613,3609079694,0,0
THE JOINT                                    ,422448,6.03E+15,RETAIL TITLE CERTIFICATE      ,                         ,LAKE STEVENS            ,WA,SNOHOMISH,982580000,MARIJUANA RETAILER                 ,CLOSED (PERMANENT),20171214,4254710283,0,0
TOP CAT ENTERPRISES                          ,414513,6.03E+15,RETAIL TITLE CERTIFICATE      ,                         ,MARYSVILLE              ,WA,SNOHOMISH,982717808,MARIJUANA RETAILER                 ,CLOSED (PERMANENT),20171007,2534489170,0,0
W.V.S. LLC                                   ,422399,6.04E+15,RETAIL TITLE CERTIFICATE      ,                         ,EVERETT                 ,WA,SNOHOMISH,982043757,MARIJUANA RETAILER                 ,CLOSED (PERMANENT),20191206,2062715468,0,0
WASHINGTON GREEN LEAF                        ,414128,6.03E+15,RETAIL TITLE CERTIFICATE      ,                         ,CENTRALIA               ,WA,LEWIS,985319649,MARIJUANA RETAILER                 ,CLOSED (PERMANENT),20200506,4253124423,0,0
WASHINGTON RETAIL PARTNERS LLC               ,422602,6.04E+15,RETAIL TITLE CERTIFICATE      ,                         ,KENNEWICK               ,WA,BENTON,993360000,MARIJUANA RETAILER                 ,CLOSED (PERMANENT),20180123,2067697115,0,0
YOGAS GREEN TIKI OF BELLINGHAM               ,422443,6.04E+15,RETAIL TITLE CERTIFICATE      ,                         ,BATTLE GROUND           ,WA,CLARK,986045227,MARIJUANA RETAILER                 ,CLOSED (PERMANENT),20190320,3607101577,0,0