Tradename,License #,UBI,Street Address,Suite/Rm,City,State,County,ZipCode,PrivDesc,PrivilegeStatus,DateCreated,DayPhone,ManuallyCleaned,Source
EXPONENTIAL 3                                ,422001,6.04E+15,                              ,                         ,                        ,  ,KING,         ,MARIJUANA RETAILER                 ,PENDING (NOT ISSUED),        ,          ,0,0
MEDIBLE MIKES                                ,415556,6.03E+15,000 MYRA RD                   ,                         ,WALLA WALLA             ,WA,WALLA WALLA,993620000,MARIJUANA RETAILER                 ,PENDING (NOT ISSUED),20140103,5093083959,0,0
DAVE'S PLACE                                 ,415202,6.03E+15,10 MAPLE GROVE RD             ,                         ,SUNNYSIDE               ,WA,YAKIMA,989440000,MARIJUANA RETAILER                 ,ACTIVE (ISSUED),20161216,5098300275,0,0
CUTIE JUDY'S CANNABIS COMPANY                ,422234,6.03E+15,10 VALUE PARKWAY STE A        ,STE A                    ,ELMA                    ,WA,GRAYS HARBOR,984455527,MARIJUANA RETAILER                 ,ACTIVE (ISSUED),20170216,2532412948,0,0
CUTIE JUDY'S CANNABIS COMPANY                ,422900,6.03E+15,10 VALUE PKWY                 ,                         ,ELMA                    ,WA,GRAYS HARBOR,985419076,MARIJUANA RETAILER                 ,PENDING (NOT ISSUED),20160405,5057128256,0,0
SATORI                                       ,421616,6.03E+15,100 E MAPLE ST STE A          ,                         ,BELLINGHAM              ,WA,WHATCOM,982255006,MARIJUANA RETAILER                 ,ACTIVE (ISSUED),20170110,2064191102,0,0
LA PUSH KUSH                                 ,413695,6.02E+15,100 LA PUSH RD STE 602        ,                         ,FORKS                   ,WA,CLALLAM,983319406,MARIJUANA RETAILER                 ,CLOSED (PERMANENT),20150930,5416109508,0,0
LA PUSH KUSH                                 ,419178,6.02E+15,100 LA PUSH RD STE 602        ,                         ,FORKS                   ,WA,CLALLAM,983319406,MARIJUANA RETAILER                 ,CLOSED (PERMANENT),20150304,5416109508,0,0
SWEET LEAF CANNABIS CO                       ,415523,6.03E+15,100 OLD HILL RD               ,                         ,ABERDEEN                ,WA,GRAYS HARBOR,985207300,MARIJUANA RETAILER                 ,PENDING (ISSUED),20170322,3605325758,0,0
CANNABIS 21                                  ,415567,6.03E+15,1000 E WISHKAH ST             ,                         ,ABERDEEN                ,WA,GRAYS HARBOR,985200000,MARIJUANA RETAILER                 ,ACTIVE (ISSUED),20170105,3602397149,0,0
SEA DUNES LLC                                ,421372,6.03E+15,10011 CRAMER ROAD KP N        ,                         ,GIG HARBOR              ,WA,PIERCE,983295797,MARIJUANA RETAILER                 ,PENDING (NOT ISSUED),20160330,2535149245,0,0
LOCALAMSTER                                  ,414243,6.03E+15,1006 CALIFORNIA WAY           ,                         ,LONGVIEW                ,WA,COWLITZ,986321615,MARIJUANA RETAILER                 ,ACTIVE (ISSUED),20170209,2068760140,0,0
SWEET RELIEF CANNABIS EXPRESS                ,422336,6.04E+15,1009 E YAKIMA AVE             ,                         ,YAKIMA                  ,WA,YAKIMA,989012558,MARIJUANA RETAILER                 ,ACTIVE (ISSUED),20170724,3609096327,0,0
GREEN LIGHT COLLECTIVE                       ,412492,6.03E+15,10105 122ND ST E              ,                         ,PUYALLUP                ,WA,PIERCE,983733566,MARIJUANA RETAILER                 ,PENDING (NOT ISSUED),20131119,2532416356,0,0
GREEN PEAKS N.W. LLC                         ,422659,6.04E+15,1011 QUEENSGATE DR            ,                         ,RICHLAND                ,WA,BENTON,99352,MARIJUANA RETAILER                 ,PENDING (NOT ISSUED),20160326,5099990148,0,0
GRINGO CALIENTE                              ,421846,6.03E+15,1011 QUEENSGATE DR            ,                         ,RICHLAND                ,WA,BENTON,993520000,MARIJUANA RETAILER                 ,PENDING (NOT ISSUED),        ,2067907229,0,0
SVG                                          ,414130,6.03E+15,10115 167TH ST CT E           ,PARCEL 7109000010        ,PUYALLUP                ,WA,PIERCE,98375,MARIJUANA RETAILER                 ,PENDING (NOT ISSUED),20131221,2538586202,0,0
FIVE POINTS OF PIERCE COUNTY LLC             ,424498,6.03E+15,102 NOBLE FIR LN              ,                         ,CHEHALIS                ,WA,LEWIS,985328717,MARIJUANA RETAILER                 ,ACTIVE (ISSUED),20170223,2532731260,0,0
"TGR, LLC                                     ",416725,6.04E+15,1027 85TH AVE SE STE B        ,                         ,TUMWATER                ,WA,THURSTON,985015706,MARIJUANA RETAILER                 ,PENDING (NOT ISSUED),20151201,3607019985,0,0
MJ LONG                                      ,414789,6.04E+15,10305 STATE AVE STE 103       ,                         ,MARYSVILLE              ,WA,SNOHOMISH,982717227,MARIJUANA RETAILER                 ,ACTIVE (ISSUED),20170207,3016336086,0,0
GREENLIGHT                                   ,415112,6.03E+15,10309 E TRENT AVE             ,                         ,MILLWOOD                ,WA,SPOKANE,992064514,MARIJUANA RETAILER                 ,ACTIVE (ISSUED),20170103,5093093193,0,0
HERBAN LEGENDS                               ,414456,6.04E+15,10326 AURORA AVE N  STE A     ,                         ,SEATTLE                 ,WA,KING,981339228,MARIJUANA RETAILER                 ,PENDING (NOT ISSUED),20151230,2068907734,0,0
LUX POT SHOP                                 ,414160,6.03E+15,10333 LAKE CITY WAY NE #101   ,                         ,SEATTLE                 ,WA,KING,981257737,MARIJUANA RETAILER                 ,ACTIVE (ISSUED),20170615,2069791960,0,0
MARY JANE'S                                  ,414864,6.03E+15,1037 W MARINA DR              ,                         ,MOSES LAKE              ,WA,GRANT,988370000,MARIJUANA RETAILER                 ,ACTIVE (ISSUED),20170407,5099893639,0,0
CENTRALIA CANNABIS CONNECTION                ,414767,6.01E+15,1039 S GOLD ST                ,                         ,CENTRALIA               ,WA,LEWIS,985313711,MARIJUANA RETAILER                 ,ACTIVE (ISSUED),20161123,3607480807,0,0
THE GRASS STATION                            ,422658,6.04E+15,103B GALBREATH WAY            ,                         ,RITZVILLE               ,WA,ADAMS,991690000,MARIJUANA RETAILER                 ,ACTIVE (ISSUED),20170713,5093623524,0,0
HERBAL E SCENTS                              ,419759,6.02E+15,1040 NORTH HIGHWAY            ,                         ,COLVILLE                ,WA,STEVENS,991142032,MARIJUANA RETAILER                 ,CLOSED (PERMANENT),20170209,5096842316,0,0
GREEN COLLAR CANNABIS                        ,412923,6.03E+15,10422 PACIFIC AVE S STE B     ,                         ,TACOMA                  ,WA,PIERCE,984446052,MARIJUANA RETAILER                 ,ACTIVE (ISSUED),20161116,2533145113,0,0
A GREENER TODAY RECREATIONAL                 ,402107,6.03E+15,10522 LAKE CITY WAY NE STE    ,C103 & C104              ,SEATTLE                 ,WA,KING,981250000,MARIJUANA RETAILER                 ,CLOSED (PERMANENT),20161216,4257736021,0,0
SATIVA SISTERS                               ,413739,6.03E+15,10525 E TRENT AVE STE 1       ,                         ,SPOKANE                 ,WA,SPOKANE,992060000,MARIJUANA RETAILER                 ,ACTIVE (ISSUED),20170324,2086603909,0,0
SEATTLE TREES COLLECTIVE                     ,413519,6.03E+15,10532 GREENWOOD AVE N         ,                         ,SEATTLE                 ,WA,KING,981338721,MARIJUANA RETAILER                 ,ACTIVE (ISSUED),20170418,2533208712,0,0
POT SHOP                                     ,414980,6.03E+15,1058 N 39TH ST                ,                         ,SEATTLE                 ,WA,KING,981037921,MARIJUANA RETAILER                 ,CLOSED (PERMANENT),20160428,2064026012,0,0
CHOICE RETAIL                                ,421114,6.04E+15,106 SE WEIR ST STE 5          ,                         ,CAMAS                   ,WA,CLARK,986072454,MARIJUANA RETAILER                 ,ACTIVE (ISSUED),20170307,2532250200,0,0
GREENSIDE                                    ,414296,6.03E+15,10600 MAIN ST                 ,                         ,BELLEVUE                ,WA,KING,980045922,MARIJUANA RETAILER                 ,ACTIVE (ISSUED),20161109,2069103811,0,0
MARY JEAN'S GREENS                           ,424257,6.03E+15,10611 CANYON RD E             ,                         ,PUYALLUP                ,WA,PIERCE,983734256,MARIJUANA RETAILER                 ,ACTIVE (ISSUED),20170707,2537405648,0,0
GREEN GROTTO                                 ,414093,6.03E+15,10611 CANYON RD E STE 101     ,                         ,PUYALLUP                ,WA,PIERCE,983734552,MARIJUANA RETAILER                 ,CLOSED (PERMANENT),20160420,2067926857,0,0
A PIPE DREAM                                 ,422849,6.04E+15,10611 NE HIGHWAY 99 STE B     ,                         ,VANCOUVER               ,WA,CLARK,986865678,MARIJUANA RETAILER                 ,PENDING (NOT ISSUED),20160402,5033170557,0,0
GREEN THEORY                                 ,414417,6.03E+15,10697 MAIN ST STE B           ,                         ,BELLEVUE                ,WA,KING,980040000,MARIJUANA RETAILER                 ,CLOSED (PERMANENT),20170608,4254661108,0,0
ELARA LLC                                    ,421902,6.04E+15,107 STATE ST                  ,                         ,SEDRO WOOLLEY           ,WA,SKAGIT,982841515,MARIJUANA RETAILER                 ,PENDING (NOT ISSUED),20160127,4252603482,0,0
BELLWETHER ENTERPRISES                       ,414103,6.03E+15,10707 PACIFIC AVE S SUITE D   ,                         ,TACOMA                  ,WA,PIERCE,984446098,MARIJUANA RETAILER                 ,PENDING (ISSUED),20170403,4254443456,0,0
THE WEST SEATTLE MARIJUANA COMPANY           ,414868,6.03E+15,10825 MYERS WAY S             ,                         ,SEATTLE                 ,WA,KING,981681367,MARIJUANA RETAILER                 ,ACTIVE (ISSUED),20161212,2069492124,0,0
MODERN CREATIONS                             ,422951,6.03E+15,10825 MYERS WAY S STE 200     ,                         ,SEATTLE                 ,WA,KING,981681367,MARIJUANA RETAILER                 ,CLOSED (PERMANENT),20170209,2064657550,0,0
NIMBIN FARM                                  ,415658,6.03E+15,10859 1ST AVE S SUITE A       ,                         ,SEATTLE                 ,WA,KING,981681309,MARIJUANA RETAILER                 ,ACTIVE (ISSUED),20170221,2532617600,0,0
S&K GREEN GOODS                              ,414526,6.03E+15,10901 BRIDGEPORT WAY SW STE A ,                         ,LAKEWOOD                ,WA,PIERCE,984993511,MARIJUANA RETAILER                 ,CLOSED (PERMANENT),20160627,2535765196,0,0
MUKILTEO CANNABIS CO                         ,421952,6.04E+15,11012 MUKILTEO SPEEDWAY #A    ,                         ,MUKILTEO                ,WA,SNOHOMISH,982755400,MARIJUANA RETAILER                 ,ACTIVE (ISSUED),20170223,2534595741,0,0
HERBN ELEMENTS                               ,413570,6.03E+15,11013 LAKE CITY WAY NE        ,                         ,SEATTLE                 ,WA,KING,981250000,MARIJUANA RETAILER                 ,ACTIVE (ISSUED),20170406,2065358769,0,0
PMR INDUSTRIES                               ,422290,6.04E+15,11016 BRIDGEPORT WAY SW       ,                         ,LAKEWOOD                ,WA,PIERCE,984993514,MARIJUANA RETAILER                 ,PENDING (NOT ISSUED),        ,2536786934,0,0
STAR BUDS                                    ,421695,6.03E+15,11042 1ST AVENUE S            ,                         ,SEATTLE                 ,WA,KING,981681402,MARIJUANA RETAILER                 ,ACTIVE (ISSUED),20170522,2533025792,0,0
NORTH WEST CANNABIS                          ,414962,6.03E+15,1105 RIVER ROAD               ,                         ,PUYALLUP                ,WA,PIERCE,983710000,MARIJUANA RETAILER                 ,ACTIVE (ISSUED),20161231,2533530740,0,0
GREEN ZAP                                    ,420793,6.04E+15,11064 LAKE CITY WAY NE STE 6-A,                         ,SEATTLE                 ,WA,KING,981256730,MARIJUANA RETAILER                 ,ACTIVE (ISSUED),20170530,2069223911,0,0
THE REEF                                     ,413870,6.03E+15,1107 N CALLOW AVE STE C       ,                         ,BREMERTON               ,WA,KITSAP,983123007,MARIJUANA RETAILER                 ,ACTIVE (ISSUED),20161117,2066866362,0,0
CANNABIZ                                     ,87932,6.03E+15,1109 RIVER RD STE A           ,                         ,PUYALLUP                ,WA,PIERCE,983713848,MARIJUANA RETAILER                 ,ACTIVE (ISSUED),20161021,2532611850,0,0
MJ SALES                                     ,414508,6.01E+15,1109 S 3RD ST                 ,                         ,YAKIMA                  ,WA,YAKIMA,989010000,MARIJUANA RETAILER                 ,PENDING (NOT ISSUED),20131221,5099526087,0,0
HWY 420                                      ,413843,6.03E+15,1110 CHARLESTON BEACH RD W    ,                         ,BREMERTON               ,WA,KITSAP,983124504,MARIJUANA RETAILER                 ,ACTIVE (ISSUED),20170718,3609323182,0,0
KING CRONIC                                  ,57825,6.04E+15,1110 E YELM AVE STE C         ,                         ,YELM                    ,WA,THURSTON,985977690,MARIJUANA RETAILER                 ,PENDING (NOT ISSUED),20170727,3609676056,0,0
LUCKY LEAF                                   ,422442,6.03E+15,1111 W 1ST AVE STE A          ,                         ,SPOKANE                 ,WA,SPOKANE,992014005,MARIJUANA RETAILER                 ,ACTIVE (ISSUED),20161209,5095194248,0,0
KUSHMAN                                      ,415287,6.03E+15,11110 MUKILTEO SPEEDWAY       ,SUITE 102                ,MUKILTEO                ,WA,SNOHOMISH,982755450,MARIJUANA RETAILER                 ,ACTIVE (ISSUED),20170222,4254441575,0,0
THE SMOKIAM                                  ,88262,6.03E+15,112 DAISY ST S                ,                         ,SOAP LAKE               ,WA,GRANT,988519119,MARIJUANA RETAILER                 ,PENDING (NOT ISSUED),20131225,5092899443,0,0
URBAN BUD                                    ,415010,6.03E+15,112 S 24TH ST                 ,                         ,TACOMA                  ,WA,PIERCE,984022904,MARIJUANA RETAILER                 ,ACTIVE (ISSUED),20170421,2533271572,0,0
HYPEHERBALLY                                 ,414051,6.03E+15,1120 112TH ST SW              ,                         ,EVERETT                 ,WA,SNOHOMISH,982044863,MARIJUANA RETAILER                 ,ACTIVE (ISSUED),20170619,4255829385,0,0
MARIJUANA DEPOT                              ,421632,6.03E+15,1123 SLEATER KINNEY RD SE     ,                         ,LACEY                   ,WA,THURSTON,985032300,MARIJUANA RETAILER                 ,ACTIVE (ISSUED),20170510,2063917365,0,0
"8 BALL BARRISTER, LLC                        ",421757,6.03E+15,113 HOWERTON AVE              ,STE B                    ,ILWACO                  ,WA,PACIFIC,986249088,MARIJUANA RETAILER                 ,ACTIVE (ISSUED),20170515,2535721500,0,0
BUD HUT                                      ,413901,6.03E+15,1131 E STATE ROUTE 532        ,                         ,CAMANO ISLAND           ,WA,ISLAND,982828833,MARIJUANA RETAILER                 ,ACTIVE (ISSUED),20170615,4254789928,0,0
BLOOM                                        ,350766,6.03E+15,11311 HWY 99                  ,                         ,EVERETT                 ,WA,SNOHOMISH,982044816,MARIJUANA RETAILER                 ,PENDING (ISSUED),20170620,4254443456,0,0
THC CONNECTION                               ,420894,6.04E+15,11325 HIGHWAY 99              ,                         ,EVERETT                 ,WA,SNOHOMISH,982044816,MARIJUANA RETAILER                 ,ACTIVE (ISSUED),20170725,2083403970,0,0
WORLD OF WEED                                ,414959,6.03E+15,11401 RAINIER AVE S           ,                         ,SEATTLE                 ,WA,KING,981780000,MARIJUANA RETAILER                 ,ACTIVE (ISSUED),20161206,2066124887,0,0
LUCID CANNABIS COMPANY                       ,420497,6.04E+15,11414 N. NEWPORT HWY          ,                         ,SPOKANE                 ,WA,SPOKANE,992181616,MARIJUANA RETAILER                 ,PENDING (ISSUED),20170729,3604519922,0,0
GREEN LIFE NW                                ,414573,6.03E+15,11463 RAINIER AVE S STE A     ,                         ,SEATTLE                 ,WA,KING,981783963,MARIJUANA RETAILER                 ,ACTIVE (ISSUED),20170222,2066870523,0,0
HWY 420                                      ,413427,6.03E+15,11493 CLEAR CREEK RD          ,                         ,SILVERDALE              ,WA,KITSAP,983839657,MARIJUANA RETAILER                 ,ACTIVE (ISSUED),20170227,3604408671,0,0
HAVE A HEART                                 ,423379,6.03E+15,115 BLANCHARD ST              ,                         ,SEATTLE                 ,WA,KING,981212020,MARIJUANA RETAILER                 ,PENDING (ISSUED),20170608,5202508988,0,0
THE SLOW BURN                                ,414470,6.03E+15,1151 MARKET ST                ,                         ,UNION GAP               ,WA,YAKIMA,989030000,MARIJUANA RETAILER                 ,ACTIVE (ISSUED),20170601,5094522787,0,0
NORTHWEST CANNABIS CONNECTION                ,423492,6.03E+15,11522 CANYON RD E             ,                         ,PUYALLUP                ,WA,PIERCE,983734360,MARIJUANA RETAILER                 ,ACTIVE (ISSUED),20170713,2537209769,0,0
CLUTCH CANNABIS                              ,413803,6.03E+15,11537 RAINIER AVE S           ,                         ,SEATTLE                 ,WA,KING,981783984,MARIJUANA RETAILER                 ,ACTIVE (ISSUED),20161118,2063210149,0,0
BUD HUT                                      ,415504,6.03E+15,11603 HWY 99                  ,                         ,EVERETT                 ,WA,SNOHOMISH,982044811,MARIJUANA RETAILER                 ,ACTIVE (ISSUED),20170405,4253531449,0,0
EVERETT CANNABIS                             ,421448,6.04E+15,11627 AIRPORT RD              ,SUITE F                  ,EVERETT                 ,WA,SNOHOMISH,982048714,MARIJUANA RETAILER                 ,ACTIVE (ISSUED),20160705,2068908368,0,0
THE VAULT CANNABIS                           ,420619,6.03E+15,11701 HIGHWAY 99              ,                         ,EVERETT                 ,WA,SNOHOMISH,982044809,MARIJUANA RETAILER                 ,PENDING (NOT ISSUED),20160513,4252488559,0,0
FORBIDDEN CANNABIS CLUB                      ,422785,6.04E+15,1171 WIND RIVER HIGHWAY       ,SUITE A                  ,CARSON                  ,WA,SKAMANIA,98610,MARIJUANA RETAILER                 ,PENDING (NOT ISSUED),20160401,2532241442,0,0
GREENDELIVERY DELIVERY                       ,421190,6.03E+15,11725 NE 172ND ST             ,                         ,BOTHELL                 ,WA,KING,980115427,MARIJUANA RETAILER                 ,PENDING (NOT ISSUED),20151110,4259416533,0,0
SEEDZ FAMILY                                 ,422232,6.03E+15,1180 BURLINGTON BLVD          ,                         ,BURLINGTON              ,WA,SKAGIT,982333333,MARIJUANA RETAILER                 ,PENDING (NOT ISSUED),20160303,4252809482,0,0
STARBUDS                                     ,422390,6.03E+15,11801 US 2                    ,                         ,LEAVENWORTH             ,WA,CHELAN,988260000,MARIJUANA RETAILER                 ,PENDING (NOT ISSUED),20160311,4258793191,0,0
CANNABIS PROVISIONS INC. MUKILTEO            ,421630,6.03E+15,11811 MUKILTEO SPEEDWAY       ,UNIT 111                 ,MUKILTEO                ,WA,SNOHOMISH,982755442,MARIJUANA RETAILER                 ,ACTIVE (ISSUED),20170124,2065795394,0,0
THE GALLERY                                  ,413813,6.03E+15,11821 CANYON RD E             ,                         ,PUYALLUP                ,WA,PIERCE,983734453,MARIJUANA RETAILER                 ,ACTIVE (ISSUED),20170314,3052988577,0,0
KUSH                                         ,420336,6.02E+15,11834 NE 90TH ST              ,                         ,KIRKLAND                ,WA,KING,980335814,MARIJUANA RETAILER                 ,ACTIVE (ISSUED),20170401,4252693242,0,0
NIRVANA CANNABIS COMPANY                     ,422507,6.03E+15,11980 W SUNSET HWY STE A      ,                         ,AIRWAY HEIGHTS          ,WA,SPOKANE,990019403,MARIJUANA RETAILER                 ,ACTIVE (ISSUED),20170626,5098082361,0,0
APEX CANNABIS                                ,420941,6.03E+15,120 E MISSION AVE             ,                         ,SPOKANE                 ,WA,SPOKANE,992021817,MARIJUANA RETAILER                 ,PENDING (NOT ISSUED),20170513,5099983405,0,0
HERBAL E SCENTS                              ,411970,6.02E+15,120 NE CANNING DR             ,                         ,COLVILLE                ,WA,STEVENS,991142004,MARIJUANA RETAILER                 ,ACTIVE (ISSUED),20170608,5096844420,0,0
FWEEDOM CANNABIS                             ,412922,6.03E+15,12001 AURORA AVE N            ,UNIT #1                  ,SEATTLE                 ,WA,KING,981338249,MARIJUANA RETAILER                 ,ACTIVE (ISSUED),20170526,2063515121,0,0
SEATTLE TONICS                               ,414731,6.03E+15,12059 AURORA AVE N            ,                         ,SEATTLE                 ,WA,KING,981338249,MARIJUANA RETAILER                 ,PENDING (ISSUED),20170522,2063636000,0,0
"GREENLIGHT REC, LLC                          ",422994,6.04E+15,1209 HWY 281 SPUR             ,SUITE H                  ,QUINCY                  ,WA,GRANT,98848,MARIJUANA RETAILER                 ,PENDING (NOT ISSUED),20160414,2067308714,0,0
"MOUNT BAKER RETAIL PARTNERS, LLC             ",422361,6.03E+15,1209 HWY 281 SPUR SUITE K     ,                         ,QUINCY                  ,WA,GRANT,988489510,MARIJUANA RETAILER                 ,ACTIVE (ISSUED),20161109,4257530673,0,0
THE HAPPY CROP SHOPPE                        ,420934,6.03E+15,1210 N WENATCHEE AVE STE J    ,                         ,WENATCHEE               ,WA,CHELAN,988016707,MARIJUANA RETAILER                 ,ACTIVE (ISSUED),20170622,5096696835,0,0
SPARKET                                      ,86823,6.03E+15,1215 E FRONT ST               ,                         ,PORT ANGELES            ,WA,CLALLAM,983624309,MARIJUANA RETAILER                 ,ACTIVE (ISSUED),20170103,3604604902,0,0
MARIJUANA CLUB 99                            ,415674,6.04E+15,1215 N LAKE SAMISH DR STE 2   ,                         ,BELLINGHAM              ,WA,WHATCOM,982299310,MARIJUANA RETAILER                 ,PENDING (ISSUED),20170216,2533208712,0,0
BONANZA BUDS                                 ,422930,6.03E+15,1215 N LAKE SAMISH DR UNIT 1  ,                         ,BELLINGHAM              ,WA,WHATCOM,982299310,MARIJUANA RETAILER                 ,ACTIVE (ISSUED),20170410,2532123746,0,0
"BRIGHTON BAY 2, LLC                          ",422706,6.04E+15,12223 MUKILTEO SPEEDWAY       ,                         ,LYNNWOOD                ,WA,SNOHOMISH,980871542,MARIJUANA RETAILER                 ,PENDING (NOT ISSUED),20160329,2063999999,0,0
MARY'S FINEST MARIJUANA                      ,415325,6.03E+15,12230 AURORA AVE N STE B      ,                         ,SEATTLE                 ,WA,KING,981338033,MARIJUANA RETAILER                 ,ACTIVE (ISSUED),20170614,7862465027,0,0
DESTINATION HIGHWAY 420                      ,414503,6.03E+15,1225 HOLLIS ST                ,                         ,BREMERTON               ,WA,KITSAP,983103611,MARIJUANA RETAILER                 ,ACTIVE (ISSUED),20161205,3603406996,0,0
RAINIER CANNABIS                             ,415554,6.03E+15,1234 HWY 506                  ,STE A                    ,VADER                   ,WA,LEWIS,985930000,MARIJUANA RETAILER                 ,CLOSED (PERMANENT),20160520,4253742227,0,0
PEND OREILLE CANNABIS CO                     ,76189,6.04E+15,124 RIVERSIDE AVE             ,                         ,IONE                    ,WA,PEND OREILLE,991390000,MARIJUANA RETAILER                 ,ACTIVE (ISSUED),20170427,5094423420,0,0
CASCADE HERB COMPANY                         ,415094,6.03E+15,1240 E MAPLE ST STE 103       ,                         ,BELLINGHAM              ,WA,WHATCOM,982250000,MARIJUANA RETAILER                 ,PENDING (ISSUED),20170608,3607782357,0,0
NW CHRONICLES                                ,415634,6.03E+15,12402 134TH AVE KPN           ,STE A                    ,GIG HARBOR              ,WA,PIERCE,983295544,MARIJUANA RETAILER                 ,ACTIVE (ISSUED),20170322,2535740955,0,0
HIGHER LEAF MARIJUANA BOUTIQUE               ,422218,6.03E+15,12525 WILLOWS RD NE STE 10    ,                         ,KIRKLAND                ,WA,KING,980348735,MARIJUANA RETAILER                 ,ACTIVE (ISSUED),20170518,4258205967,0,0
HIGHER LEAF MARIJUANA BOUTIQUE               ,414240,6.03E+15,12525 WILLOWS RD NE STE 60    ,                         ,KIRKLAND                ,WA,KING,980347205,MARIJUANA RETAILER                 ,CLOSED (PERMANENT),20160301,4258205967,0,0
"MOUNT BAKER RETAIL PARTNERSHIP,LLC           ",422981,6.03E+15,12539 E MARGINAL WAY S STE C  ,                         ,TUKWILA                 ,WA,KING,981682560,MARIJUANA RETAILER                 ,ACTIVE (ISSUED),20170711,4257530673,0,0
THE EVERGREEN MARKET OF BELLEVUE             ,57813,6.04E+15,1260 116TH AVE NE STE D       ,                         ,BELLEVUE                ,WA,KING,980049744,MARIJUANA RETAILER                 ,PENDING (NOT ISSUED),20170726,2068527155,0,0
MARIJUANA CLUB 99                            ,421982,6.04E+15,12631 HIGHWAY 99 STE B        ,                         ,EVERETT                 ,WA,SNOHOMISH,982048545,MARIJUANA RETAILER                 ,PENDING (ISSUED),20170120,2533208712,0,0
GREEN SEATTLE                                ,420897,6.03E+15,12656 MARTIN LUTHER KING JR WA,Y STE #B                 ,SEATTLE                 ,WA,KING,98178,MARIJUANA RETAILER                 ,PENDING (NOT ISSUED),20151027,2063341681,0,0
NATURAL BLESSING                             ,417471,6.03E+15,12811 CANYON ROAD EAST  STE 3 ,SUITE 3                  ,PUYALLUP                ,WA,PIERCE,983730000,MARIJUANA RETAILER                 ,CLOSED (PERMANENT),20160713,2066817241,0,0
J & K CANNABIS                               ,355804,6.03E+15,12825 PACIFIC HWY SW          ,                         ,LAKEWOOD                ,WA,PIERCE,984991030,MARIJUANA RETAILER                 ,ACTIVE (ISSUED),20170103,2534684440,0,0
GREEN THEORY                                 ,421777,6.03E+15,12827 SE 40TH PL              ,                         ,BELLEVUE                ,WA,KING,980061232,MARIJUANA RETAILER                 ,ACTIVE (ISSUED),20170228,4254552319,0,0
HAVE A HEART                                 ,415333,6.03E+15,12833 MARTIN LUTHER KING JR   ,WAY S                    ,SEATTLE                 ,WA,KING,981783513,MARIJUANA RETAILER                 ,ACTIVE (ISSUED),20170307,2062618206,0,0
EVERGREEN ALTERNATIVE                        ,422924,6.04E+15,1290 RUSH RD                  ,UNIT B                   ,NAPAVINE                ,WA,LEWIS,985328822,MARIJUANA RETAILER                 ,CLOSED (PERMANENT),20170713,3602501024,0,0
III KING COMPANY                             ,414750,6.03E+15,12925 MARTIN LUTHER KING WAY  ,                         ,SEATTLE                 ,WA,KING,981780000,MARIJUANA RETAILER                 ,ACTIVE (ISSUED),20161025,2533480781,0,0
FORBIDDEN FLOWER                             ,422303,6.04E+15,13003 TUKWILA INTERNATIONAL BL,UNIT A                   ,TUKWILA                 ,WA,KING,981680000,MARIJUANA RETAILER                 ,ACTIVE (ISSUED),20170404,2062350635,0,0
THE GALLERY                                  ,413258,6.03E+15,13005 PACIFIC AVE SOUTH       ,                         ,TACOMA                  ,WA,PIERCE,984440000,MARIJUANA RETAILER                 ,ACTIVE (ISSUED),20160903,3052988577,0,0
HAPPY TIME                                   ,414777,6.02E+15,1301 N 2ND ST                 ,                         ,YAKIMA                  ,WA,YAKIMA,989011801,MARIJUANA RETAILER                 ,CLOSED (PERMANENT),20161108,5094802097,0,0
V.S.W.                                       ,362444,6.04E+15,13014 WA-99                   ,                         ,EVERETT                 ,WA,SNOHOMISH,982040000,MARIJUANA RETAILER                 ,ACTIVE (ISSUED),20170105,2062715468,0,0
THE TOP SHELF                                ,414716,6.03E+15,1305 S HAYFORD RD             ,SUITE A                  ,AIRWAY HEIGHTS          ,WA,SPOKANE,992245276,MARIJUANA RETAILER                 ,ACTIVE (ISSUED),20170124,5099444350,0,0
KARMA CANNABIS                               ,421168,6.04E+15,131 RIVER RD   STE A          ,                         ,SEQUIM                  ,WA,CLALLAM,983829804,MARIJUANA RETAILER                 ,ACTIVE (ISSUED),20170410,3604606641,0,0
KIND GREEN BOTANICALS COLLECTIVE             ,420694,6.03E+15,1311 11TH ST                  ,                         ,BELLINGHAM              ,WA,WHATCOM,982257016,MARIJUANA RETAILER                 ,PENDING (NOT ISSUED),20160326,3606715991,0,0
HAPPY TIME                                   ,354876,6.02E+15,1315 N 1ST ST                 ,                         ,YAKIMA                  ,WA,YAKIMA,989011801,MARIJUANA RETAILER                 ,ACTIVE (ISSUED),20170424,5094802097,0,0
TOP CAT ENTERPRISES                          ,414513,6.03E+15,13217 41ST AVE NE BLDG B      ,BLDG B                   ,MARYSVILLE              ,WA,SNOHOMISH,982717808,MARIJUANA RETAILER                 ,ACTIVE (ISSUED),20161118,2534489170,0,0
KUSHMART SOUTH EVERETT                       ,416102,6.04E+15,13220 HWY 99 S                ,                         ,EVERETT                 ,WA,SNOHOMISH,982045424,MARIJUANA RETAILER                 ,ACTIVE (ISSUED),20161223,2069724990,0,0
LOCAL ROOTS MARIJUANA                        ,415406,6.03E+15,13224 HWY 99                  ,STE A                    ,EVERETT                 ,WA,SNOHOMISH,982045424,MARIJUANA RETAILER                 ,ACTIVE (ISSUED),20161103,4253617878,0,0
THE ROACH 420                                ,414216,6.03E+15,133 STATE AVE                 ,                         ,BREWSTER                ,WA,DOUGLAS,988129643,MARIJUANA RETAILER                 ,ACTIVE (ISSUED),20161031,5098607111,0,0
SATORI                                       ,417114,6.03E+15,1330 SE BISHOP BLVD           ,                         ,PULLMAN                 ,WA,WHITMAN,991630000,MARIJUANA RETAILER                 ,ACTIVE (ISSUED),20170406,5099947051,0,0
SUPERNOVA HEMP                               ,415086,6.03E+15,13333 BEL RED RD              ,                         ,BELLEVUE                ,WA,KING,980052332,MARIJUANA RETAILER                 ,PENDING (NOT ISSUED),20140103,9174436112,0,0
MJ'S POT SHOP                                ,415314,6.03E+15,1335 SE BISHOP BLVD           ,                         ,PULLMAN                 ,WA,WHITMAN,991636408,MARIJUANA RETAILER                 ,ACTIVE (ISSUED),20170104,5093321011,0,0
WE'RE JUST BUDS                              ,414995,6.03E+15,1340 SE BISHOP BLVD STE A     ,                         ,PULLMAN                 ,WA,WHITMAN,991636409,MARIJUANA RETAILER                 ,ACTIVE (ISSUED),20170531,5093320160,0,0
JD'S PROCUREMENT                             ,422725,6.04E+15,1350 ATLANTIC AVE             ,                         ,WOODLAND                ,WA,COWLITZ,986748457,MARIJUANA RETAILER                 ,PENDING (NOT ISSUED),20160330,2067142819,0,0
TRU GREENTHUMB                               ,421929,6.04E+15,1350 ATLANTIC AVE             ,                         ,WOODLAND                ,WA,COWLITZ,986748457,MARIJUANA RETAILER                 ,ACTIVE (ISSUED),20161117,3607314157,0,0
MARY JANE                                    ,415652,6.03E+15,13513 NE 126TH PL SUITE C     ,                         ,KIRKLAND                ,WA,KING,980340000,MARIJUANA RETAILER                 ,ACTIVE (ISSUED),20170320,4252996565,0,0
GREEN CITY COLLECTIVE                        ,413737,6.03E+15,13601 HIGHWAY 99 STE B        ,                         ,EVERETT                 ,WA,SNOHOMISH,982045496,MARIJUANA RETAILER                 ,ACTIVE (ISSUED),20161008,4258693670,0,0
POT ZONE                                     ,415228,6.03E+15,13724 CANYON RD E             ,                         ,PUYALLUP                ,WA,PIERCE,983730000,MARIJUANA RETAILER                 ,ACTIVE (ISSUED),20161123,2533127280,0,0
420 SPOT SHOP                                ,414550,6.03E+15,1374 SE LUND AVE              ,                         ,PORT ORCHARD            ,WA,KITSAP,983665628,MARIJUANA RETAILER                 ,ACTIVE (ISSUED),20170512,3608765699,0,0
BUDS-USA                                     ,422120,6.03E+15,13813 HWY S 99                ,                         ,LYNNWOOD                ,WA,SNOHOMISH,980871723,MARIJUANA RETAILER                 ,CLOSED (PERMANENT),20170711,3602592539,0,0
LUSCIOUS LEAF                                ,413245,6.04E+15,1392 W PINE ST  STE B         ,                         ,WALLA WALLA             ,WA,WALLA WALLA,993629496,MARIJUANA RETAILER                 ,ACTIVE (ISSUED),20170526,5096432777,0,0
JASON J O BERGE                              ,422979,6.02E+15,13985 INTERURBAN AVE S        ,                         ,TUKWILA                 ,WA,KING,981685707,MARIJUANA RETAILER                 ,PENDING (NOT ISSUED),20160402,4252693242,0,0
WESTERN BUD                                  ,421707,6.04E+15,1401 IOWA ST                  ,                         ,BELLINGHAM              ,WA,WHATCOM,982294763,MARIJUANA RETAILER                 ,ACTIVE (ISSUED),20170601,3609331428,0,0
DANK'S WONDER EMPORIUM                       ,412485,6.03E+15,1402 WEST REYNOLDS AVE        ,                         ,CENTRALIA               ,WA,LEWIS,985313338,MARIJUANA RETAILER                 ,ACTIVE (ISSUED),20170418,3234543767,0,0
THE EVERGREEN MARKET - REDMOND               ,422663,6.04E+15,1403 130TH AVE NE STE B       ,                         ,BELLEVUE                ,WA,KING,980050000,MARIJUANA RETAILER                 ,ACTIVE (ISSUED),20170530,4256812093,0,0
SPARKET                                      ,414223,6.03E+15,1403 E 1ST ST                 ,                         ,PORT ANGELES            ,WA,CLALLAM,983624607,MARIJUANA RETAILER                 ,CLOSED (PERMANENT),20161121,9286997657,0,0
GREEN STAR CANNABIS                          ,410798,6.03E+15,1403 N DIVISION ST STE A      ,                         ,SPOKANE                 ,WA,SPOKANE,992021810,MARIJUANA RETAILER                 ,ACTIVE (ISSUED),20161110,5099193398,0,0
MARIJUANA MART                               ,413370,6.03E+15,1405 YELM AVE E               ,                         ,YELM                    ,WA,THURSTON,985979480,MARIJUANA RETAILER                 ,CLOSED (PERMANENT),20150520,3604801912,0,0
MR. DOOBEES                                  ,424190,6.03E+15,1410 40TH ST                  ,                         ,SEAVIEW                 ,WA,PACIFIC,986442037,MARIJUANA RETAILER                 ,ACTIVE (ISSUED),20170609,3608758016,0,0
ORIGINS CANNABIS                             ,421417,6.04E+15,1416 SW ROXBURY ST STE B      ,                         ,SEATTLE                 ,WA,KING,981062851,MARIJUANA RETAILER                 ,CLOSED (PERMANENT),20161006,2065511309,0,0
CINDER                                       ,414817,6.03E+15,1421 N MULLAN RD STE B        ,                         ,SPOKANE VALLEY          ,WA,SPOKANE,992064051,MARIJUANA RETAILER                 ,ACTIVE (ISSUED),20161006,5092413726,0,0
GREEN LADY EVERETT                           ,421667,6.04E+15,14221 LAKE ROAD               ,                         ,LYNNWOOD                ,WA,SNOHOMISH,980871710,MARIJUANA RETAILER                 ,ACTIVE (ISSUED),20170111,5098697574,0,0
"TJ'S CANNABIS BUDS, OILS, AND MORE           ",415183,6.04E+15,1428 OLYMPIC HWY S   STE A    ,STE A                    ,SHELTON                 ,WA,MASON,985840000,MARIJUANA RETAILER                 ,ACTIVE (ISSUED),20170612,3604272990,0,0
"THE SPOT ON EVERGREEN III, INC               ",422806,6.04E+15,14303 55TH AVE NE             ,                         ,MARYSVILLE              ,WA,SNOHOMISH,982716615,MARIJUANA RETAILER                 ,PENDING (NOT ISSUED),20160402,4258924563,0,0
THE JOINT                                    ,420389,6.03E+15,14325 1ST AVE S   STE B       ,STE B.                   ,BURIEN                  ,WA,KING,981683418,MARIJUANA RETAILER                 ,PENDING (ISSUED),20170713,2062255555,0,0
GRASS                                        ,414785,6.03E+15,14343 15TH AVE NE             ,                         ,SEATTLE                 ,WA,KING,981253162,MARIJUANA RETAILER                 ,ACTIVE (ISSUED),20160114,2066438576,0,0
SKY HIGH POT SHOP                            ,422710,6.04E+15,1438 W HWY 101                ,                         ,PORT ANGELES            ,WA,CLALLAM,983630000,MARIJUANA RETAILER                 ,ACTIVE (ISSUED),20170330,2534051918,0,0
TREEHOUSE CLUB                               ,413369,6.03E+15,14421 E TRENT AVE             ,                         ,SPOKANE VALLEY          ,WA,SPOKANE,992161392,MARIJUANA RETAILER                 ,ACTIVE (ISSUED),20170622,5094132169,0,0
CANNARAIL STATION                            ,413366,6.00E+15,1448 BASIN ST NW SUITE A      ,                         ,EPHRATA                 ,WA,GRANT,988239695,MARIJUANA RETAILER                 ,ACTIVE (ISSUED),20170314,5097541047,0,0
"FIRST AND THIRD, INC.                        ",422693,6.03E+15,1458 LAKE SAMISH RD STE B     ,                         ,BELLINGHAM              ,WA,WHATCOM,982297010,MARIJUANA RETAILER                 ,PENDING (NOT ISSUED),20160322,4255725905,0,0
PUGET SOUND MARIJUANA                        ,422109,6.04E+15,14608 HWY 99 SUITE #304       ,                         ,LYNNWOOD                ,WA,SNOHOMISH,980875500,MARIJUANA RETAILER                 ,ACTIVE (ISSUED),20161108,2067553751,0,0
SWEET RELEAF                                 ,413385,6.04E+15,14637 STATE ROUTE 20          ,                         ,MOUNT VERNON            ,WA,SKAGIT,982737276,MARIJUANA RETAILER                 ,ACTIVE (ISSUED),20170112,2069621025,0,0
RUCKUS                                       ,413692,6.03E+15,1465 E REPUBLICAN ST          ,                         ,SEATTLE                 ,WA,KING,981124512,MARIJUANA RETAILER                 ,ACTIVE (ISSUED),20170726,2063630930,0,0
DOCKSIDE CANNABIS                            ,414569,6.03E+15,15001 AURORA AVE N            ,STE 15029                ,SHORELINE               ,WA,KING,981336134,MARIJUANA RETAILER                 ,ACTIVE (ISSUED),20161212,2066186094,0,0
THE M STORE                                  ,415303,6.04E+15,1503 A E NOB HILL BLVD        ,                         ,YAKIMA                  ,WA,YAKIMA,989010000,MARIJUANA RETAILER                 ,ACTIVE (ISSUED),20170221,4252603482,0,0
THE JOINT                                    ,414065,6.03E+15,1510 N WENATCHEE AVE          ,                         ,WENATCHEE               ,WA,CHELAN,988011157,MARIJUANA RETAILER                 ,ACTIVE (ISSUED),20161227,4254710283,0,0
LUCKY DOOBIE LLC                             ,421331,6.04E+15,1513 BASIN ST SW STE A        ,                         ,EPHRATA                 ,WA,GRANT,988232165,MARIJUANA RETAILER                 ,PENDING (NOT ISSUED),20160405,2535140955,0,0
CANNABIS CENTRAL                             ,422944,6.03E+15,1514 W UNIVERSITY WAY         ,                         ,ELLENSBURG              ,WA,KITTITAS,989262337,MARIJUANA RETAILER                 ,ACTIVE (ISSUED),20170310,5092011144,0,0
4:20 FRIENDLY                                ,413586,6.03E+15,1515 LEWIS ST                 ,                         ,SPOKANE                 ,WA,SPOKANE,992249785,MARIJUANA RETAILER                 ,ACTIVE (ISSUED),20161020,5094990999,0,0
TOKER FRIENDLY                               ,417486,6.03E+15,1515 S LYONS RD  STE B        ,STE B                    ,AIRWAY HEIGHTS          ,WA,SPOKANE,990010000,MARIJUANA RETAILER                 ,ACTIVE (ISSUED),20160725,5092448728,0,0
CANNABIS CENTRAL                             ,415662,6.03E+15,1516 WEST UNIVERSITY WAY      ,                         ,ELLENSBURG              ,WA,KITTITAS,989260000,MARIJUANA RETAILER                 ,CLOSED (PERMANENT),20160408,5098335556,0,0
W.V.S. LLC                                   ,422399,6.04E+15,1520 112TH ST SW SUITE B      ,                         ,EVERETT                 ,WA,SNOHOMISH,982043757,MARIJUANA RETAILER                 ,ACTIVE (ISSUED),20161202,2062715468,0,0
MBER CORP                                    ,422974,6.03E+15,1520 STURGUS AVE S APT A      ,                         ,SEATTLE                 ,WA,KING,981443520,MARIJUANA RETAILER                 ,PENDING (NOT ISSUED),20160406,2063559355,0,0
MBER CORP                                    ,422975,6.03E+15,1520 STURGUS AVE S APT A STE B,                         ,SEATTLE                 ,WA,KING,981443520,MARIJUANA RETAILER                 ,PENDING (NOT ISSUED),20160406,2063559355,0,0
A GREEN LIFE                                 ,413361,6.03E+15,15219 NE 90TH ST UNIT B       ,                         ,REDMOND                 ,WA,KING,980523561,MARIJUANA RETAILER                 ,ACTIVE (ISSUED),20170313,2068537391,0,0
"BRIGHTON BAY 2, LLC                          ",422707,6.04E+15,1530 E FRANCIS AVE STE B      ,                         ,SPOKANE                 ,WA,SPOKANE,992082738,MARIJUANA RETAILER                 ,PENDING (NOT ISSUED),20160329,2063999999,0,0
HAPPY DAZE                                   ,422690,6.04E+15,15340 NE 92ND ST STE C        ,                         ,REDMOND                 ,WA,KING,980523521,MARIJUANA RETAILER                 ,PENDING (NOT ISSUED),20160326,2067475796,0,0
GYPSY GREEN                                  ,421900,6.03E+15,1570 N NATIONAL AVE SUITE 105 ,                         ,CHEHALIS                ,WA,LEWIS,985322215,MARIJUANA RETAILER                 ,ACTIVE (ISSUED),20170309,5055507710,0,0
KUSHMAN                                      ,421552,6.03E+15,15804 HIGHWAY 99 UNIT A       ,                         ,LYNNWOOD                ,WA,SNOHOMISH,980871426,MARIJUANA RETAILER                 ,ACTIVE (ISSUED),20161209,4254441575,0,0
PUFF N CHILL LLC                             ,415238,6.04E+15,15919 HWY 99                  ,                         ,LYNNWOOD                ,WA,SNOHOMISH,980871427,MARIJUANA RETAILER                 ,ACTIVE (ISSUED),20170711,4252437082,0,0
WHITE RABBIT RETAIL                          ,414398,6.03E+15,15928 HWY 99                  ,                         ,LYNNWOOD                ,WA,SNOHOMISH,980870000,MARIJUANA RETAILER                 ,ACTIVE (ISSUED),20161031,4257454242,0,0
ALWAYS GREENER DOWNTOWN                      ,415486,6.04E+15,15937 REDMOND WAY STE B       ,                         ,REDMOND                 ,WA,KING,980523836,MARIJUANA RETAILER                 ,ACTIVE (ISSUED),20170511,4258615497,0,0
A GREENER TODAY MARIJUANA                    ,414814,6.03E+15,16053 AURORA AVE N STE B      ,STE B                    ,SHORELINE               ,WA,KING,981332610,MARIJUANA RETAILER                 ,ACTIVE (ISSUED),20170410,4257736021,0,0
YAKIMA WEED CO                               ,353928,6.03E+15,1606 FRUITVALE BLVD           ,                         ,YAKIMA                  ,WA,YAKIMA,989021237,MARIJUANA RETAILER                 ,ACTIVE (ISSUED),20170623,4257520673,0,0
IT IS LIT                                    ,423203,6.04E+15,1611 S SMITTYS BLVD  STE B    ,STE B                    ,RITZVILLE               ,WA,ADAMS,991692264,MARIJUANA RETAILER                 ,ACTIVE (ISSUED),20170123,5096600497,0,0
2020 SOLUTIONS                       ,422239,6.04E+15,1615 BASIN ST SW              ,                         ,EPHRATA                 ,WA,GRANT,988232134,MARIJUANA RETAILER                 ,ACTIVE (ISSUED),20170418,3609154944,0,0
"ALL IS WELL 420, LLC                         ",422913,6.04E+15,1615 BASIN ST SW STE B        ,                         ,EPHRATA                 ,WA,GRANT,988232134,MARIJUANA RETAILER                 ,PENDING (NOT ISSUED),20160405,2532225697,0,0
MARLEY 420                                   ,420889,6.03E+15,16204 SE 272ND ST             ,STE 1                    ,COVINGTON               ,WA,KING,980428213,MARIJUANA RETAILER                 ,ACTIVE (ISSUED),20170117,2067147733,0,0
MAIN STREET MARIJUANA EAST                   ,421805,6.04E+15,16219 SE 12TH ST  STE 104     ,                         ,VANCOUVER               ,WA,CLARK,986838905,MARIJUANA RETAILER                 ,ACTIVE (ISSUED),20170627,0,0,0
HIGH SOCIETY                                 ,421737,6.03E+15,1625 CENTER ST STE A          ,                         ,TACOMA                  ,WA,PIERCE,984097920,MARIJUANA RETAILER                 ,CLOSED (PERMANENT),20161028,3606610168,0,0
POT SHOP                                     ,79013,6.03E+15,1628 DEXTER AVE N             ,STE A                    ,SEATTLE                 ,WA,KING,981093019,MARIJUANA RETAILER                 ,ACTIVE (ISSUED),20160721,6145615684,0,0
420 REMEDIES                                 ,423252,6.03E+15,1628 STATE ROUTE 105 STE A-1  ,                         ,GRAYLAND                ,WA,GRAYS HARBOR,985479504,MARIJUANA RETAILER                 ,PENDING (NOT ISSUED),20160402,3607912094,0,0
GREENHAND                                    ,422103,6.03E+15,1640 NE GOLDIE ST    STE B    ,STE B                    ,OAK HARBOR              ,WA,ISLAND,982774835,MARIJUANA RETAILER                 ,ACTIVE (ISSUED),20170707,2067997643,0,0
THE GREEN GALLERY                            ,421481,6.04E+15,16409 SE RENTON ISSAQUAH RD   ,STE B                    ,RENTON                  ,WA,KING,980598312,MARIJUANA RETAILER                 ,PENDING (NOT ISSUED),20151209,2063047448,0,0
GOLD BAR MARIJUANA                           ,422168,6.04E+15,16810 415TH AVE SE UNIT A2    ,                         ,GOLD BAR                ,WA,SNOHOMISH,982510000,MARIJUANA RETAILER                 ,ACTIVE (ISSUED),20161108,2067553751,0,0
SWEET GREEN'S NW OF CHEHLAIS                 ,422300,6.04E+15,1685 N NATIONAL AVE STE B     ,                         ,CHEHALIS                ,WA,LEWIS,985322212,MARIJUANA RETAILER                 ,PENDING (NOT ISSUED),20160305,8182332099,0,0
COVINGTON HOLISTIC MEDICINE                  ,421555,6.03E+15,16908 SE 269TH PLACE          ,#102 BUILDING J          ,COVINGTON               ,WA,KING,980425468,MARIJUANA RETAILER                 ,CLOSED (PERMANENT),20160728,2067147733,0,0
SKAGIT 419                                   ,421063,6.04E+15,16915 STATE ROUTE 20          ,                         ,MOUNT VERNON            ,WA,SKAGIT,982736922,MARIJUANA RETAILER                 ,PENDING (NOT ISSUED),        ,3608409814,0,0
SMOKANE                                      ,414101,6.03E+15,17 N RALPH ST STE 102         ,                         ,SPOKANE                 ,WA,SPOKANE,992024826,MARIJUANA RETAILER                 ,ACTIVE (ISSUED),20170104,2069100199,0,0
THE FORBIDDEN FLOWER                         ,413903,6.03E+15,1701 NW MARKET ST             ,                         ,SEATTLE                 ,WA,KING,981075225,MARIJUANA RETAILER                 ,PENDING (NOT ISSUED),20131220,2062350635,0,0
NATURAL BLESSINGS LLC                        ,423390,6.03E+15,17024 PACIFIC AVE S           ,STE B                    ,SPANAWAY                ,WA,PIERCE,983874940,MARIJUANA RETAILER                 ,ACTIVE (ISSUED),20170606,2066817241,0,0
POT ZONE                                     ,415229,6.03E+15,1703 SE SEDGWICK RD           ,STE 113                  ,PORT ORCHARD            ,WA,KITSAP,983669599,MARIJUANA RETAILER                 ,ACTIVE (ISSUED),20161123,2533127280,0,0
THE FIRE HOUSE                               ,400772,6.04E+15,1714 CANYON RD                ,                         ,ELLENSBURG              ,WA,KITTITAS,989269739,MARIJUANA RETAILER                 ,ACTIVE (ISSUED),20170314,3607910112,0,0
BUD HUT                                      ,421568,6.04E+15,1717 NE ANDRESEN RD           ,                         ,VANCOUVER               ,WA,CLARK,986616890,MARIJUANA RETAILER                 ,ACTIVE (ISSUED),20170207,4257896996,0,0
DOCKSIDE CANNABIS                            ,414174,6.03E+15,1728 4TH AVE S                ,                         ,SEATTLE                 ,WA,KING,981340000,MARIJUANA RETAILER                 ,ACTIVE (ISSUED),20161212,2062236292,0,0
ONE LOVE COLLECTIVE                          ,421910,6.03E+15,17376 W MAIN ST               ,STE C                    ,MONROE                  ,WA,SNOHOMISH,982721938,MARIJUANA RETAILER                 ,ACTIVE (ISSUED),20170522,2062278088,0,0
ORIGINS CANNABIS                             ,421432,6.04E+15,17376 W MAIN ST               ,STE B                    ,MONROE                  ,WA,SNOHOMISH,982721938,MARIJUANA RETAILER                 ,ACTIVE (ISSUED),20170327,2065511309,0,0
KITSAP CANNABIS                              ,422468,6.04E+15,1739 VILLAGE LN SE            ,                         ,PORT ORCHARD            ,WA,KITSAP,983662643,MARIJUANA RETAILER                 ,CLOSED (PERMANENT),20161129,3608658092,0,0
HASH WAY RECREATIONAL                        ,422057,6.04E+15,17410 ASH WAY SUITE 4         ,                         ,LYNNWOOD                ,WA,SNOHOMISH,980377907,MARIJUANA RETAILER                 ,ACTIVE (ISSUED),20170217,5097270110,0,0
365 RECREATIONAL CANNABIS                    ,423784,6.03E+15,17517 15TH AVE NE #B          ,                         ,SHORELINE               ,WA,KING,981553801,MARIJUANA RETAILER                 ,ACTIVE (ISSUED),20170713,4259194183,0,0
365 RECREATIONAL CANNABIS                    ,413310,6.03E+15,17517 15TH AVE NE STE 202     ,                         ,SHORELINE               ,WA,KING,981553801,MARIJUANA RETAILER                 ,CLOSED (PERMANENT),20160926,2065577778,0,0
KUSHKLUB                                     ,421876,6.04E+15,17547 15TH AVE NE             ,                         ,SHORELINE               ,WA,KING,981553801,MARIJUANA RETAILER                 ,PENDING (NOT ISSUED),20170126,2066968327,0,0
KITSAP CANNABIS 2                            ,421359,6.04E+15,1762 VILLAGE LN SE            ,                         ,PORT ORCHARD            ,WA,KITSAP,983662644,MARIJUANA RETAILER                 ,ACTIVE (ISSUED),20161223,3608658092,0,0
"J.G.S., LLC.                                 ",422747,6.04E+15,17631 160TH ST SE STE B       ,                         ,MONROE                  ,WA,SNOHOMISH,982721903,MARIJUANA RETAILER                 ,PENDING (NOT ISSUED),20160331,4256337515,0,0
LIVING WELL ENTERPRISES                      ,420741,6.03E+15,17730 AMBAUM BLVD S UNIT E    ,                         ,BURIEN                  ,WA,KING,981481785,MARIJUANA RETAILER                 ,ACTIVE (ISSUED),20170508,2062612916,0,0
FWEEDOM CANNABIS                             ,415032,6.03E+15,17869 STATE ROUTE 536         ,                         ,MOUNT VERNON            ,WA,SKAGIT,982733270,MARIJUANA RETAILER                 ,ACTIVE (ISSUED),20170317,2063515121,0,0
CANNAZONE                                    ,424599,6.03E+15,17905 STATE ROUTE 536         ,                         ,MOUNT VERNON            ,WA,SKAGIT,982733269,MARIJUANA RETAILER                 ,ACTIVE (ISSUED),20170316,8602092288,0,0
MOUNT VERNON CANNABIS                        ,422796,6.04E+15,17929 STATE ROUTE 536         ,STE B                    ,MOUNT VERNON            ,WA,SKAGIT,982733216,MARIJUANA RETAILER                 ,ACTIVE (ISSUED),20161231,2068908368,0,0
CANNAZONE                                    ,78001,6.03E+15,17940 STATE ROUTE 536         ,                         ,MOUNT VERNON            ,WA,SKAGIT,982733269,MARIJUANA RETAILER                 ,CLOSED (PERMANENT),20170316,8602092288,0,0
THE KUSHERY                                  ,415517,6.03E+15,18026 STATE ROUTE 9 SE STE 2  ,                         ,SNOHOMISH               ,WA,SNOHOMISH,982965330,MARIJUANA RETAILER                 ,ACTIVE (ISSUED),20161129,3608633256,0,0
THE NOVEL TREE                               ,414983,6.03E+15,1817 130TH AVE NE SUITE B & C ,                         ,BELLEVUE                ,WA,KING,980052225,MARIJUANA RETAILER                 ,ACTIVE (ISSUED),20170424,3609301700,0,0
CM&N ENTERPRISES                             ,422527,6.04E+15,1821 SE 192ND AVE             ,                         ,VANCOUVER               ,WA,CLARK,986070000,MARIJUANA RETAILER                 ,ACTIVE (ISSUED),20170422,5416109508,0,0
HIGH SOCIETY                                 ,414430,6.03E+15,1824 BROADWAY                 ,                         ,EVERETT                 ,WA,SNOHOMISH,982012349,MARIJUANA RETAILER                 ,ACTIVE (ISSUED),20161118,2063071651,0,0
THE JOINT                                    ,413677,6.04E+15,1840 JAMES ST                 ,                         ,BELLINGHAM              ,WA,WHATCOM,982254623,MARIJUANA RETAILER                 ,ACTIVE (ISSUED),20170208,3602200439,0,0
GIVING TREE                                  ,414381,6.01E+15,18420 68TH AVE S #102         ,                         ,KENT                    ,WA,KING,980320000,MARIJUANA RETAILER                 ,ACTIVE (ISSUED),20170106,2067725773,0,0
GREEN SOLUTION PLACE                         ,422504,6.03E+15,1845 1ST ST                   ,                         ,CHENEY                  ,WA,SPOKANE,990041966,MARIJUANA RETAILER                 ,ACTIVE (ISSUED),20161117,2539732476,0,0
GREEN STATION 1                              ,414506,6.02E+15,18451 DES MOINES MEMORIAL STEB,                         ,SEATAC                  ,WA,KING,981481965,MARIJUANA RETAILER                 ,PENDING (NOT ISSUED),20131224,2062413760,0,0
WHIDBEY ISLAND CANNABIS CO.                  ,423993,6.03E+15,1860 SCOTT RD                 ,                         ,FREELAND                ,WA,ISLAND,982499430,MARIJUANA RETAILER                 ,CLOSED (PERMANENT),20161220,3603216151,0,0
PUGET SOUND CANNABIS COMPANY                 ,422526,6.04E+15,"18601 HIGHWAY 99, SUITE 200   ",                         ,LYNNWOOD                ,WA,SNOHOMISH,980374576,MARIJUANA RETAILER                 ,ACTIVE (ISSUED),20161108,2066607221,0,0
FREELAND CANNABIS COMPANY                    ,422777,6.04E+15,18646 SR 525                  ,STE B                    ,FREELAND                ,WA,ISLAND,982498752,MARIJUANA RETAILER                 ,ACTIVE (ISSUED),20170328,4255126880,0,0
PRC                                          ,414574,6.03E+15,18729 FIR ISLAND RD STE C     ,                         ,MOUNT VERNON            ,WA,SKAGIT,982738159,MARIJUANA RETAILER                 ,ACTIVE (ISSUED),20170616,3604456221,0,0
"HEAVY HAULERS DIGGIN' IT, INC.               ",422629,6.02E+15,18824 SMOKEY POINT BLVD STE B ,                         ,ARLINGTON               ,WA,SNOHOMISH,982234261,MARIJUANA RETAILER                 ,PENDING (NOT ISSUED),20160325,2532369284,0,0
GREEN PLACE                                  ,415512,6.03E+15,18826 MARINE DRIVE            ,                         ,STANWOOD                ,WA,SNOHOMISH,982920000,MARIJUANA RETAILER                 ,CLOSED (PERMANENT),20170201,4256337515,0,0
LIVING WELL ENTERPRISES                      ,421812,6.03E+15,18850 103RD AVE SW UNIT 103   ,                         ,VASHON                  ,WA,KING,980705250,MARIJUANA RETAILER                 ,ACTIVE (ISSUED),20161025,2062612916,0,0
KAHD HOLDING                                 ,421826,6.04E+15,18850 103RD AVE SW UNIT 105   ,                         ,VASHON                  ,WA,KING,980705250,MARIJUANA RETAILER                 ,PENDING (NOT ISSUED),20161223,2068985900,0,0
GREEN LADY MARIJUANA                         ,422579,6.04E+15,18905 33RD AVE W STE 109      ,                         ,LYNNWOOD                ,WA,SNOHOMISH,980364736,MARIJUANA RETAILER                 ,ACTIVE (ISSUED),20170411,3607898891,0,0
BRIGHTON BAY 2                               ,422414,6.04E+15,18905 33RD AVE W STE 109-A    ,                         ,LYNNWOOD                ,WA,SNOHOMISH,980364715,MARIJUANA RETAILER                 ,ACTIVE (ISSUED),20170510,2063999999,0,0
GREEN LADY MARIJUANA                         ,422578,6.04E+15,18905 33RD AVE W STE 111      ,                         ,LYNNWOOD                ,WA,SNOHOMISH,980364716,MARIJUANA RETAILER                 ,ACTIVE (ISSUED),20170411,3607898891,0,0
RIU420                                       ,415045,6.03E+15,1905 JOHNSON RD               ,STE A                    ,CENTRALIA               ,WA,LEWIS,985311926,MARIJUANA RETAILER                 ,PENDING (NOT ISSUED),20140103,3602813921,0,0
HIGH END MARKET PLACE                        ,413550,6.03E+15,1906 BROADWAY                 ,                         ,VANCOUVER               ,WA,CLARK,986630000,MARIJUANA RETAILER                 ,ACTIVE (ISSUED),20161019,3606953612,0,0
CANNABIS COUNTRY STORE                       ,414970,6.03E+15,1910 W MAIN ST SUITE 101      ,                         ,BATTLE GROUND           ,WA,CLARK,986040000,MARIJUANA RETAILER                 ,ACTIVE (ISSUED),20161208,3607987194,0,0
LOCAL ROOTS MARIJUANA                        ,415425,6.03E+15,1912 201ST PLACE SE #202      ,                         ,BOTHELL                 ,WA,SNOHOMISH,980120000,MARIJUANA RETAILER                 ,CLOSED (TEMPORARY),20170713,4259495389,0,0
SMUGGLER BROTHERS                            ,413762,6.03E+15,1912 STATE ROUTE 20           ,                         ,SEDRO WOOLLEY           ,WA,SKAGIT,982840000,MARIJUANA RETAILER                 ,ACTIVE (ISSUED),20170112,3606473437,0,0
CASCADE KROPZ                                ,413819,6.03E+15,19129 SMOKEY POINT BLVD STE B ,                         ,ARLINGTON               ,WA,SNOHOMISH,982234258,MARIJUANA RETAILER                 ,ACTIVE (ISSUED),20161219,3606595422,0,0
THE GREEN NUGGET                             ,412490,6.03E+15,1919 E FRANCIS AVE SUITE A    ,                         ,SPOKANE                 ,WA,SPOKANE,992082747,MARIJUANA RETAILER                 ,ACTIVE (ISSUED),20170417,5093092130,0,0
THE KUSHERY                                  ,415513,6.04E+15,19258 15TH AVE NE STE B       ,                         ,LAKE FOREST PARK        ,WA,KING,981552315,MARIJUANA RETAILER                 ,ACTIVE (ISSUED),20170718,4252098924,0,0
TIMBER TREATS                                ,420567,6.04E+15,1930 N WENATCHEE AVE          ,                         ,WENATCHEE               ,WA,CHELAN,98801,MARIJUANA RETAILER                 ,PENDING (NOT ISSUED),20151016,5096690007,0,0
HERBAL NATION                                ,413683,6.03E+15,19302 BOTHELL EVERETT HWY     ,                         ,BOTHELL                 ,WA,SNOHOMISH,980127113,MARIJUANA RETAILER                 ,ACTIVE (ISSUED),20170412,4254861111,0,0
A GREENER TODAY MARIJUANA                    ,422044,6.03E+15,19315 BOTHELL EVERETT HWY #1  ,UNIT 1                   ,BOTHELL                 ,WA,SNOHOMISH,980127112,MARIJUANA RETAILER                 ,ACTIVE (ISSUED),20161221,2066877877,0,0
CANNABIS COAST                               ,420123,6.02E+15,193161 HWY 101                ,STE 201                  ,FORKS                   ,WA,CLALLAM,983319206,MARIJUANA RETAILER                 ,ACTIVE (ISSUED),20161201,3603744020,0,0
GREEN THEORY                                 ,425068,6.03E+15,1940 124TH AVE NE STE A-101   ,STE A-101                ,BELLEVUE                ,WA,KING,980050000,MARIJUANA RETAILER                 ,ACTIVE (ISSUED),20170614,4252562662,0,0
VELA                                         ,415534,6.03E+15,1944 1ST AVE S #100           ,                         ,SEATTLE                 ,WA,KING,981341406,MARIJUANA RETAILER                 ,ACTIVE (ISSUED),20170221,2069728500,0,0
GREENBRIAR NW LLC                            ,421710,6.03E+15,1944 1ST AVE S STE 600        ,                         ,SEATTLE                 ,WA,KING,981341406,MARIJUANA RETAILER                 ,PENDING (NOT ISSUED),20160105,2069728500,0,0
BELLA SOLE                                   ,420290,6.03E+15,19501 STATE ROUTE 127         ,                         ,LACROSSE                ,WA,WHITMAN,991438709,MARIJUANA RETAILER                 ,PENDING (NOT ISSUED),20151013,2064913992,0,0
EUPHORIUM                                    ,84130,6.03E+15,19525 BOTHELL EVERETT HWY A   ,                         ,BOTHELL                 ,WA,SNOHOMISH,980127116,MARIJUANA RETAILER                 ,ACTIVE (ISSUED),20161129,9168359616,0,0
GREEN FIRE CANNABIS                          ,350641,6.03E+15,1956 1ST AVE S                ,                         ,SEATTLE                 ,WA,KING,981341406,MARIJUANA RETAILER                 ,ACTIVE (ISSUED),20170512,2066233792,0,0
BLOWIN SMOKE                                 ,422202,6.03E+15,1967 HIGHWAY 395 S STE C      ,                         ,CHEWELAH                ,WA,STEVENS,991099708,MARIJUANA RETAILER                 ,ACTIVE (ISSUED),20170320,5099357420,0,0
THE BAKE SHOP                                ,413426,6.03E+15,19705 N GRIFFIN RD            ,                         ,PROSSER                 ,WA,BENTON,993500000,MARIJUANA RETAILER                 ,ACTIVE (ISSUED),20170628,5097782512,0,0
"HERB-N-CARE, LLC                             ",413934,6.03E+15,19906 AURORA AVE N            ,                         ,SHORELINE               ,WA,KING,981333526,MARIJUANA RETAILER                 ,PENDING (NOT ISSUED),20160323,2069207778,0,0
SWEET GREENS NORTHWEST                       ,413847,6.03E+15,19943 OLD HWY 99 SW           ,                         ,ROCHESTER               ,WA,THURSTON,985798689,MARIJUANA RETAILER                 ,ACTIVE (ISSUED),20170110,3608587630,0,0
SECRET HERB SHOP                             ,413994,6.02E+15,2 COLUMBIA DR                 ,STE A                    ,KETTLE FALLS            ,WA,FERRY,991419461,MARIJUANA RETAILER                 ,PENDING (NOT ISSUED),20170418,5096844420,0,0
EMERALD CITY CRONICS                         ,424633,6.04E+15,20 RADAR HILL RD              ,                         ,OTHELLO                 ,WA,FRANKLIN,993440000,MARIJUANA RETAILER                 ,PENDING (NOT ISSUED),20151027,2067908124,0,0
BUD HUT                                      ,422781,6.04E+15,200 SUZANNE LANE STE D        ,                         ,MOUNT VERNON            ,WA,SKAGIT,982739514,MARIJUANA RETAILER                 ,PENDING (ISSUED),20170320,3606681111,0,0
GREEN THEORY                                 ,413390,6.03E+15,2000 124TH AVE NE STE B106    ,                         ,BELLEVUE                ,WA,KING,980052117,MARIJUANA RETAILER                 ,CLOSED (PERMANENT),20170228,2063999999,0,0
LING DROST                                   ,422884,6.03E+15,20000 BOTHELL WAY NE          ,                         ,BOTHELL                 ,WA,KING,980112364,MARIJUANA RETAILER                 ,PENDING (NOT ISSUED),20160402,2063699597,0,0
NICE GUYS                                    ,80023,6.04E+15,2001 SPIRIT LAKE HIGHWAY      ,                         ,CASTLE ROCK             ,WA,COWLITZ,986110000,MARIJUANA RETAILER                 ,PENDING (NOT ISSUED),20160408,3605846621,0,0
GREEN2GO TOKIO                               ,422655,6.03E+15,2008 N DURRY RD UNIT 2        ,                         ,SPRAGUE                 ,WA,ADAMS,990329621,MARIJUANA RETAILER                 ,ACTIVE (ISSUED),20170505,5095917100,0,0
RENGAR LLC                                   ,422811,6.04E+15,20112 137TH AVE NE  STE B     ,                         ,WOODINVILLE             ,WA,KING,980728711,MARIJUANA RETAILER                 ,PENDING (NOT ISSUED),20160402,2083403970,0,0
2020 SOLUTIONS                               ,415470,6.03E+15,2018 IRON ST STE A            ,                         ,BELLINGHAM              ,WA,WHATCOM,982264212,MARIJUANA RETAILER                 ,ACTIVE (ISSUED),20170322,3603938697,0,0
SHADE'S GREEN EMPORIUM                       ,415521,6.03E+15,202 AVE D                     ,                         ,SNOHOMISH               ,WA,SNOHOMISH,982902745,MARIJUANA RETAILER                 ,PENDING (NOT ISSUED),20140107,4256337515,0,0
B & M                                        ,424193,6.04E+15,202 AVE D STE C               ,                         ,SNOHOMISH               ,WA,SNOHOMISH,982902745,MARIJUANA RETAILER                 ,PENDING (NOT ISSUED),20160331,4252098924,0,0
GREEN PLACE                                  ,416248,6.03E+15,202 AVENUE D STE B            ,STE B                    ,SNOHOMISH               ,WA,SNOHOMISH,982902745,MARIJUANA RETAILER                 ,ACTIVE (ISSUED),20170301,4256337515,0,0
420 HOLIDAY                                  ,415526,6.03E+15,2028 10TH AVE                 ,                         ,LONGVIEW                ,WA,COWLITZ,986324007,MARIJUANA RETAILER                 ,ACTIVE (ISSUED),20161115,3607033103,0,0
THE GRASSHOPPER CANNABIS DEPOT               ,422037,6.03E+15,20291 SR 20 UNIT 2            ,                         ,BURLINGTON              ,WA,SKAGIT,941409316,MARIJUANA RETAILER                 ,ACTIVE (ISSUED),20170413,2062097254,0,0
THE GRASSHOPPER CANNABIS DEPOT               ,422166,6.03E+15,20291 STATE ROUTE 20 UNIT C   ,                         ,BURLINGTON              ,WA,SKAGIT,982238727,MARIJUANA RETAILER                 ,ACTIVE (ISSUED),20160610,2062097254,0,0
GRASS                                        ,415531,6.03E+15,205 W STEWART RD              ,SUITE 107                ,MOUNT VERNON            ,WA,SKAGIT,982735411,MARIJUANA RETAILER                 ,ACTIVE (ISSUED),20161220,3604738393,0,0
KING CRONIC                                  ,422012,6.04E+15,20639 OLD HIGHWAY 99 SW UNIT B,UNIT B                   ,CENTRALIA               ,WA,THURSTON,985318613,MARIJUANA RETAILER                 ,ACTIVE (ISSUED),20161208,3608587142,0,0
THE VAULT                                    ,413926,6.03E+15,207 E SPRAGUE AVE UNIT 213    ,                         ,SPOKANE                 ,WA,SPOKANE,992020000,MARIJUANA RETAILER                 ,ACTIVE (ISSUED),20170207,4252488559,0,0
WALLA WALLA WEEDERY                          ,414011,6.03E+15,207 S 9TH AVE                 ,                         ,WALLA WALLA             ,WA,WALLA WALLA,993622700,MARIJUANA RETAILER                 ,ACTIVE (ISSUED),20170727,5098764279,0,0
"RYAN'S REAL SOLUTIONS, LLC                   ",422701,6.04E+15,209 E 4TH ST SUITE B          ,                         ,SPRAGUE                 ,WA,LINCOLN,99032,MARIJUANA RETAILER                 ,PENDING (NOT ISSUED),20160329,2534051918,0,0
YOGA'S GREEN TIKI                            ,422443,6.02E+15,20917 NE 72ND AVE STE 102     ,STE 102                  ,BATTLE GROUND           ,WA,CLARK,986045227,MARIJUANA RETAILER                 ,ACTIVE (ISSUED),20160912,3607106475,0,0
RED CANYON                                   ,414500,6.03E+15,20925 CYPRESS WAY STE C 103   ,                         ,LYNNWOOD                ,WA,SNOHOMISH,980360000,MARIJUANA RETAILER                 ,PENDING (ISSUED),20170602,9168359616,0,0
L & M MANAGEMENT LLC                         ,421565,6.03E+15,21 SHINE RD                   ,                         ,PORT LUDLOW             ,WA,JEFFERSON,983659509,MARIJUANA RETAILER                 ,CLOSED (PERMANENT),20170720,3607102503,0,0
NIRVANA CANNABIS COMPANY                     ,422498,6.03E+15,210 CHARDONNAY AVE STE D      ,                         ,PROSSER                 ,WA,BENTON,993509529,MARIJUANA RETAILER                 ,CLOSED (PERMANENT),20170518,5098082361,0,0
SCOTT ALAN RASCHE                            ,415305,6.02E+15,210 S CONKLIN RD              ,                         ,SPOKANE VALLEY          ,WA,SPOKANE,990378971,MARIJUANA RETAILER                 ,PENDING (NOT ISSUED),20140103,5098694375,0,0
NORTH BAY MARIJUANA                          ,413407,6.03E+15,211 E NORTH BAY RD            ,STE B                    ,ALLYN                   ,WA,MASON,985240000,MARIJUANA RETAILER                 ,ACTIVE (ISSUED),20161108,3608014269,0,0
BUDEEZ                                       ,420661,6.04E+15,2111 E 11TH ST                ,                         ,BREMERTON               ,WA,KITSAP,983104810,MARIJUANA RETAILER                 ,ACTIVE (ISSUED),20170112,3606207114,0,0
EUPHORIUM                                    ,414495,6.03E+15,21127 STATE ROUTE 9 SE        ,                         ,WOODINVILLE             ,WA,SNOHOMISH,980729703,MARIJUANA RETAILER                 ,PENDING (ISSUED),20170711,2063352683,0,0
EUPHORIUM LYNNWOOD                           ,414496,6.03E+15,21127 STATE RT 9 SE           ,UNIT B                   ,WOODINVILLE             ,WA,SNOHOMISH,980729703,MARIJUANA RETAILER                 ,CLOSED (PERMANENT),20160701,9168359616,0,0
HERBAL LEGENDS                               ,413702,6.03E+15,2118 JAMES ST                 ,                         ,BELLINGHAM              ,WA,WHATCOM,982254140,MARIJUANA RETAILER                 ,ACTIVE (ISSUED),20161129,3605941738,0,0
THE JOINT                                    ,420800,6.03E+15,2119 LINCOLN STREET           ,                         ,BELLINGHAM              ,WA,WHATCOM,982254147,MARIJUANA RETAILER                 ,ACTIVE (ISSUED),20170112,3603251201,0,0
THE HERBERY                                  ,84045,6.03E+15,212 NE 164TH AVE STE 11       ,                         ,VANCOUVER               ,WA,CLARK,986840000,MARIJUANA RETAILER                 ,ACTIVE (ISSUED),20161208,3609490319,0,0
LOCAL ROOTS MARIJUANA                        ,415222,6.03E+15,"212 W WINESAP RD STE 101, 102 ",                         ,BOTHELL                 ,WA,SNOHOMISH,980129210,MARIJUANA RETAILER                 ,ACTIVE (ISSUED),20170707,4256737420,0,0
REEFER DEN                                   ,404933,6.03E+15,2123 W SIMS WAY APT 1         ,                         ,PORT TOWNSEND           ,WA,JEFFERSON,983680000,MARIJUANA RETAILER                 ,ACTIVE (ISSUED),20170420,3603020393,0,0
ONE LOVE COLLECTIVE                          ,422107,6.03E+15,21236 84TH AVE S              ,                         ,KENT                    ,WA,KING,980320000,MARIJUANA RETAILER                 ,ACTIVE (ISSUED),20170404,2062278088,0,0
PHAT SACKS CORP                              ,414473,6.03E+15,21236 84TH AVE S              ,                         ,KENT                    ,WA,KING,980301967,MARIJUANA RETAILER                 ,CLOSED (PERMANENT),20160805,7206063746,0,0
THE CANNABIS OASIS                           ,423372,6.03E+15,2128 S 37TH ST                ,                         ,TACOMA                  ,WA,PIERCE,984097445,MARIJUANA RETAILER                 ,PENDING (ISSUED),20170724,2532250200,0,0
"GREEN SOLUTION PLACE PRELUDIO MANAGEMENT, LLC",422569,6.02E+15,21412 HIGHWAY 99              ,                         ,EDMONDS                 ,WA,SNOHOMISH,980267748,MARIJUANA RETAILER                 ,PENDING (NOT ISSUED),20160402,2532370770,0,0
CANNABIS STATION                             ,422570,6.03E+15,21412 HIGHWAY 99  STE A       ,                         ,EDMONDS                 ,WA,SNOHOMISH,980267748,MARIJUANA RETAILER                 ,PENDING (ISSUED),20170411,3039577942,0,0
GREEN2GO                                     ,422572,6.03E+15,214307 E SR 397               ,                         ,KENNEWICK               ,WA,BENTON,993377198,MARIJUANA RETAILER                 ,PENDING (NOT ISSUED),        ,5095917100,0,0
APEX CANNABIS                                ,422447,6.03E+15,21502 E GILBERT RD            ,                         ,OTIS ORCHARDS           ,WA,SPOKANE,990279241,MARIJUANA RETAILER                 ,ACTIVE (ISSUED),20170713,5094990646,0,0
THE GRASS STATION                            ,424877,6.04E+15,216 ROYAL ANNE DR SW          ,                         ,GEORGE                  ,WA,GRANT,988480000,MARIJUANA RETAILER                 ,ACTIVE (ISSUED),20170711,3609298637,0,0
PRIMO CANNABIS                               ,423885,6.03E+15,21630 E GILBERT RD            ,                         ,OTIS ORCHARDS           ,WA,SPOKANE,992079241,MARIJUANA RETAILER                 ,PENDING (ISSUED),20161201,2595765196,0,0
MBER CORP                                    ,422897,6.03E+15,21635 PACIFIC HWY S STE C     ,                         ,DES MOINES              ,WA,KING,981987703,MARIJUANA RETAILER                 ,PENDING (NOT ISSUED),20160405,2063559355,0,0
TROVE CANNABIS                               ,414871,6.03E+15,218 N SAMISH WAY STE #103     ,                         ,BELLINGHAM              ,WA,WHATCOM,982250000,MARIJUANA RETAILER                 ,ACTIVE (ISSUED),20161220,3603933459,0,0
THE GALLERY SPANAWAY                         ,413420,6.03E+15,21802 MOUNTAIN HWY E  STE 1   ,                         ,SPANAWAY                ,WA,PIERCE,983870000,MARIJUANA RETAILER                 ,ACTIVE (ISSUED),20160908,3052988577,0,0
FWEEDOM CANNABIS                             ,415031,6.03E+15,21911 64TH AVE W   STE D      ,STE D                    ,MOUNTLAKE TERRACE       ,WA,SNOHOMISH,980430000,MARIJUANA RETAILER                 ,ACTIVE (ISSUED),20161128,4259540640,0,0
BUD HUT                                      ,422792,6.04E+15,2200 TALLEY WAY  STE A        ,SUITE A                  ,KELSO                   ,WA,COWLITZ,986265511,MARIJUANA RETAILER                 ,PENDING (ISSUED),20170317,3606681111,0,0
RAINIER CANNABIS                             ,423224,6.03E+15,22002 64TH AVE W STE 2A       ,SUITE 2A                 ,MOUNTLAKE TERRACE       ,WA,SNOHOMISH,980430000,MARIJUANA RETAILER                 ,PENDING (ISSUED),20170724,4255100546,0,0
20AFTER4                                     ,422632,6.03E+15,2211 46TH AVE                 ,                         ,LONGVIEW                ,WA,COWLITZ,986325013,MARIJUANA RETAILER                 ,CLOSED (PERMANENT),20170620,2068180966,0,0
BOYDEN INVESTMENT GROUP                      ,415241,6.03E+15,2215 4TH AVE S                ,                         ,SEATTLE                 ,WA,KING,981341516,MARIJUANA RETAILER                 ,CLOSED (PERMANENT),20160707,5202508988,0,0
DIEGO PELLICER                               ,423754,6.03E+15,2215 4TH AVE S                ,                         ,SEATTLE                 ,WA,KING,981341516,MARIJUANA RETAILER                 ,ACTIVE (ISSUED),20170308,2064553045,0,0
FORBIDDEN CANNABIS CLUB                      ,420520,6.03E+15,22308 HWY 410 E UNIT B        ,                         ,BONNEY LAKE             ,WA,PIERCE,983914073,MARIJUANA RETAILER                 ,ACTIVE (ISSUED),20160920,2532241442,0,0
CARLTON CANNABIS                             ,421507,6.04E+15,2256 WA-153 STE B            ,                         ,CARLTON                 ,WA,OKANOGAN,988149004,MARIJUANA RETAILER                 ,ACTIVE (ISSUED),20170704,3607853843,1,Manual Validation
PHAT SACKS CORP                              ,423536,6.03E+15,22624 MERIDIAN AVE S          ,STE B                    ,BOTHELL                 ,WA,SNOHOMISH,980218358,MARIJUANA RETAILER                 ,ACTIVE (ISSUED),20170322,2062618206,0,0
SWEETEST RELIEF                              ,422251,6.04E+15,22834 PACIFIC HWY S           ,                         ,DES MOINES              ,WA,KING,981987262,MARIJUANA RETAILER                 ,ACTIVE (ISSUED),20170213,3602861348,0,0
PAKALOLO                                     ,414712,6.03E+15,2294 STATE ROUTE 109          ,                         ,HOQUIAM                 ,WA,GRAYS HARBOR,985500000,MARIJUANA RETAILER                 ,ACTIVE (ISSUED),20170328,2539059448,0,0
GREEN GROTTO                                 ,414108,6.03E+15,230 NE JUNIPER ST #101A       ,                         ,ISSAQUAH                ,WA,KING,980272519,MARIJUANA RETAILER                 ,ACTIVE (ISSUED),20161123,2067926857,0,0
ISSAQUAH CANNABIS COMPANY                    ,414867,6.03E+15,230 NE JUNIPER ST STE#201     ,STE#201                  ,ISSAQUAH                ,WA,KING,980272519,MARIJUANA RETAILER                 ,ACTIVE (ISSUED),20161212,2069492124,0,0
KITSAP CANNABIS 3                            ,422827,6.04E+15,2300 TALLEY WAY UNIT C        ,                         ,KELSO                   ,WA,COWLITZ,986265513,MARIJUANA RETAILER                 ,PENDING (NOT ISSUED),20160402,3608658092,0,0
STARBUDS                                     ,414805,6.03E+15,2304 S 1ST ST STE A           ,                         ,YAKIMA                  ,WA,YAKIMA,989031602,MARIJUANA RETAILER                 ,PENDING (NOT ISSUED),20160311,4258793191,0,0
GREEN BHANG LLC                              ,422812,6.04E+15,2307 TACOMA AVE S  STE B      ,                         ,TACOMA                  ,WA,PIERCE,984021409,MARIJUANA RETAILER                 ,PENDING (NOT ISSUED),20160402,2539876637,0,0
UNCLE IKE'S                                  ,414533,6.03E+15,2310 EAST UNION ST            ,                         ,SEATTLE                 ,WA,KING,981222966,MARIJUANA RETAILER                 ,ACTIVE (ISSUED),20170615,2065055555,0,0
MAIN STREET MARIJUANA                        ,414876,6.03E+15,2314 MAIN ST                  ,                         ,VANCOUVER               ,WA,CLARK,986602642,MARIJUANA RETAILER                 ,ACTIVE (ISSUED),20170627,4259745804,0,0
T.H.C.SUPERMARKET                            ,415198,6.03E+15,23221 EDMONDS WAY STE A       ,STE A                    ,EDMONDS                 ,WA,SNOHOMISH,980260000,MARIJUANA RETAILER                 ,PENDING (ISSUED),20170510,4259675800,0,0
4 US RETAIL                                  ,413700,6.02E+15,23251 HWY 20                  ,                         ,OKANOGAN                ,WA,OKANOGAN,988400000,MARIJUANA RETAILER                 ,PENDING (NOT ISSUED),20170303,5094296082,0,0
JT RETAIL                                    ,414648,6.03E+15,23329 HIGHWAY 99              ,                         ,EDMONDS                 ,WA,SNOHOMISH,980268745,MARIJUANA RETAILER                 ,PENDING (NOT ISSUED),20131224,2066767548,0,0
A & J MANAGEMENT GROUP                       ,421491,6.03E+15,234 DIVISION ST NW STE B      ,                         ,OLYMPIA                 ,WA,THURSTON,985024916,MARIJUANA RETAILER                 ,ACTIVE (ISSUED),20170309,5055507710,0,0
GREENSIDE                                    ,414295,6.03E+15,23407 PACIFIC HWY S           ,                         ,DES MOINES              ,WA,KING,981988738,MARIJUANA RETAILER                 ,ACTIVE (ISSUED),20161103,2068786470,0,0
THE GREEN RECREATIONAL CANNABIS              ,413603,6.03E+15,23440 PACIFIC HWY S           ,                         ,KENT                    ,WA,KING,980322718,MARIJUANA RETAILER                 ,ACTIVE (ISSUED),20170405,2065793661,0,0
GANJA VITA                                   ,415539,6.03E+15,23441 NE STATE ROUTE 3        ,                         ,BELFAIR                 ,WA,MASON,985280000,MARIJUANA RETAILER                 ,ACTIVE (ISSUED),20161231,2535143949,0,0
GANJA VITA III LLC                           ,421321,6.04E+15,23441 NE STATE RT 3 STE B-2   ,                         ,BELFAIR                 ,WA,MASON,985288342,MARIJUANA RETAILER                 ,PENDING (NOT ISSUED),20160402,2535143949,0,0
FORBIDDEN CANNABIS LLC                       ,414803,6.04E+15,2358 ELMWAY                   ,                         ,OKANOGAN                ,WA,OKANOGAN,988400000,MARIJUANA RETAILER                 ,ACTIVE (ISSUED),20170607,2532241442,0,0
THE ROOT CELLAR                              ,415343,6.03E+15,23632 NE STATE ROUTE 3        ,                         ,BELFAIR                 ,WA,MASON,985288309,MARIJUANA RETAILER                 ,ACTIVE (ISSUED),20170112,3604348767,0,0
420 DOWNTOWN                                 ,421797,6.04E+15,23694 HIGHWAY 3 STE A         ,                         ,BELFAIR                 ,WA,MASON,985280000,MARIJUANA RETAILER                 ,PENDING (ISSUED),20170602,3605616972,0,0
"GREEN LADY WESTSIDE, INC.                    ",416540,6.04E+15,2405 HARRISON AVE NW STE 201  ,                         ,OLYMPIA                 ,WA,THURSTON,985024592,MARIJUANA RETAILER                 ,ACTIVE (ISSUED),20161220,5098697475,0,0
THE JOINT                                    ,76458,6.03E+15,2409 PACIFIC AVE              ,                         ,TACOMA                  ,WA,PIERCE,984022910,MARIJUANA RETAILER                 ,ACTIVE (ISSUED),20161227,4254710283,0,0
MARI MART                                    ,422298,6.04E+15,24090 NE STATE ROUTE 3 STE I  ,                         ,BELFAIR                 ,WA,MASON,985289665,MARIJUANA RETAILER                 ,ACTIVE (ISSUED),20170110,3602751181,0,0
PONDER                                       ,413809,6.03E+15,2413 E UNION ST               ,                         ,SEATTLE                 ,WA,KING,981223045,MARIJUANA RETAILER                 ,ACTIVE (ISSUED),20161115,2064202180,0,0
WASHINGTON STATE CANNABIS COMPANY            ,414559,6.04E+15,2415 ROBERSTON DRIVE          ,                         ,RICHLAND                ,WA,BENTON,99354,MARIJUANA RETAILER                 ,PENDING (NOT ISSUED),20160318,2066607221,0,0
GREENHAND                                    ,420898,6.03E+15,2424 N MONROE STREET          ,                         ,SPOKANE                 ,WA,SPOKANE,992053349,MARIJUANA RETAILER                 ,ACTIVE (ISSUED),20170516,2067357072,0,0
CANNABIS SWEET RELIEF                        ,422466,6.04E+15,2427 W SIMS WAY               ,STE F                    ,PORT TOWNSEND           ,WA,JEFFERSON,983682247,MARIJUANA RETAILER                 ,ACTIVE (ISSUED),20170424,5416109508,0,0
HERBAN APOTHECARY                            ,422851,6.04E+15,2432C HWY 395 SUITE 300       ,                         ,CHEWELAH                ,WA,STEVENS,991090000,MARIJUANA RETAILER                 ,PENDING (NOT ISSUED),20160402,3602715583,0,0
MARY JANE'S HOUSE OF MARIJUANA               ,413844,6.03E+15,245 6TH ST                    ,                         ,WASHOUGAL               ,WA,CLARK,986712123,MARIJUANA RETAILER                 ,PENDING (NOT ISSUED),20131220,3609312169,0,0
S&K GREEN GOODS                              ,423355,6.03E+15,24921 E TRENT AVE             ,                         ,NEWMAN LAKE             ,WA,SPOKANE,990250000,MARIJUANA RETAILER                 ,CLOSED (PERMANENT),20161010,2535765196,0,0
TACOMA HOUSE OF CANNABIS                     ,421506,6.04E+15,2502 S 12TH ST                ,                         ,TACOMA                  ,WA,PIERCE,984052710,MARIJUANA RETAILER                 ,CLOSED (PERMANENT),20170217,3607853843,0,0
LUCID CHENEY                                 ,413504,6.03E+15,25023 E APPLEWAY AVE          ,                         ,LIBERTY LAKE            ,WA,SPOKANE,990199545,MARIJUANA RETAILER                 ,CLOSED (PERMANENT),20161107,2539855872,0,0
FIVE POINTS OF PIERCE COUNTY LLC             ,422566,6.03E+15,2510 SANDRA AVE               ,                         ,CENTRALIA               ,WA,LEWIS,985319649,MARIJUANA RETAILER                 ,CLOSED (PERMANENT),20170223,2538644924,0,0
CANNABIS 21                                  ,415344,6.03E+15,2510 SANDRA AVE STE A         ,                         ,CENTRALIA               ,WA,LEWIS,985319321,MARIJUANA RETAILER                 ,CLOSED (PERMANENT),20170522,3602397149,0,0
WASHINGTON GREEN LEAF                        ,414128,6.03E+15,2510 SANDRA AVE STE C         ,STE C                    ,CENTRALIA               ,WA,LEWIS,985319649,MARIJUANA RETAILER                 ,ACTIVE (ISSUED),20161118,4253124423,0,0
DOUGLAS COUNTY 502                           ,412865,6.03E+15,2512 FOSTER CREEK AVE         ,                         ,BRIDGEPORT              ,WA,DOUGLAS,988130000,MARIJUANA RETAILER                 ,ACTIVE (ISSUED),20160804,5033177035,0,0
THE WEED SHOP                                ,422457,6.04E+15,25171 SR 525                  ,#2                       ,GREENBANK               ,WA,ISLAND,982530000,MARIJUANA RETAILER                 ,ACTIVE (ISSUED),20170419,4252603482,0,0
THRIVE                                       ,414074,6.03E+15,2526 E HILLSBORO ST           ,STE A                    ,PASCO                   ,WA,FRANKLIN,993010000,MARIJUANA RETAILER                 ,CLOSED (PERMANENT),20160428,5098604315,0,0
THE SPOT ON EVERGREEN II                     ,422817,6.04E+15,2530 PEACE PORTAL DR SUITE B  ,                         ,BLAINE                  ,WA,WHATCOM,982308063,MARIJUANA RETAILER                 ,ACTIVE (ISSUED),20170325,4252314439,0,0
ALTITUDE                                     ,414225,6.03E+15,260 MERLOT DR                 ,                         ,PROSSER                 ,WA,BENTON,993500000,MARIJUANA RETAILER                 ,ACTIVE (ISSUED),20161129,5097864200,0,0
KITSAP CANNABIS                              ,424117,6.04E+15,2600 NW RANDALL WAY           ,SUITE 103                ,SILVERDALE              ,WA,KITSAP,983839427,MARIJUANA RETAILER                 ,ACTIVE (ISSUED),20170324,3608658092,0,0
WAYNE SEMINOFF COMPANY                       ,422752,6.01E+15,2600 W BRUNEAU PL             ,                         ,KENNEWICK               ,WA,BENTON,983360000,MARIJUANA RETAILER                 ,PENDING (ISSUED),20170721,4256437780,0,0
POULSBO HAZE                                 ,413255,6.03E+15,26011 OHIO AVE NE             ,                         ,KINGSTON                ,WA,KITSAP,983460000,MARIJUANA RETAILER                 ,PENDING (NOT ISSUED),20131120,3605983672,0,0
GREEN TIKI CANNABIS                          ,415310,6.02E+15,26099 UNITED RD NE            ,                         ,KINGSTON                ,WA,KITSAP,983460000,MARIJUANA RETAILER                 ,CLOSED (PERMANENT),20161208,3607106475,0,0
2020 SOLUTIONS                   ,422363,6.04E+15,261 STATE HWY 28 WEST         ,                         ,SOAP LAKE               ,WA,GRANT,988510000,MARIJUANA RETAILER                 ,ACTIVE (ISSUED),20170418,3609154944,0,0
LOVING FARMS                                 ,412370,6.03E+15,2615 OLD HIGHWAY 99 S         ,                         ,MOUNT VERNON            ,WA,SKAGIT,982730000,MARIJUANA RETAILER                 ,ACTIVE (ISSUED),20161020,3605405168,0,0
BUD HUT                                      ,410831,6.04E+15,26207 MAPLE VALLEY BLACK      ,DIAMOND RD               ,MAPLE VALLEY            ,WA,KING,980388378,MARIJUANA RETAILER                 ,ACTIVE (ISSUED),20170113,4257604345,0,0
KUSH                                         ,422980,6.02E+15,26207 MAPLE VALLEY-BLK DIAM RD,STE H                    ,MAPLE VALLEY            ,WA,KING,98038,MARIJUANA RETAILER                 ,PENDING (NOT ISSUED),20160402,4252693242,0,0
TACOMA HOUSE OF CANNABIS                     ,424473,6.04E+15,2632 S 38TH ST STE A          ,                         ,TACOMA                  ,WA,PIERCE,984097304,MARIJUANA RETAILER                 ,ACTIVE (ISSUED),20170628,2532413261,0,0
DUTCH PLUG LLC                               ,422904,6.04E+15,2640 MAIN ST                  ,                         ,UNION GAP               ,WA,YAKIMA,989031752,MARIJUANA RETAILER                 ,PENDING (NOT ISSUED),20160405,2069920266,0,0
HERBAN LEGENDS                               ,420302,6.03E+15,2700 4TH AVE S C1             ,                         ,SEATTLE                 ,WA,KING,981341942,MARIJUANA RETAILER                 ,CLOSED (PERMANENT),20160419,3604738393,0,0
HERBAN LEGENDS                               ,422691,6.03E+15,2700 4TH AVE S STE C1-A       ,                         ,SEATTLE                 ,WA,KING,981341942,MARIJUANA RETAILER                 ,PENDING (NOT ISSUED),20160322,2068495596,0,0
"HERB-N-CARE, LLC                             ",422694,6.03E+15,2701 AIRPORT WAY S STE B      ,                         ,SEATTLE                 ,WA,KING,981342112,MARIJUANA RETAILER                 ,PENDING (NOT ISSUED),20160329,2069207778,0,0
EMERALD LEAVES                               ,413363,6.04E+15,2702 6TH AVE                  ,                         ,TACOMA                  ,WA,PIERCE,984067213,MARIJUANA RETAILER                 ,PENDING (ISSUED),20170222,2064825627,0,0
CANNABLYSS                                   ,415575,6.03E+15,2705 HARTFORD DR STE A        ,                         ,LAKE STEVENS            ,WA,SNOHOMISH,982589204,MARIJUANA RETAILER                 ,ACTIVE (ISSUED),20161208,4253277529,0,0
TRIPLE C COLLECTIVE                          ,352400,6.03E+15,2708 6TH AVE                  ,                         ,TACOMA                  ,WA,PIERCE,984067213,MARIJUANA RETAILER                 ,CLOSED (PERMANENT),20170626,2535074725,0,0
CANNAREX                                     ,414060,6.03E+15,2714 HENSON RD                ,                         ,MOUNT VERNON            ,WA,SKAGIT,982739036,MARIJUANA RETAILER                 ,ACTIVE (ISSUED),20170619,4254058179,0,0
HERBAL LEGENDS CANNABIS                      ,422978,6.03E+15,2714 HENSON RD STE B          ,                         ,MOUNT VERNON            ,WA,SKAGIT,982730000,MARIJUANA RETAILER                 ,ACTIVE (ISSUED),20170502,3607783904,0,0
HOMEGROWN NORTHWEST                          ,421350,6.04E+15,2724 3RD AVE S                ,                         ,SEATTLE                 ,WA,KING,981341909,MARIJUANA RETAILER                 ,ACTIVE (ISSUED),20170403,2534595741,0,0
CANNABIS CITY                                ,413319,6.03E+15,2733 4TH AVE S  1ST FLOOR     ,1ST FLOOR UNIT           ,SEATTLE                 ,WA,KING,981341912,MARIJUANA RETAILER                 ,PENDING (ISSUED),20170502,2066821332,0,0
CASCADE CANNABIS                             ,421363,6.02E+15,27413 10TH DR NE              ,                         ,ARLINGTON               ,WA,SNOHOMISH,982237304,MARIJUANA RETAILER                 ,PENDING (NOT ISSUED),20151121,3607078553,0,0
CRIMSON WAVE                                 ,414491,6.03E+15,27623 COVINGTON WAY SE UNIT 1 ,                         ,COVINGTON               ,WA,KING,980420000,MARIJUANA RETAILER                 ,PENDING (ISSUED),20170613,9168359616,0,0
BB&B                                         ,415544,6.03E+15,27721 PACIFIC AVE S  STE D    ,SUITE D                  ,FEDERAL WAY             ,WA,KING,980032406,MARIJUANA RETAILER                 ,ACTIVE (ISSUED),20170207,2532794511,0,0
GREEN SOLUTION PLACE                         ,420638,6.02E+15,2801 AUBURN WAY S             ,                         ,AUBURN                  ,WA,KING,980920000,MARIJUANA RETAILER                 ,CLOSED (PERMANENT),20170626,2532370770,0,0
NEXT STEPS                                   ,421698,6.04E+15,2804 E 30TH AVE               ,                         ,SPOKANE                 ,WA,SPOKANE,992234782,MARIJUANA RETAILER                 ,ACTIVE (ISSUED),20170609,3016336086,0,0
WEST CHOICE                                  ,409509,6.03E+15,2805 6TH AVE                  ,                         ,TACOMA                  ,WA,PIERCE,984066707,MARIJUANA RETAILER                 ,CLOSED (PERMANENT),20160706,2532250200,0,0
"HEAVY HAULERS DIGGIN' IT, INC.               ",422864,6.02E+15,2805 6TH AVE   STE F          ,                         ,TACOMA                  ,WA,PIERCE,984066707,MARIJUANA RETAILER                 ,PENDING (NOT ISSUED),20160402,2532369284,0,0
MR. NICE STORES                              ,415363,6.02E+15,2805 6TH AVE  STE A           ,                         ,TACOMA                  ,WA,PIERCE,984066707,MARIJUANA RETAILER                 ,PENDING (NOT ISSUED),20160115,2062617423,0,0
420 REMEDIES                                 ,422834,6.03E+15,2807 OLYMPIC HWY STE B        ,                         ,ABERDEEN                ,WA,GRAYS HARBOR,985203158,MARIJUANA RETAILER                 ,PENDING (NOT ISSUED),20160402,3607912094,0,0
GREEN MONSTER                                ,422899,6.03E+15,2807 OLYMPIC HWY STE C        ,                         ,ABERDEEN                ,WA,GRAYS HARBOR,985203158,MARIJUANA RETAILER                 ,PENDING (NOT ISSUED),20160405,2532412948,0,0
LOCAL POT SHOP                               ,422826,6.04E+15,2810 MARINE VIEW DR           ,                         ,TACOMA                  ,WA,PIERCE,984223505,MARIJUANA RETAILER                 ,PENDING (NOT ISSUED),20160402,2532820403,0,0
THE GREEN DOOR                               ,415410,6.03E+15,28120 HWY 410 E UNIT A8       ,                         ,BUCKLEY                 ,WA,PIERCE,983218482,MARIJUANA RETAILER                 ,ACTIVE (ISSUED),20170705,2532248299,0,0
GREEN HEAD CANNABIS                          ,414761,6.00E+15,2815 ST. JOHNS ROAD   STE B   ,                         ,VANCOUVER               ,WA,CLARK,986610000,MARIJUANA RETAILER                 ,ACTIVE (ISSUED),20170314,3606091479,0,0
EMERALD PUFF                                 ,415151,6.03E+15,2820 E HIGHWAY 101 # A        ,                         ,PORT ANGELES            ,WA,CLALLAM,983629080,MARIJUANA RETAILER                 ,PENDING (NOT ISSUED),20160402,2066511544,0,0
EMERALD PUFF                                 ,422881,6.03E+15,2820 E HIGHWAY 101 # B        ,                         ,PORT ANGELES            ,WA,CLALLAM,983629080,MARIJUANA RETAILER                 ,PENDING (NOT ISSUED),20160402,2066511544,0,0
DISCOVERY BAY CANNABIS                       ,423036,6.04E+15,282023 HWY 101                ,                         ,PORT TOWNSEND           ,WA,JEFFERSON,983689331,MARIJUANA RETAILER                 ,ACTIVE (ISSUED),20170218,2066607221,0,0
SEA CHANGE CANNABIS                          ,353260,6.03E+15,282332 HIGHWAY 101 STE 2      ,                         ,PORT TOWNSEND           ,WA,JEFFERSON,983688700,MARIJUANA RETAILER                 ,ACTIVE (ISSUED),20161104,2064228328,0,0
MARY JANE'S                                  ,417646,6.03E+15,2829 N MARKET ST              ,                         ,SPOKANE                 ,WA,SPOKANE,992075553,MARIJUANA RETAILER                 ,ACTIVE (ISSUED),20161213,5099893639,0,0
FILLABONG                                    ,415211,6.04E+15,2839 NW KITSAP PL STE A       ,                         ,SILVERDALE              ,WA,KITSAP,983839447,MARIJUANA RETAILER                 ,ACTIVE (ISSUED),20170630,3606980353,0,0
GREEN PEAKS N.W.                             ,422525,6.04E+15,2840 E HWY 101                ,                         ,PORT ANGELES            ,WA,CLALLAM,983629080,MARIJUANA RETAILER                 ,PENDING (ISSUED),20170524,5099990148,0,0
ARISTOCRAT CANNABIS LLC                      ,422420,6.04E+15,285 CANAL RD                  ,                         ,TOUTLE                  ,WA,COWLITZ,986499703,MARIJUANA RETAILER                 ,ACTIVE (ISSUED),20170628,2066596531,0,0
GOOBIE'S DOOBIES                             ,421953,6.04E+15,28680 MAPLE VALLEY BLACK      ,DIAMOND RD SE STE A      ,MAPLE VALLEY            ,WA,KING,980388193,MARIJUANA RETAILER                 ,ACTIVE (ISSUED),20170308,2534595741,0,0
MR. DOOBEES                                  ,415206,6.03E+15,2870 OCEAN AVE                ,TAYLOR PARK BLDG #4      ,RAYMOND                 ,WA,PACIFIC,985774926,MARIJUANA RETAILER                 ,CLOSED (PERMANENT),20161215,3608758016,0,0
AUSTIN LOTT                                  ,413530,6.03E+15,29 HORIZON FLATS RD STE 8     ,                         ,WINTHROP                ,WA,OKANOGAN,988628400,MARIJUANA RETAILER                 ,ACTIVE (ISSUED),20160809,5094295556,0,0
GREEN EXPRESS                                ,414836,6.03E+15,2929 BOND ST                  ,                         ,EVERETT                 ,WA,SNOHOMISH,982013901,MARIJUANA RETAILER                 ,PENDING (NOT ISSUED),20140101,4257734477,0,0
MR. BILLS OF BUCKLEY                         ,413980,6.03E+15,29297 HWY 410 E STE D         ,                         ,BUCKLEY                 ,WA,PIERCE,983218482,MARIJUANA RETAILER                 ,CLOSED (PERMANENT),20170414,2533835855,0,0
MR. BILLS OF BUCKLEY                         ,424751,6.03E+15,29393 STATE ROUTE 410 E STE D ,                         ,BUCKLEY                 ,WA,PIERCE,983219424,MARIJUANA RETAILER                 ,ACTIVE (ISSUED),20170502,3607617540,0,0
SWEET RELIEF CANNABIS EXPRESS                ,422460,6.04E+15,"2947 E HWY 101  STE A, B      ",SUITE A AND B            ,PORT ANGELES            ,WA,CLALLAM,983629059,MARIJUANA RETAILER                 ,ACTIVE (ISSUED),20170724,3609096327,0,0
H P BUDS                                     ,421457,6.04E+15,30 E NISQUALLY PL             ,                         ,SHELTON                 ,WA,MASON,985849046,MARIJUANA RETAILER                 ,PENDING (NOT ISSUED),20160206,3604328734,0,0
MJA  DISTRIBUTION                            ,414659,6.03E+15,300 19TH AVE                  ,                         ,SEATTLE                 ,WA,KING,981225736,MARIJUANA RETAILER                 ,PENDING (NOT ISSUED),20131224,2068606885,0,0
HAVE A HEART CC                              ,421409,6.03E+15,300 NW 85TH STREET  STE A     ,STE A                    ,SEATTLE                 ,WA,KING,981170000,MARIJUANA RETAILER                 ,ACTIVE (ISSUED),20170419,2062574500,0,0
THE GREEN ROOM                               ,414696,6.03E+15,300 W MILL PLAIN BLVD         ,                         ,VANCOUVER               ,WA,CLARK,986602979,MARIJUANA RETAILER                 ,PENDING (NOT ISSUED),20131224,3606094544,0,0
MARY MART                                    ,424311,6.03E+15,3002 6TH AVE STE 100          ,                         ,TACOMA                  ,WA,PIERCE,984066203,MARIJUANA RETAILER                 ,ACTIVE (ISSUED),20170630,2539614231,0,0
MARY MART                                    ,415037,6.03E+15,3005 6TH AVE STE B            ,                         ,TACOMA                  ,WA,PIERCE,984066202,MARIJUANA RETAILER                 ,CLOSED (PERMANENT),20170112,2533271675,0,0
AMERICAN POT SHOP                            ,421905,6.03E+15,3005 NORTHVIEW CIRCLE         ,                         ,SHELTON                 ,WA,MASON,985842948,MARIJUANA RETAILER                 ,CLOSED (TEMPORARY),20170727,2063292223,0,0
SWEET LEAF LLC                               ,422896,6.03E+15,3010 BRIDGEPORT WAY W         ,                         ,UNIVERSITY PLACE        ,WA,PIERCE,984664617,MARIJUANA RETAILER                 ,PENDING (NOT ISSUED),20160405,2535495338,0,0
GREEN LIFE CANNABIS                          ,414755,6.03E+15,3012 GS CENTER RD STE A       ,                         ,WENATCHEE               ,WA,CHELAN,988019116,MARIJUANA RETAILER                 ,ACTIVE (ISSUED),20170314,2817260614,0,0
AMERICAN HARVEST                             ,423431,6.03E+15,3014 GS CENTER RD STE D       ,                         ,WENATCHEE               ,WA,CHELAN,988019144,MARIJUANA RETAILER                 ,CLOSED (PERMANENT),20170110,5096301707,0,0
MODERN CREATIONS                             ,424430,6.03E+15,3014 S 320TH ST               ,                         ,FEDERAL WAY             ,WA,KING,980035421,MARIJUANA RETAILER                 ,ACTIVE (ISSUED),20170209,2064657550,0,0
BUDS GARAGE                                  ,421005,6.03E+15,3015 EVERETT AVE              ,                         ,EVERETT                 ,WA,SNOHOMISH,982013822,MARIJUANA RETAILER                 ,ACTIVE (ISSUED),20170127,4258793437,0,0
20AFTER4                                     ,425128,6.03E+15,302 HAZEL ST                  ,                         ,KELSO                   ,WA,COWLITZ,986261410,MARIJUANA RETAILER                 ,ACTIVE (ISSUED),20170620,2068180966,0,0
GREEN GAINT LLC                              ,422820,6.04E+15,3022 RIVER RD E               ,                         ,TACOMA                  ,WA,PIERCE,984432126,MARIJUANA RETAILER                 ,PENDING (NOT ISSUED),20160402,2532820403,0,0
CANNACABANNA                                 ,421015,6.04E+15,3028 RIVER RD E               ,                         ,TACOMA                  ,WA,PIERCE,984432126,MARIJUANA RETAILER                 ,PENDING (NOT ISSUED),20160401,2539876637,0,0
MJ SUCCESS LLC                               ,422822,6.04E+15,304 PINE STREET               ,                         ,OAKVILLE                ,WA,GRAYS HARBOR,98568,MARIJUANA RETAILER                 ,PENDING (NOT ISSUED),20160402,3604703051,0,0
GREEN LADY                                   ,415130,6.03E+15,3044 PACIFIC AVE SE STE B     ,                         ,OLYMPIA                 ,WA,THURSTON,985012043,MARIJUANA RETAILER                 ,ACTIVE (ISSUED),20161220,5098697574,0,0
BUD COMMANDER TONASKET STATION               ,364680,6.03E+15,305 W 4TH ST                  ,                         ,TONASKET                ,WA,OKANOGAN,988559278,MARIJUANA RETAILER                 ,PENDING (NOT ISSUED),20160324,3606881709,0,0
TONASKET HOUSE OF CANNABIS                   ,422454,6.04E+15,305 W 4TH ST STE A            ,                         ,TONASKET                ,WA,OKANOGAN,988550000,MARIJUANA RETAILER                 ,PENDING (NOT ISSUED),20160315,3607853843,0,0
21+ RECREATIONAL MARIJUANA                   ,423775,6.04E+15,3062 SW HWY 16 STE A          ,                         ,BREMERTON               ,WA,KITSAP,983120000,MARIJUANA RETAILER                 ,ACTIVE (ISSUED),20170316,2064278666,0,0
HIGHER LEAF MARIJUANA BELLEVUE               ,423000,6.03E+15,3079 156TH AVE SE             ,                         ,BELLEVUE                ,WA,KING,980076526,MARIJUANA RETAILER                 ,ACTIVE (ISSUED),20170614,4258706335,0,0
ACCESS CANIBUS LLC                           ,422765,6.04E+15,3082 WAITTS LAKE RD           ,                         ,VALLEY                  ,WA,STEVENS,991810000,MARIJUANA RETAILER                 ,PENDING (NOT ISSUED),20160401,3604703051,0,0
HYPEHERBALLY                                 ,422233,6.03E+15,309 N VAN BUREN CT STE 120    ,                         ,KENNEWICK               ,WA,BENTON,993367759,MARIJUANA RETAILER                 ,PENDING (NOT ISSUED),20160303,4252809482,0,0
THE STASH BOX                                ,412494,6.03E+15,3108 A ST SE STE F            ,                         ,AUBURN                  ,WA,KING,980028811,MARIJUANA RETAILER                 ,ACTIVE (ISSUED),20170110,2537970959,0,0
RAINIER ON PINE                              ,414723,6.03E+15,3111 S PINE ST                ,                         ,TACOMA                  ,WA,PIERCE,984094711,MARIJUANA RETAILER                 ,ACTIVE (ISSUED),20170215,2066508908,0,0
MODERN CREATIONS                             ,414227,6.03E+15,31140 PACIFIC HWY S           ,                         ,FEDERAL WAY             ,WA,KING,980033807,MARIJUANA RETAILER                 ,CLOSED (PERMANENT),20160408,2064657550,0,0
GREEN GROTTO                                 ,413789,6.03E+15,31140 PACIFIC HWY S STE A     ,                         ,FEDERAL WAY             ,WA,KING,980034994,MARIJUANA RETAILER                 ,ACTIVE (ISSUED),20170302,2067926857,0,0
KEYSTONE CREATIONS                           ,414090,6.03E+15,31140 PACIFIC HWY S STE C     ,STE C                    ,FEDERAL WAY             ,WA,KING,980034994,MARIJUANA RETAILER                 ,PENDING (NOT ISSUED),20131224,2533559704,0,0
QUEEN ANNE CANNABIS CO                       ,413479,6.03E+15,312 W REPUBLICAN ST           ,                         ,SEATTLE                 ,WA,KING,981194009,MARIJUANA RETAILER                 ,ACTIVE (ISSUED),20161219,2064201042,0,0
GREEN ANNE                                   ,421256,6.03E+15,312 W REPUBLICAN ST STE B     ,                         ,SEATTLE                 ,WA,KING,981194009,MARIJUANA RETAILER                 ,PENDING (NOT ISSUED),20160402,2064789364,0,0
WASHINGTON RETAIL PARTNERS                   ,424647,6.04E+15,3120 MAPLEWAY RD              ,                         ,YAKIMA                  ,WA,YAKIMA,989088929,MARIJUANA RETAILER                 ,ACTIVE (ISSUED),20170327,5094065852,0,0
SENSISOLUTIONS                               ,421282,6.03E+15,3131 STATE ROUTE 903          ,                         ,CLE ELUM                ,WA,KITTITAS,989229602,MARIJUANA RETAILER                 ,CLOSED (PERMANENT),20170105,2532262135,0,0
MUFFYS SMOKIN'GREENS                         ,413930,6.03E+15,3134 E HIGHWAY 101 SUITE A    ,                         ,PORT ANGELES            ,WA,CLALLAM,983629074,MARIJUANA RETAILER                 ,ACTIVE (ISSUED),20170103,3608082532,0,0
GREENWORKS N.W.                              ,413428,6.02E+15,315 N 105TH ST                ,                         ,SEATTLE                 ,WA,KING,981330000,MARIJUANA RETAILER                 ,ACTIVE (ISSUED),20161031,2065251300,0,0
FREMONT GARDENS                              ,421708,6.03E+15,316 N 36TH ST STE B           ,                         ,SEATTLE                 ,WA,KING,981038953,MARIJUANA RETAILER                 ,ACTIVE (ISSUED),20170124,2066327126,0,0
SWEET RELIEF CENTRAL                         ,422905,6.04E+15,320 N KELLOGG ST  STE C       ,                         ,KENNEWICK               ,WA,BENTON,993364944,MARIJUANA RETAILER                 ,PENDING (NOT ISSUED),20160405,3609096327,0,0
AMERICANNA WEED CO                           ,414649,6.03E+15,320 N KELLOGG ST STE B        ,                         ,KENNEWICK               ,WA,BENTON,993364944,MARIJUANA RETAILER                 ,CLOSED (PERMANENT),20160125,4252100546,0,0
WORLD OF WEED                                ,414449,6.03E+15,3202 E PORTLAND AVE           ,                         ,TACOMA                  ,WA,PIERCE,984044929,MARIJUANA RETAILER                 ,ACTIVE (ISSUED),20170406,2532729333,0,0
THC OF OLYMPIA                               ,421069,6.04E+15,3203 MARTIN WAY E  STE D      ,                         ,OLYMPIA                 ,WA,THURSTON,985064951,MARIJUANA RETAILER                 ,ACTIVE (ISSUED),20170228,3605397291,0,0
GANJA GODDESS                                ,413558,6.03E+15,3207 1ST AVE S UNIT A         ,                         ,SEATTLE                 ,WA,KING,981341819,MARIJUANA RETAILER                 ,ACTIVE (ISSUED),20160929,2066827220,0,0
AMERICAN MARY                                ,410332,6.03E+15,321 NE 45TH ST                ,                         ,SEATTLE                 ,WA,KING,981056133,MARIJUANA RETAILER                 ,ACTIVE (ISSUED),20161014,3038295712,0,0
CANNAZONE                                    ,422791,6.03E+15,3212 OLD HWY 99 SOUTH RD      ,                         ,MOUNT VERNON            ,WA,SKAGIT,982739070,MARIJUANA RETAILER                 ,ACTIVE (ISSUED),20161212,8602092288,0,0
THE WEED STORE LLC                           ,422920,6.04E+15,3213 S 38TH ST STE A-2        ,                         ,TACOMA                  ,WA,PIERCE,984095617,MARIJUANA RETAILER                 ,PENDING (NOT ISSUED),20160405,2533768562,0,0
THE LOCAL POT SHOP LLC                       ,422823,6.04E+15,3213 S 38TH ST STE A-3        ,                         ,TACOMA                  ,WA,PIERCE,984095617,MARIJUANA RETAILER                 ,PENDING (NOT ISSUED),20160402,2533768562,0,0
25 TREES                                     ,84154,6.03E+15,3213 S 38TH ST STE C             ,                         ,TACOMA                  ,WA,PIERCE,984041094,MARIJUANA RETAILER                 ,PENDING (ISSUED),20170405,2533768562,1,Manual Validation
GREEN RAVEN MANAGEMENT GROUP LLC             ,421557,6.03E+15,322 4TH AVE E                 ,                         ,OLYMPIA                 ,WA,THURSTON,985011107,MARIJUANA RETAILER                 ,CLOSED (PERMANENT),20170720,2537775857,0,0
LAWRENCE ENTERPRISES                         ,414881,6.03E+15,322 DANIEL LN                 ,                         ,FRIDAY HARBOR           ,WA,SAN JUAN,982500000,MARIJUANA RETAILER                 ,PENDING (NOT ISSUED),20140101,3603785575,0,0
GLOBODYNE                                    ,414982,6.03E+15,3223 PINE ST                  ,                         ,EVERETT                 ,WA,SNOHOMISH,982014536,MARIJUANA RETAILER                 ,CLOSED (PERMANENT),20151030,4258793437,0,0
SEATTLE CANNABIS COMPANY                     ,414780,6.03E+15,3230 1ST AVE S STE B          ,                         ,SEATTLE                 ,WA,KING,981340000,MARIJUANA RETAILER                 ,ACTIVE (ISSUED),20170727,2062945839,0,0
THE HIDDEN BUSH                              ,412921,6.03E+15,3230 E HWY 101                ,                         ,PORT ANGELES            ,WA,CLALLAM,983629073,MARIJUANA RETAILER                 ,ACTIVE (ISSUED),20161202,3604529395,0,0
FILLABONG                                    ,79720,6.04E+15,3249 PERRY AVE                ,SUITE B                  ,BREMERTON               ,WA,KITSAP,983105371,MARIJUANA RETAILER                 ,ACTIVE (ISSUED),20170406,3604432293,0,0
AARDVARK REEFEROLOGY                         ,413896,6.03E+15,325 NE LECHNER ST             ,                         ,CAMAS                   ,WA,CLARK,986070000,MARIJUANA RETAILER                 ,CLOSED (PERMANENT),20160217,3609075453,0,0
KING CRONIC 2                                ,422459,6.04E+15,327 SR 4                      ,                         ,CATHLAMET               ,WA,WAHKIAKUM,986120000,MARIJUANA RETAILER                 ,ACTIVE (ISSUED),20170614,3608587142,0,0
THE HERBERY                                  ,71368,6.03E+15,330 NE CHKALOV DR STE C & D   ,STE C & D                ,VANCOUVER               ,WA,CLARK,986845032,MARIJUANA RETAILER                 ,ACTIVE (ISSUED),20170216,3609079694,0,0
GREEN PEAKS N.W.LLC                          ,421848,6.04E+15,330114 HIGHWAY 2 STE A        ,                         ,NEWPORT                 ,WA,PEND OREILLE,991569302,MARIJUANA RETAILER                 ,ACTIVE (ISSUED),20170606,5099990148,0,0
GREEN SOLUTION PLACE                         ,422194,6.02E+15,3310 AUBURN WAY N STE C/D     ,                         ,AUBURN                  ,WA,KING,980021800,MARIJUANA RETAILER                 ,ACTIVE (ISSUED),20170626,2539732476,0,0
THE HERBERY                                  ,415557,6.03E+15,3312 W NOB HILL BLVD          ,                         ,YAKIMA                  ,WA,YAKIMA,989020000,MARIJUANA RETAILER                 ,CLOSED (PERMANENT),20160908,3609079694,0,0
CLEAR MIND CANNABIS                          ,422713,6.03E+15,335 E B CIRCLE                ,                         ,PASCO                   ,WA,FRANKLIN,993016402,MARIJUANA RETAILER                 ,PENDING (NOT ISSUED),20160330,3607981619,0,0
KLOUD 99                                     ,360075,6.04E+15,335 W COLUMBIA DR             ,                         ,KENNEWICK               ,WA,BENTON,993363655,MARIJUANA RETAILER                 ,PENDING (NOT ISSUED),20160326,4253817730,0,0
KALEAFA                                      ,417643,6.03E+15,33858 SR 20 STE 102           ,                         ,OAK HARBOR              ,WA,ISLAND,982772664,MARIJUANA RETAILER                 ,ACTIVE (ISSUED),20170613,3606822420,0,0
DISTRICT 420                                 ,421332,6.04E+15,3405 4TH AVE S                ,                         ,SEATTLE                 ,WA,KING,981341904,MARIJUANA RETAILER                 ,ACTIVE (ISSUED),20170127,2532134741,0,0
THE LUCKY LEAF                               ,413295,6.04E+15,3411 N CAPITAL AVE #A         ,                         ,PASCO                   ,WA,FRANKLIN,993010000,MARIJUANA RETAILER                 ,ACTIVE (ISSUED),20161202,4252603482,0,0
CREDIBLE COMMODITIES                         ,421576,6.04E+15,3416 BROADWAY AVE E STE 4     ,                         ,EVERETT                 ,WA,SNOHOMISH,982015082,MARIJUANA RETAILER                 ,ACTIVE (ISSUED),20170214,2066508928,0,0
GREEN LEAF                                   ,414918,6.04E+15,3435 BIRCH BAY LYNDEN RD      ,                         ,CUSTER                  ,WA,WHATCOM,982409507,MARIJUANA RETAILER                 ,ACTIVE (ISSUED),20161229,3603032860,0,0
JST INTERNATIONAL                            ,415053,6.03E+15,34428 PACIFIC HWY S STE A     ,                         ,FEDERAL WAY             ,WA,KING,980036440,MARIJUANA RETAILER                 ,PENDING (NOT ISSUED),20140101,2533328800,0,0
THE ICKY STICKY FACTORY                      ,420998,6.04E+15,3486 DEEP LAKE BOUNDARY RD    ,                         ,COLVILLE                ,WA,STEVENS,991149140,MARIJUANA RETAILER                 ,CLOSED (PERMANENT),20170727,5097328982,0,0
MAGIC TREE COLLECTIVE 206                    ,421151,6.03E+15,350 NE STADIUM WAY            ,UNIT B                   ,PULLMAN                 ,WA,WHITMAN,991630000,MARIJUANA RETAILER                 ,ACTIVE (ISSUED),20161222,2532056372,0,0
NSK CANNABIS                                 ,413676,6.03E+15,350 NE STADIUM WAY UNIT A     ,                         ,PULLMAN                 ,WA,WHITMAN,991630000,MARIJUANA RETAILER                 ,ACTIVE (ISSUED),20170209,2532056372,0,0
#HASHTAG                                     ,414884,6.03E+15,3540 STONE WAY N              ,                         ,SEATTLE                 ,WA,KING,981038924,MARIJUANA RETAILER                 ,ACTIVE (ISSUED),20170104,3608184000,0,0
DIEGO PELLICER                               ,415379,6.03E+15,3540 STONE WAY N STE B        ,                         ,SEATTLE                 ,WA,KING,981030000,MARIJUANA RETAILER                 ,CLOSED (PERMANENT),20170407,2066240070,0,0
THE GREENHOUSE GROUP LLC                     ,420407,6.03E+15,355 RAINIER AVE N STE C       ,STE C                    ,RENTON                  ,WA,KING,980575321,MARIJUANA RETAILER                 ,ACTIVE (ISSUED),20161220,2063952036,0,0
THE GREENHOUSE GROUP LLC                     ,420633,6.03E+15,355 RAINIER AVE NORTH  STE B  ,STE B                    ,RENTON                  ,WA,KING,980575321,MARIJUANA RETAILER                 ,ACTIVE (ISSUED),20161220,2063952036,0,0
21+ RECREATIONAL MARIJUANA                   ,422073,6.04E+15,3598 BETHEL RD SE             ,                         ,PORT ORCHARD            ,WA,KITSAP,983665605,MARIJUANA RETAILER                 ,CLOSED (PERMANENT),20170606,2064278666,0,0
LEGAL MARIJUANA SUPERSTORE                   ,417880,6.03E+15,3610 BETHEL RD SE             ,SUITE 100                ,PORT ORCHARD            ,WA,KITSAP,983670000,MARIJUANA RETAILER                 ,ACTIVE (ISSUED),20161117,3603401009,0,0
KASSABIAN GENERAL                            ,413294,6.03E+15,3620 IRONGATE RD              ,                         ,BELLINGHAM              ,WA,WHATCOM,982260000,MARIJUANA RETAILER                 ,PENDING (NOT ISSUED),20131123,3603038761,0,0
KITTITAS CANNABIS                            ,422779,6.04E+15,36711 HWY 12                  ,                         ,DAYTON                  ,WA,KITTITAS,993280000,MARIJUANA RETAILER                 ,PENDING (NOT ISSUED),20160401,5099619899,0,0
365 RECREATIONAL CANNABIS                    ,422099,6.04E+15,36711 U.S. HIGHWAY 12         ,                         ,DAYTON                  ,WA,COLUMBIA,983288622,MARIJUANA RETAILER                 ,PENDING (NOT ISSUED),20160318,4259194183,0,0
W.C.W. ENTERPRISES                           ,415445,6.03E+15,3708 MT BAKER HWY             ,                         ,EVERSON                 ,WA,WHATCOM,982470000,MARIJUANA RETAILER                 ,PENDING (ISSUED),20170704,4253127077,0,0
KGB COLLECTIVE                               ,422953,6.03E+15,3715 IRONGATE RD              ,                         ,BELLINGHAM              ,WA,WHATCOM,982268055,MARIJUANA RETAILER                 ,PENDING (NOT ISSUED),20160407,3606715991,0,0
CLOUD 9                                      ,422461,6.04E+15,3750 E VALLEY RD  STE B       ,                         ,RENTON                  ,WA,KING,980574908,MARIJUANA RETAILER                 ,PENDING (NOT ISSUED),20160315,4253518932,0,0
"J.M.H., LLC.                                 ",422746,6.04E+15,381 E MAIN ST STE C           ,                         ,MONROE                  ,WA,SNOHOMISH,982721512,MARIJUANA RETAILER                 ,PENDING (NOT ISSUED),20160331,4252098924,0,0
BOMAR HOLDINGS                               ,415127,6.03E+15,3831 HIGHWAY 3                ,                         ,SHELTON                 ,WA,MASON,985840000,MARIJUANA RETAILER                 ,PENDING (NOT ISSUED),20140103,2062952411,0,0
OZ.                                          ,415348,6.03E+15,3831 STONE WAY N              ,                         ,SEATTLE                 ,WA,KING,981038005,MARIJUANA RETAILER                 ,ACTIVE (ISSUED),20170504,2062510630,0,0
8 BALL BARRISTER                             ,421562,6.03E+15,3833 PACIFIC AVE STE 3-C      ,                         ,TACOMA                  ,WA,PIERCE,984187897,MARIJUANA RETAILER                 ,ACTIVE (ISSUED),20170406,2533700736,0,0
TOP SHELF CANNABIS                           ,414256,6.03E+15,3863 HANNEGAN RD              ,                         ,BELLINGHAM              ,WA,WHATCOM,982269103,MARIJUANA RETAILER                 ,ACTIVE (ISSUED),20161017,3602243735,0,0
THE FORBIDDEN FLOWER LLC                     ,422328,6.03E+15,3902 W CLEARWATER AVE         ,STE 108                  ,KENNEWICK               ,WA,BENTON,993362677,MARIJUANA RETAILER                 ,PENDING (NOT ISSUED),20160308,2062350635,0,0
HIGH SOCIETY                                 ,423977,6.03E+15,3906 S 12TH ST                ,                         ,TACOMA                  ,WA,PIERCE,984051507,MARIJUANA RETAILER                 ,ACTIVE (ISSUED),20170626,3606610168,0,0
OLD TOBY                                     ,413551,6.03E+15,391 NW STATE AVE STE 1        ,                         ,CHEHALIS                ,WA,LEWIS,985321637,MARIJUANA RETAILER                 ,ACTIVE (ISSUED),20161109,3604853255,0,0
HIGH VIBRATIONS                              ,422638,6.04E+15,39192 SE PARK ST              ,                         ,SNOQUALMIE              ,WA,KING,980659181,MARIJUANA RETAILER                 ,PENDING (NOT ISSUED),20160325,4254422860,0,0
EVERGREEN STATE ENTERPRISES LLC              ,421878,6.04E+15,3941 COLVILLE RD              ,                         ,LOON LAKE               ,WA,STEVENS,991480000,MARIJUANA RETAILER                 ,PENDING (NOT ISSUED),20160405,3604702621,0,0
HL STYLE                                     ,413805,6.04E+15,3948 3RD AVE                  ,                         ,LOON LAKE               ,WA,STEVENS,981489683,MARIJUANA RETAILER                 ,PENDING (NOT ISSUED),20160312,4252182040,0,0
JD'S COLLECTIVE GARDEN                       ,420470,6.03E+15,39817B N NEWPORT HWY          ,                         ,ELK                     ,WA,SPOKANE,990099799,MARIJUANA RETAILER                 ,PENDING (NOT ISSUED),20151015,5092920439,0,0
B STREET BUD                                 ,414558,6.03E+15,400 BURDIN AVE                ,                         ,GRAND COULEE            ,WA,GRANT,991330000,MARIJUANA RETAILER                 ,ACTIVE (ISSUED),20160920,5096332453,0,0
THE GREEN SHELF                              ,414958,6.03E+15,400 S. MAIN STREET            ,UNIT #1                  ,ELLENSBURG              ,WA,KITTITAS,989260000,MARIJUANA RETAILER                 ,PENDING (ISSUED),20170613,2065560305,0,0
DIAMOND GREEN                                ,413374,6.03E+15,4002 S 12TH ST                ,                         ,TACOMA                  ,WA,PIERCE,984051509,MARIJUANA RETAILER                 ,ACTIVE (ISSUED),20161213,2532225697,0,0
STATION 420                                  ,413596,6.03E+15,4007 MAIN ST                  ,                         ,UNION GAP               ,WA,YAKIMA,989032040,MARIJUANA RETAILER                 ,ACTIVE (ISSUED),20170523,5094203430,0,0
EVERGREEN MARKET - IKEA DISTRICT             ,420338,6.04E+15,401 RAINIER AVE N STE 1       ,                         ,RENTON                  ,WA,KING,980575319,MARIJUANA RETAILER                 ,CLOSED (PERMANENT),20170412,4257652935,0,0
UNCLE ANDO'S WURLD OF WEED                   ,414345,6.04E+15,401 SOUTH BOONE               ,                         ,ABERDEEN                ,WA,GRAYS HARBOR,985208508,MARIJUANA RETAILER                 ,ACTIVE (ISSUED),20170522,4255036116,0,0
EVERGREEN MARKET - AUBURN                    ,414714,6.03E+15,402 16TH ST NE STE A-100      ,                         ,AUBURN                  ,WA,KING,980021600,MARIJUANA RETAILER                 ,ACTIVE (ISSUED),20161104,2068527155,0,0
THE GRASS STATION                            ,423092,6.04E+15,403 FRONTAGE RD               ,                         ,GEORGE                  ,WA,GRANT,988480000,MARIJUANA RETAILER                 ,CLOSED (PERMANENT),20170504,5093158459,0,0
EMERALD HAZE CANNABIS EMPORIUM               ,414841,6.03E+15,4033 NE SUNSET BLVD UNIT 5    ,                         ,RENTON                  ,WA,KING,980564003,MARIJUANA RETAILER                 ,ACTIVE (ISSUED),20161129,2533069151,0,0
MARIJUANA DEPOT                              ,422027,6.03E+15,404 AUBURN WAY S STE 100      ,SUITE 100                ,AUBURN                  ,WA,KING,980025418,MARIJUANA RETAILER                 ,ACTIVE (ISSUED),20170510,2063917365,0,0
GREEN STATION 1                              ,415308,6.02E+15,4040 AUBURN WAY N STE 5       ,                         ,AUBURN                  ,WA,KING,980021394,MARIJUANA RETAILER                 ,PENDING (NOT ISSUED),20140103,2062413760,0,0
MARGIES'S POT SHOP LLC                       ,413414,6.03E+15,405 E STUEBEN                 ,                         ,BINGEN                  ,WA,KLICKITAT,986050000,MARIJUANA RETAILER                 ,ACTIVE (ISSUED),20160719,5094930441,0,0
AXIS MANAGEMENT LLC                          ,422962,6.03E+15,405 E UNION ST                ,                         ,CENTRALIA               ,WA,LEWIS,985313759,MARIJUANA RETAILER                 ,PENDING (NOT ISSUED),20160405,3607912094,0,0
MARIJUANA MART                               ,422450,6.03E+15,405 E UNION ST                ,                         ,CENTRALIA               ,WA,LEWIS,985313759,MARIJUANA RETAILER                 ,ACTIVE (ISSUED),20160823,3607891364,0,0
HAPPY TREES                                  ,424273,6.03E+15,407 E 1ST ST                  ,                         ,CLE ELUM                ,WA,KITTITAS,989221255,MARIJUANA RETAILER                 ,ACTIVE (ISSUED),20170507,2532262135,0,0
THE EVERGREEN MARKET-RENTON AIRPORT          ,413791,6.03E+15,409 RAINIER AVE N             ,                         ,RENTON                  ,WA,KING,980575319,MARIJUANA RETAILER                 ,ACTIVE (ISSUED),20170127,4253188898,0,0
420 WEST                                     ,414733,6.03E+15,410 RONLEE LN NW A1           ,                         ,OLYMPIA                 ,WA,THURSTON,985029266,MARIJUANA RETAILER                 ,ACTIVE (ISSUED),20170124,3604026368,0,0
FLOYDS                                       ,422049,6.04E+15,410 W STATE ST                ,                         ,SEDRO WOOLLEY           ,WA,SKAGIT,982841557,MARIJUANA RETAILER                 ,ACTIVE (ISSUED),20170301,3606207114,0,0
THE SLOW BURN                                ,413773,6.03E+15,4101 MAIN STREET              ,                         ,UNION GAP               ,WA,YAKIMA,989032042,MARIJUANA RETAILER                 ,ACTIVE (ISSUED),20170616,5098234792,0,0
LOVELY BUDS                                  ,422278,6.04E+15,4107 E SPRAGUE AVE            ,                         ,SPOKANE                 ,WA,SPOKANE,992024850,MARIJUANA RETAILER                 ,PENDING (ISSUED),20170420,2082904347,0,0
WASHINGTON RETAIL PARTNERS LLC               ,422602,6.04E+15,4111 W CLEARWATER AVE STE A   ,                         ,KENNEWICK               ,WA,BENTON,993360000,MARIJUANA RETAILER                 ,ACTIVE (ISSUED),20170717,2067697115,0,0
JACOB JAMES SATTLEEN                         ,413302,6.02E+15,412 N RIVER RD                ,                         ,USK                     ,WA,PEND OREILLE,991800000,MARIJUANA RETAILER                 ,CLOSED (PERMANENT),20161019,5094471032,0,0
THE GREEN SEED                               ,86054,6.03E+15,412 S INTERLAKE RD            ,                         ,MOSES LAKE              ,WA,GRANT,988372908,MARIJUANA RETAILER                 ,ACTIVE (ISSUED),20170609,5098552271,0,0
GREEN2GO PASCO                               ,422782,6.04E+15,415 N COMMERCIAL AVE          ,                         ,PASCO                   ,WA,FRANKLIN,99301,MARIJUANA RETAILER                 ,PENDING (NOT ISSUED),20160401,5095917100,0,0
ONE STOP POT SHOP                            ,422521,6.01E+15,416 E 1ST ST                  ,                         ,PORT ANGELES            ,WA,CLALLAM,983623112,MARIJUANA RETAILER                 ,PENDING (NOT ISSUED),20160318,3607750745,0,0
EMERALD PUFF                                 ,422880,6.03E+15,416 E 1ST ST   STE B          ,                         ,PORT ANGELES            ,WA,CLALLAM,983623112,MARIJUANA RETAILER                 ,PENDING (NOT ISSUED),20160402,2066511544,0,0
GREEN CONNECTION NORTHWEST                   ,414450,6.03E+15,417 NW 65TH ST                ,                         ,SEATTLE                 ,WA,KING,981175027,MARIJUANA RETAILER                 ,ACTIVE (ISSUED),20161212,2066175646,0,0
LAST STOP POT SHOP                           ,415509,6.03E+15,"41711 STATE ROUTE 2, #1       ",                         ,GOLD BAR                ,WA,SNOHOMISH,982510000,MARIJUANA RETAILER                 ,ACTIVE (ISSUED),20161129,3602178951,0,0
A BUD & LEAF                                 ,413821,6.03E+15,421 LILLY RD SE               ,                         ,OLYMPIA                 ,WA,THURSTON,985012108,MARIJUANA RETAILER                 ,ACTIVE (ISSUED),20170117,3608706000,0,0
SWEET RELEAF LLC                             ,422773,6.04E+15,4212 W CLEARWATER AVE         ,                         ,KENNEWICK               ,WA,BENTON,993362626,MARIJUANA RETAILER                 ,PENDING (NOT ISSUED),20160401,2069621025,0,0
PURPLE HAZE                                  ,414680,6.03E+15,4218 RUCKER AVE               ,                         ,EVERETT                 ,WA,SNOHOMISH,982032214,MARIJUANA RETAILER                 ,ACTIVE (ISSUED),20170512,4252583054,0,0
420 CARPENTER                                ,415083,6.03E+15,422 CARPENTER RD STE 105      ,                         ,LACEY                   ,WA,THURSTON,985037906,MARIJUANA RETAILER                 ,ACTIVE (ISSUED),20170124,3604026368,0,0
GREEN LEAF                                   ,413886,6.03E+15,4220 MERIDIAN ST STE 102      ,                         ,BELLINGHAM              ,WA,WHATCOM,982269153,MARIJUANA RETAILER                 ,ACTIVE (ISSUED),20161229,3605262198,0,0
GREENX3                                      ,414277,6.03E+15,4235 OLYMPIC DR W             ,                         ,BREMERTON               ,WA,KITSAP,983120000,MARIJUANA RETAILER                 ,PENDING (ISSUED),20170531,2538964100,0,0
EVERGREEN MARKET - IKEA DISTRICT             ,424747,6.04E+15,4242 E VALLEY RD              ,                         ,RENTON                  ,WA,KING,980574903,MARIJUANA RETAILER                 ,ACTIVE (ISSUED),20170512,4253188898,0,0
2020 SOLUTIONS                               ,422139,6.03E+15,4264 PACIFIC HWY              ,                         ,BELLINGHAM              ,WA,WHATCOM,982269042,MARIJUANA RETAILER                 ,ACTIVE (ISSUED),20170417,2063999999,0,0
THE SLOW BURN                                ,414996,6.03E+15,4278C W VAN GIESEN ST         ,                         ,WEST RICHLAND           ,WA,BENTON,993535066,MARIJUANA RETAILER                 ,ACTIVE (ISSUED),20170601,5093140968,0,0
HARBOR CANNABIS                              ,422776,6.04E+15,428 10TH ST                   ,                         ,HOQUIAM                 ,WA,GRAYS HARBOR,985503804,MARIJUANA RETAILER                 ,PENDING (NOT ISSUED),20160401,5099619899,0,0
THE BLACK MARKET                             ,353993,6.03E+15,428 10TH ST                   ,                         ,HOQUIAM                 ,WA,GRAYS HARBOR,985500000,MARIJUANA RETAILER                 ,ACTIVE (ISSUED),20170109,2533816311,0,0
HIGH 502                                     ,421726,6.03E+15,429 STATE HIGHWAY 506         ,                         ,TOLEDO                  ,WA,LEWIS,985910000,MARIJUANA RETAILER                 ,ACTIVE (ISSUED),20161108,2532731260,0,0
GREEN TOKEN CANNABIS                         ,421759,6.04E+15,430 CARPENTER RD SE           ,                         ,LACEY                   ,WA,THURSTON,985037930,MARIJUANA RETAILER                 ,ACTIVE (ISSUED),20161202,2532287644,0,0
BUDDY'S                                      ,413893,6.03E+15,430 SUNSET BLVD NE STE A      ,                         ,RENTON                  ,WA,KING,980575512,MARIJUANA RETAILER                 ,ACTIVE (ISSUED),20161228,4254080395,0,0
BEST BUDZ                                    ,413964,6.02E+15,4308 103RD PL NE              ,                         ,MARYSVILLE              ,WA,SNOHOMISH,982718634,MARIJUANA RETAILER                 ,PENDING (NOT ISSUED),20131224,4252689816,0,0
STATION 420                                  ,414250,6.03E+15,4315 MAIN ST STE A            ,                         ,UNION GAP               ,WA,YAKIMA,989032115,MARIJUANA RETAILER                 ,ACTIVE (ISSUED),20170420,5098335800,0,0
MR GREEN JEANS                               ,414973,6.04E+15,4316 NE 399TH ST              ,                         ,LA CENTER               ,WA,CLARK,986294627,MARIJUANA RETAILER                 ,ACTIVE (ISSUED),20170315,3609034055,0,0
THE JOINT                                    ,415234,6.03E+15,4336 ROOSEVELT WAY NE STE C   ,                         ,SEATTLE                 ,WA,KING,981054764,MARIJUANA RETAILER                 ,PENDING (NOT ISSUED),        ,2062854005,0,0
DABNABBITS                                   ,420764,6.03E+15,44 ROCK ISLAND RD             ,                         ,EAST WENATCHEE          ,WA,DOUGLAS,988025382,MARIJUANA RETAILER                 ,PENDING (NOT ISSUED),20160304,5098607111,0,0
SAVAGE THC                                   ,412066,6.03E+15,4428 WILLIAMS VALLEY RD STE A ,                         ,CLAYTON                 ,WA,STEVENS,991109745,MARIJUANA RETAILER                 ,ACTIVE (ISSUED),20170304,5099992989,0,0
POT STOP                                     ,420819,6.03E+15,4465 FREMONT AVE N            ,                         ,SEATTLE                 ,WA,KING,981037225,MARIJUANA RETAILER                 ,ACTIVE (ISSUED),20170104,2064469291,0,0
THE HERBAL CENTER                            ,415484,6.03E+15,449 WICHMAN ST S STE A        ,                         ,TENINO                  ,WA,THURSTON,985899376,MARIJUANA RETAILER                 ,ACTIVE (ISSUED),20160909,3608274217,0,0
WESTSIDE420 RECREATIONAL                     ,412466,6.03E+15,4503 OCEAN BEACH HWY STE 103  ,                         ,LONGVIEW                ,WA,COWLITZ,986325055,MARIJUANA RETAILER                 ,PENDING (ISSUED),20170727,3604235261,0,0
SWEET MARY JANE'S                            ,412467,6.02E+15,4525 5TH AVE NE               ,                         ,SEATTLE                 ,WA,KING,981054816,MARIJUANA RETAILER                 ,PENDING (NOT ISSUED),20131120,2069620346,0,0
HERBAL HEALING                               ,420390,6.03E+15,46 HOPE LN                    ,                         ,EASTSOUND               ,WA,SAN JUAN,98245,MARIJUANA RETAILER                 ,PENDING (NOT ISSUED),20160315,3608133644,0,0
EPHEMERAL TOAST                              ,424463,6.04E+15,4601 LEARY WAY NW             ,                         ,SEATTLE                 ,WA,KING,981074544,MARIJUANA RETAILER                 ,PENDING (ISSUED),20170309,2066186094,0,0
CANNABIS SUPER STORE LLC                     ,422745,6.04E+15,4710 EAGLE HARBOR DR. UNIT A  ,                         ,BAINBRIDGE ISLAND       ,WA,KITSAP,981102188,MARIJUANA RETAILER                 ,PENDING (NOT ISSUED),20160330,4255030962,0,0
TOP SHELF CANNABIS                           ,417469,6.03E+15,4712 PACIFIC HWY              ,                         ,BELLINGHAM              ,WA,WHATCOM,982269049,MARIJUANA RETAILER                 ,ACTIVE (ISSUED),20161018,3603194102,0,0
NATURALLY GREEN CARE CENTER                  ,357353,6.03E+15,476 STATE ROUTE 505           ,                         ,WINLOCK                 ,WA,LEWIS,985969750,MARIJUANA RETAILER                 ,ACTIVE (ISSUED),20160914,2532731260,0,0
EMERALD CITY CRONICS                         ,420908,6.04E+15,4770 PACIFIC HWY STE A        ,                         ,BELLINGHAM              ,WA,WHATCOM,98226,MARIJUANA RETAILER                 ,ACTIVE (ISSUED),20161005,2067908124,0,0
ORIGINS CANNABIS                             ,423402,6.04E+15,4800 40TH AVE SW STE B        ,STE B                    ,SEATTLE                 ,WA,KING,981164506,MARIJUANA RETAILER                 ,ACTIVE (ISSUED),20161103,2065511309,0,0
THE HERBAL GARDENS                           ,423634,6.03E+15,4803 CENTER STREET STE A      ,                         ,TACOMA                  ,WA,PIERCE,984092319,MARIJUANA RETAILER                 ,ACTIVE (ISSUED),20160830,2532725265,0,0
ALWAYS GREEN LLC                             ,422058,6.04E+15,4812 PACIFIC AVE SE STE A     ,                         ,LACEY                   ,WA,THURSTON,985031218,MARIJUANA RETAILER                 ,PENDING (NOT ISSUED),20160308,3608904918,0,0
BEAUTIFUL GREEN LLC                          ,422805,6.04E+15,4812 PACIFIC AVE SE STE B     ,                         ,LACEY                   ,WA,THURSTON,985031218,MARIJUANA RETAILER                 ,PENDING (NOT ISSUED),20160402,3608904918,0,0
LUCID                                        ,414963,6.03E+15,4820 YELM HWY SE SUITE D      ,                         ,LACEY                   ,WA,THURSTON,985033402,MARIJUANA RETAILER                 ,ACTIVE (ISSUED),20161128,5304010839,0,0
THE CANNABIS CORNER                          ,413897,6.03E+15,484 EVERGREEN DR              ,                         ,NORTH BONNEVILLE        ,WA,SKAMANIA,986394619,MARIJUANA RETAILER                 ,ACTIVE (ISSUED),20170207,9715701621,0,0
GREENWAY MARIJUANA                           ,413541,6.03E+15,4851 GEIGER RD SE             ,                         ,PORT ORCHARD            ,WA,KITSAP,983669350,MARIJUANA RETAILER                 ,ACTIVE (ISSUED),20161026,3604436988,0,0
LEGAL MARIJUANA SUPERSTORE 2                 ,420509,6.04E+15,487 SR 409                    ,                         ,CATHLAMET               ,WA,WAHKIAKUM,986120000,MARIJUANA RETAILER                 ,PENDING (NOT ISSUED),20160315,3603401009,0,0
LUX POT SHOP                                 ,414532,6.03E+15,4912 17TH AVE NW STE A        ,                         ,SEATTLE                 ,WA,KING,981074726,MARIJUANA RETAILER                 ,ACTIVE (ISSUED),20170615,2062459919,0,0
NIRVANA CANNABIS COMPANY                     ,424951,6.03E+15,4950 ARENA RD                 ,                         ,RICHLAND                ,WA,BENTON,993527857,MARIJUANA RETAILER                 ,ACTIVE (ISSUED),20170519,5098082391,0,0
FILLABONG                                    ,415210,6.04E+15,4978 SE MILE HILL DR          ,                         ,PORT ORCHARD            ,WA,KITSAP,983662102,MARIJUANA RETAILER                 ,CLOSED (PERMANENT),20170406,3604432293,0,0
URBAN GARDEN SPECIALTY                       ,422604,6.03E+15,50 LEES PLACE SUITE A         ,                         ,CHELAN                  ,WA,CHELAN,988169775,MARIJUANA RETAILER                 ,PENDING (NOT ISSUED),20160322,5098884406,0,0
THE HAPPY CROP SHOPPE                        ,413481,6.03E+15,50 ROCK ISLAND RD             ,                         ,EAST WENATCHEE          ,WA,DOUGLAS,988025352,MARIJUANA RETAILER                 ,ACTIVE (ISSUED),20161019,5098881597,0,0
UNCLE IKE'S                                  ,421141,6.04E+15,501 15TH AVE E                ,                         ,SEATTLE                 ,WA,KING,981120000,MARIJUANA RETAILER                 ,ACTIVE (ISSUED),20170707,2063915510,0,0
GOING GREEN                                  ,415185,6.03E+15,503 W PROSPECT AVE            ,                         ,MOXEE                   ,WA,YAKIMA,989369810,MARIJUANA RETAILER                 ,PENDING (NOT ISSUED),20140103,5099610810,0,0
MOLECULE                                     ,72413,6.04E+15,51 MORGAN ST UNIT A           ,                         ,DAVENPORT               ,WA,LINCOLN,991229553,MARIJUANA RETAILER                 ,PENDING (ISSUED),20170325,5098084808,0,0
"NATURAL GREEN, INC.                          ",421687,6.04E+15,51 MORGAN ST UNIT B           ,                         ,DAVENPORT               ,WA,LINCOLN,991220000,MARIJUANA RETAILER                 ,ACTIVE (ISSUED),20170308,2062269725,0,0
KNN MANAGEMENT LLC                           ,415008,6.03E+15,5100 PACIFIC HWY              ,                         ,FERNDALE                ,WA,WHATCOM,982488927,MARIJUANA RETAILER                 ,PENDING (NOT ISSUED),20131231,2539518530,0,0
PRC                                          ,421084,6.03E+15,5200 172ND ST NE F-101        ,                         ,ARLINGTON               ,WA,SNOHOMISH,982234703,MARIJUANA RETAILER                 ,ACTIVE (ISSUED),20170616,4253432272,0,0
A GREENER TODAY MARIJUANA                    ,414441,6.03E+15,5209 MARTIN LUTHER KING JR.   ,WAY S                    ,SEATTLE                 ,WA,KING,981186131,MARIJUANA RETAILER                 ,ACTIVE (ISSUED),20161230,4257736037,0,0
WEST CHOICE                                  ,413987,6.03E+15,5209 POINT FOSDICK DR NW #202 ,                         ,GIG HARBOR              ,WA,PIERCE,983350000,MARIJUANA RETAILER                 ,CLOSED (PERMANENT),20160222,2532250200,0,0
DADANKO                                      ,422097,6.04E+15,529 E HWY 395  STE A          ,SUITE A                  ,KETTLE FALLS            ,WA,STEVENS,991410000,MARIJUANA RETAILER                 ,ACTIVE (ISSUED),20170619,5094750723,0,0
MARIJUANA MART                               ,420400,6.03E+15,530 7TH AVE STE D             ,                         ,LONGVIEW                ,WA,COWLITZ,986320000,MARIJUANA RETAILER                 ,ACTIVE (ISSUED),20160722,3607891364,0,0
THE SOURCE                                   ,420292,6.03E+15,5300 17TH AVE NW              ,STE A                    ,SEATTLE                 ,WA,KING,981070000,MARIJUANA RETAILER                 ,ACTIVE (ISSUED),20161115,2063952036,0,0
WASHINGTON O G                               ,420382,6.03E+15,5300 17TH AVE NW   STE B      ,                         ,SEATTLE                 ,WA,KING,981073815,MARIJUANA RETAILER                 ,ACTIVE (ISSUED),20161014,2063952036,0,0
NW ARTIFACTS LLC                             ,413812,6.03E+15,5303 PACIFIC HWY E            ,                         ,FIFE                    ,WA,PIERCE,984242601,MARIJUANA RETAILER                 ,PENDING (NOT ISSUED),20131220,2538586202,0,0
THE LOCAL JOINT                              ,414539,6.03E+15,5309 GUIDE MERIDIAN RD SUITE A,                         ,BELLINGHAM              ,WA,WHATCOM,982260000,MARIJUANA RETAILER                 ,ACTIVE (ISSUED),20170609,3603063257,0,0
MISTER BUDS                                  ,414735,6.02E+15,536 MARINE DR STE B           ,                         ,PORT ANGELES            ,WA,CLALLAM,983632230,MARIJUANA RETAILER                 ,ACTIVE (ISSUED),20160923,3607971966,0,0
GOODBUDS                                     ,415294,6.02E+15,5384 NW K RD STE A            ,                         ,QUINCY                  ,WA,GRANT,988480000,MARIJUANA RETAILER                 ,ACTIVE (ISSUED),20170308,5093988843,0,0
CANNA WEST SEATTLE                           ,424057,6.03E+15,5435 CALIFORNIA AVE SW        ,                         ,SEATTLE                 ,WA,KING,981361512,MARIJUANA RETAILER                 ,ACTIVE (ISSUED),20170324,2066969240,0,0
LTC                                          ,420666,6.03E+15,5440 CALIFORNIA AVE SW        ,                         ,SEATTLE                 ,WA,KING,981361513,MARIJUANA RETAILER                 ,CLOSED (PERMANENT),20170130,2066969240,0,0
BLOWIN SMOKE                                 ,414902,6.03E+15,545 C HWY 395 S               ,                         ,COLVILLE                ,WA,STEVENS,991140000,MARIJUANA RETAILER                 ,CLOSED (PERMANENT),20160225,5096758564,0,0
BELLINGHAM MARIJUANA                         ,422612,6.04E+15,5463 GUIDE MERIDIAN RD        ,                         ,BELLINGHAM              ,WA,WHATCOM,982269771,MARIJUANA RETAILER                 ,ACTIVE (ISSUED),20170401,2067553751,0,0
HERBAN LEGENDS                               ,420291,6.03E+15,55 BELL ST STE 100            ,                         ,SEATTLE                 ,WA,KING,981211762,MARIJUANA RETAILER                 ,ACTIVE (ISSUED),20170407,2068495596,0,0
KING CRONIC 3                                ,413846,6.04E+15,551 14TH AVE                  ,                         ,LONGVIEW                ,WA,COWLITZ,986321601,MARIJUANA RETAILER                 ,ACTIVE (ISSUED),20161114,3609676056,0,0
ISLAND HERB                                  ,413727,6.03E+15,5565 VANBARR PLACE UNIT F     ,                         ,FREELAND                ,WA,ISLAND,982490000,MARIJUANA RETAILER                 ,ACTIVE (ISSUED),20161115,3603312898,0,0
ALL GREEN ORGANIC                            ,413345,6.03E+15,560-1 HAWK HAVEN RD           ,                         ,CLE ELUM                ,WA,KITTITAS,989228421,MARIJUANA RETAILER                 ,PENDING (NOT ISSUED),20160308,2532195040,0,0
"PABLO & CO., LLC                             ",422138,6.04E+15,5602 STATE ROUTE 270 STE B    ,                         ,PULLMAN                 ,WA,WHITMAN,991638708,MARIJUANA RETAILER                 ,ACTIVE (ISSUED),20170118,4257896996,0,0
AIRPLANE MODE                                ,420749,6.04E+15,5608 117TH ST SW              ,                         ,LAKEWOOD                ,WA,PIERCE,984994913,MARIJUANA RETAILER                 ,CLOSED (PERMANENT),20170731,8087828937,0,0
SATORI                                       ,422703,6.04E+15,5623 W CLEARWATER AVE STE B   ,                         ,KENNEWICK               ,WA,BENTON,993361966,MARIJUANA RETAILER                 ,ACTIVE (ISSUED),20170717,5202508988,0,0
THE KUSHERY                                  ,415507,6.03E+15,5626 134TH PL SE STE B        ,                         ,EVERETT                 ,WA,SNOHOMISH,982080000,MARIJUANA RETAILER                 ,ACTIVE (ISSUED),20170324,4256337515,0,0
THC OF OLYMPIA                               ,368015,6.04E+15,5628 OLD HWY 410 SW STE A     ,STE A                    ,OLYMPIA                 ,WA,THURSTON,985129422,MARIJUANA RETAILER                 ,ACTIVE (ISSUED),20170327,3605616364,0,0
2020 SOLUTIONS                ,413314,6.03E+15,5655 GUIDE MERIDIAN STE A     ,                         ,BELLINGHAM              ,WA,WHATCOM,982269722,MARIJUANA RETAILER                 ,ACTIVE (ISSUED),20170623,3607342020,0,0
CANNAZONE                                    ,421813,6.03E+15,5655 GUIDE MERIDIAN STE B     ,SUITE B                  ,BELLINGHAM              ,WA,WHATCOM,982269722,MARIJUANA RETAILER                 ,ACTIVE (ISSUED),20170124,8602092288,0,0
MILLER'S MARIJUANA                           ,415001,6.03E+15,5675 STATE ROUTE 12 STE 1     ,                         ,ELMA                    ,WA,GRAYS HARBOR,985410000,MARIJUANA RETAILER                 ,ACTIVE (ISSUED),20161129,3604709265,0,0
AUDYSEA                                      ,422175,6.04E+15,5703 OLYMPIC HWY              ,                         ,ABERDEEN                ,WA,GRAYS HARBOR,985200000,MARIJUANA RETAILER                 ,PENDING (ISSUED),20170606,3605616972,0,0
OSJ INCORPORATED                             ,422768,6.04E+15,5705 OLYMPIC HWY              ,                         ,ABERDEEN                ,WA,GRAYS HARBOR,985208864,MARIJUANA RETAILER                 ,PENDING (NOT ISSUED),20160401,2532269284,0,0
THE HAPPY CROP SHOPPE                        ,413600,6.03E+15,5736 VALE RD                  ,                         ,CASHMERE                ,WA,CHELAN,988150000,MARIJUANA RETAILER                 ,ACTIVE (ISSUED),20161019,5098882454,0,0
T BROTHERS BUD LODGE                         ,414002,6.03E+15,5740 RUDDEL RD  STE C         ,                         ,LACEY                   ,WA,THURSTON,985030000,MARIJUANA RETAILER                 ,ACTIVE (ISSUED),20161205,3602597610,0,0
KEYSTONE CREATIONS                           ,414089,6.03E+15,5809 112TH ST E               ,BLDG A                   ,PUYALLUP                ,WA,PIERCE,983730000,MARIJUANA RETAILER                 ,CLOSED (PERMANENT),20160720,2533559704,0,0
112TH STREET CANNABIS                        ,423413,6.03E+15,5809 112TH ST E BLDG B        ,                         ,PUYALLUP                ,WA,PIERCE,983734323,MARIJUANA RETAILER                 ,ACTIVE (ISSUED),20161014,2067926857,0,0
SWEET JANE                                   ,413503,6.03E+15,5815 112TH ST E               ,                         ,PUYALLUP                ,WA,PIERCE,983730000,MARIJUANA RETAILER                 ,CLOSED (PERMANENT),20170113,2063341780,0,0
WHIDBEY ISLAND CANNABIS CO.                  ,417511,6.03E+15,5826 S KRAMER RD STE A        ,                         ,LANGLEY                 ,WA,ISLAND,982609236,MARIJUANA RETAILER                 ,ACTIVE (ISSUED),20170131,3603216151,0,0
VISION RESEARCH GROUP LLC                    ,422695,6.03E+15,5826 SOUTH KRAMER ROAD # A-2  ,                         ,LANGLEY                 ,WA,ISLAND,98260,MARIJUANA RETAILER                 ,PENDING (NOT ISSUED),20160329,2066173676,0,0
WASHINGTON RETAIL PARTNERS                   ,415148,6.04E+15,591 STATE RTE 821  STE B      ,STE B                    ,YAKIMA                  ,WA,YAKIMA,989019396,MARIJUANA RETAILER                 ,CLOSED (PERMANENT),20170324,5094065852,0,0
TRIPLE C COLLECTIVE                          ,420785,6.03E+15,5917 N 26TH ST STE A          ,                         ,TACOMA                  ,WA,PIERCE,984072359,MARIJUANA RETAILER                 ,PENDING (ISSUED),20170712,NONE GIVEN,0,0
FLOYD'S CANNABIS COMPANY                     ,422055,6.04E+15,5952 AIRPORT RD               ,                         ,PULLMAN                 ,WA,WHITMAN,991638958,MARIJUANA RETAILER                 ,ACTIVE (ISSUED),20170725,2065270435,0,0
CLOUD 9                                      ,422595,6.04E+15,5952 AIRPORT RD STE A         ,                         ,PULLMAN                 ,WA,WHITMAN,991638958,MARIJUANA RETAILER                 ,PENDING (NOT ISSUED),20160323,4253518932,0,0
420 CAPITOL                                  ,424848,6.04E+15,5980 CAPITOL BLVD SE          ,                         ,TUMWATER                ,WA,THURSTON,985015274,MARIJUANA RETAILER                 ,ACTIVE (ISSUED),20170724,3604026368,0,0
ROSLYN HERBS                                 ,414460,6.03E+15,600 S FIRST STREET            ,                         ,ROSLYN                  ,WA,KITTITAS,989410000,MARIJUANA RETAILER                 ,ACTIVE (ISSUED),20161227,4256478338,0,0
THE HERBERY                                  ,413848,6.03E+15,6018 NE ST JOHNS RD STE D     ,                         ,VANCOUVER               ,WA,CLARK,986610000,MARIJUANA RETAILER                 ,ACTIVE (ISSUED),20161128,3609490319,0,0
ALL NATURAL HERBS LLC                        ,422709,6.04E+15,6020 PACIFIC AVE SE # M1973   ,                         ,LACEY                   ,WA,THURSTON,985031319,MARIJUANA RETAILER                 ,PENDING (NOT ISSUED),20160329,3602393363,0,0
NATURAL HEALTH COLLECTIVE                    ,421502,6.03E+15,6020 PACIFIC AVE SE STE M     ,                         ,LACEY                   ,WA,THURSTON,985031319,MARIJUANA RETAILER                 ,PENDING (NOT ISSUED),20151215,3602393363,0,0
MARIJUANA MART                               ,419640,6.03E+15,6039 SW 197TH AVE             ,                         ,ROCHESTER               ,WA,THURSTON,985799250,MARIJUANA RETAILER                 ,ACTIVE (ISSUED),20161205,3608587188,0,0
CANNABIS & GLASS                             ,360307,6.03E+15,605 E FRANCIS                 ,                         ,SPOKANE                 ,WA,SPOKANE,992080000,MARIJUANA RETAILER                 ,ACTIVE (ISSUED),20161215,5099991112,0,0
CULT. CANNABIS CO.                           ,413729,6.03E+15,6061 PORTAL WAY               ,                         ,FERNDALE                ,WA,WHATCOM,982489360,MARIJUANA RETAILER                 ,ACTIVE (ISSUED),20170626,3605941122,0,0
SEATTLE PATIENTS GROUP INC                   ,422445,6.03E+15,607 AARON DR SUITE B          ,                         ,RICHLAND                ,WA,BENTON,99352,MARIJUANA RETAILER                 ,PENDING (NOT ISSUED),20160315,2066438576,0,0
GREEN REVOLUTION LLC                         ,422751,6.04E+15,6101 NE MINDER RD STE A-2     ,                         ,POULSBO                 ,WA,KITSAP,983708852,MARIJUANA RETAILER                 ,PENDING (NOT ISSUED),20160331,2062915544,0,0
GROWERS OUTLET                               ,415124,6.03E+15,613 MONTANA AVE STE 2         ,                         ,SOUTH BEND              ,WA,PACIFIC,985860000,MARIJUANA RETAILER                 ,PENDING (ISSUED),20170329,3605415888,0,0
THE 420 GRASS STATION                        ,421786,6.04E+15,6131 CAPITOL BLVD S SUITE B   ,                         ,TUMWATER                ,WA,THURSTON,985015270,MARIJUANA RETAILER                 ,CLOSED (PERMANENT),20170517,3604026368,0,0
BELLEVUE MARIJUANA                           ,415253,6.03E+15,614 116TH AVE NE              ,                         ,BELLEVUE                ,WA,KING,980045206,MARIJUANA RETAILER                 ,ACTIVE (ISSUED),20161014,4254535749,0,0
SKY HIGH POT SHOP                            ,414749,6.04E+15,6167 PORTAL WAY               ,                         ,FERNDALE                ,WA,WHATCOM,982489363,MARIJUANA RETAILER                 ,ACTIVE (ISSUED),20170630,2063357713,0,0
IGREEN                                       ,421629,6.01E+15,6204 201ST AVE SW             ,                         ,ROCHESTER               ,WA,THURSTON,985798806,MARIJUANA RETAILER                 ,PENDING (NOT ISSUED),20151224,3602667566,0,0
PACIFIC CANNABIS COMPANY                     ,414656,6.03E+15,625 N CALLOW AVE              ,                         ,BREMERTON               ,WA,KITSAP,983123903,MARIJUANA RETAILER                 ,ACTIVE (ISSUED),20161123,3606162014,0,0
JDT VENTURES                                 ,414886,6.03E+15,6307 N 1ST CIR                ,                         ,RIDGEFIELD              ,WA,CLARK,986423354,MARIJUANA RETAILER                 ,ACTIVE (ISSUED),20170124,3608922878,0,0
TEAM CREME                                   ,414663,6.04E+15,6307 NE ST JOHNS RD SUITE E   ,                         ,VANCOUVER               ,WA,CLARK,986611246,MARIJUANA RETAILER                 ,ACTIVE (ISSUED),20170605,5093276833,0,0
KUSHMART                                     ,414520,6.03E+15,6309 EVERGREEN WAY STE C      ,                         ,EVERETT                 ,WA,SNOHOMISH,982034559,MARIJUANA RETAILER                 ,ACTIVE (ISSUED),20161115,2067691282,0,0
GRINGO CALIENTE                              ,421845,6.03E+15,6319 NE BOTHELL WAY STE A     ,                         ,KENMORE                 ,WA,KING,980288940,MARIJUANA RETAILER                 ,PENDING (NOT ISSUED),        ,2067907229,0,0
THEOREM                                      ,415115,6.03E+15,6323 NE BOTHEL WAY            ,                         ,KENMORE                 ,WA,KING,980280000,MARIJUANA RETAILER                 ,ACTIVE (ISSUED),20161109,2066418344,0,0
EUPHORIC 360                                 ,425185,6.04E+15,6326 MARTIN WAY E STE 103     ,                         ,LACEY                   ,WA,THURSTON,985165561,MARIJUANA RETAILER                 ,ACTIVE (ISSUED),20170711,2063600295,0,0
THE BIG BUD MART                             ,422205,6.04E+15,6326 MARTIN WAY E SUITE 207   ,                         ,LACEY                   ,WA,THURSTON,985165561,MARIJUANA RETAILER                 ,CLOSED (PERMANENT),20170630,2063900295,0,0
GOLDEN DISPENSARIES                          ,414292,6.03E+15,650 LLAMA LN                  ,                         ,GOLDENDALE              ,WA,KLICKITAT,986209140,MARIJUANA RETAILER                 ,ACTIVE (ISSUED),20170223,5097730700,0,0
"WEST COAST ENGINE DESIGN, LLC                ",422753,6.03E+15,6501 LAKE WASHINGTON BLVD     ,APT 203 -A               ,KIRKLAND                ,WA,KING,980333536,MARIJUANA RETAILER                 ,PENDING (NOT ISSUED),20160401,4256437780,0,0
HIGH-5 CANNABIS                              ,421702,6.03E+15,6511 NE 137TH AVE             ,                         ,VANCOUVER               ,WA,CLARK,986825948,MARIJUANA RETAILER                 ,PENDING (ISSUED),20170628,3609475404,0,0
NEW VANSTERDAM                               ,413732,6.03E+15,6515 E MILL PLAIN BLVD        ,                         ,VANCOUVER               ,WA,CLARK,986617455,MARIJUANA RETAILER                 ,ACTIVE (ISSUED),20170412,3605974739,0,0
418BAL ACCESS RETAIL                         ,414418,6.03E+15,661 NESS' CORNER RD           ,                         ,PORT HADLOCK            ,WA,JEFFERSON,983390000,MARIJUANA RETAILER                 ,CLOSED (PERMANENT),20160428,3602977996,0,0
L & M MANAGEMENT LLC                         ,421375,6.03E+15,6611 KITSAP WAY               ,                         ,BREMERTON               ,WA,KITSAP,983121741,MARIJUANA RETAILER                 ,PENDING (NOT ISSUED),20151124,3607102404,0,0
HIDDEN JOINT                                 ,422431,6.04E+15,6620 N MARKET ST STE 100      ,                         ,SPOKANE                 ,WA,SPOKANE,992177809,MARIJUANA RETAILER                 ,PENDING (ISSUED),20170609,5099901089,0,0
CANNABIS & GLASS                             ,415243,6.03E+15,6620 N MARKET ST SUITE 100    ,                         ,SPOKANE                 ,WA,SPOKANE,992177809,MARIJUANA RETAILER                 ,CLOSED (PERMANENT),20160212,5099991112,0,0
CANNABIS TREE                                ,422992,6.04E+15,6620 N MARKET ST SUITE 101    ,                         ,SPOKANE                 ,WA,SPOKANE,992177809,MARIJUANA RETAILER                 ,PENDING (ISSUED),20170609,5099901089,0,0
GREEN OUTFITTERS                             ,413798,6.03E+15,668 OCEAN SHORES BLVD NW      ,                         ,OCEAN SHORES            ,WA,GRAYS HARBOR,985699344,MARIJUANA RETAILER                 ,ACTIVE (ISSUED),20170109,4252684391,0,0
THC OF LACEY                                 ,421335,6.04E+15,6725 MARTIN WAY E             ,                         ,OLYMPIA                 ,WA,THURSTON,985165541,MARIJUANA RETAILER                 ,ACTIVE (ISSUED),20170425,3605397291,0,0
PACIFIC NORTHWEST GREEN LEAF                 ,421877,6.04E+15,6733 STATE HWY 303 NE         ,                         ,BREMERTON               ,WA,KITSAP,983113736,MARIJUANA RETAILER                 ,ACTIVE (ISSUED),20170227,4257858622,0,0
"DANK'S WONDER EMPORIUM, LLC                  ",423571,6.03E+15,6906 MARTIN WAY E             ,STE A                    ,OLYMPIA                 ,WA,THURSTON,985165567,MARIJUANA RETAILER                 ,ACTIVE (ISSUED),20170615,2535075435,0,0
BUD HUT                                      ,422332,6.04E+15,70 SALTSPRING DR  UNIT 2A     ,UNIT 2A                  ,FRIDAY HARBOR           ,WA,SAN JUAN,982509062,MARIJUANA RETAILER                 ,PENDING (ISSUED),20170704,3606681111,0,0
CINDER                                       ,413940,6.03E+15,7011 N DIVISION ST STE A      ,                         ,SPOKANE                 ,WA,SPOKANE,992083968,MARIJUANA RETAILER                 ,ACTIVE (ISSUED),20170209,5092930365,0,0
HIGHWAY 7                                    ,414889,6.03E+15,7046 PACIFIC AVE              ,                         ,TACOMA                  ,WA,PIERCE,984087219,MARIJUANA RETAILER                 ,ACTIVE (ISSUED),20170417,2536917293,0,0
CANNABIS SUPER STORE                         ,402780,6.04E+15,705 EAST 1ST ST               ,                         ,CLE ELUM                ,WA,KITTITAS,989221252,MARIJUANA RETAILER                 ,ACTIVE (ISSUED),20170414,5096745356,0,0
THE GREEN DOOR SEATTLE                       ,413357,6.03E+15,708 RAINIER AVE S  #108/109   ,                         ,SEATTLE                 ,WA,KING,981442814,MARIJUANA RETAILER                 ,ACTIVE (ISSUED),20170214,2066187133,0,0
ROYAL'S CANNABIS                             ,415132,6.03E+15,7115 N DIVISION ST STE A      ,                         ,SPOKANE                 ,WA,SPOKANE,992086507,MARIJUANA RETAILER                 ,ACTIVE (ISSUED),20170608,5099954896,0,0
SATORIMJ                                     ,422764,6.04E+15,712 5TH ST                    ,                         ,CLARKSTON               ,WA,ASOTIN,994032632,MARIJUANA RETAILER                 ,ACTIVE (ISSUED),20170523,2062350635,0,0
STAR OUTLET                                  ,422010,6.03E+15,7157 GUIDE MERIDIAN RD #3     ,#3                       ,LYNDEN                  ,WA,WHATCOM,982649213,MARIJUANA RETAILER                 ,ACTIVE (ISSUED),20161021,2533025792,0,0
HERB'S HOUSE                                 ,402039,6.03E+15,716 NW 65TH ST                ,                         ,SEATTLE                 ,WA,KING,981175049,MARIJUANA RETAILER                 ,ACTIVE (ISSUED),20170317,2065577388,0,0
2020 SOLUTIONS                       ,364799,6.04E+15,7207 212TH ST SW              ,                         ,EDMONDS                 ,WA,SNOHOMISH,980207735,MARIJUANA RETAILER                 ,ACTIVE (ISSUED),20170418,3609154944,0,0
MISSION CONTROL                              ,422660,6.04E+15,7207 212TH ST SW  STE B       ,                         ,EDMONDS                 ,WA,SNOHOMISH,980267735,MARIJUANA RETAILER                 ,PENDING (NOT ISSUED),20160326,2067475796,0,0
WEED EXPERTS                                 ,415629,6.03E+15,7207 EVERGREEN WAY            ,                         ,EVERETT                 ,WA,SNOHOMISH,982035629,MARIJUANA RETAILER                 ,PENDING (NOT ISSUED),20140109,5309191444,0,0
CANNA4LIFE                                   ,414211,6.03E+15,721 6TH ST                    ,                         ,CLARKSTON               ,WA,ASOTIN,994032001,MARIJUANA RETAILER                 ,PENDING (ISSUED),20170421,5097801120,0,0
GREEN TOKEN CANNABIS                         ,421650,6.04E+15,7215 212TH ST SW              ,                         ,EDMONDS                 ,WA,SNOHOMISH,980267735,MARIJUANA RETAILER                 ,ACTIVE (ISSUED),20170626,2532267186,0,0
RAINIER HAZE                                 ,421353,6.04E+15,7216 RAINIER AVE S            ,                         ,SEATTLE                 ,WA,KING,981183806,MARIJUANA RETAILER                 ,PENDING (NOT ISSUED),20160210,2063211814,0,0
FIRST RETAIL LLC                             ,420477,6.04E+15,7217 212TH ST SW              ,                         ,EDMONDS                 ,WA,SNOHOMISH,980267735,MARIJUANA RETAILER                 ,PENDING (NOT ISSUED),20161130,3607463587,0,0
DUTCH PLUG LLC                               ,422719,6.04E+15,7219 NE HIGHWAY 99 STE 109    ,                         ,VANCOUVER               ,WA,CLARK,986658878,MARIJUANA RETAILER                 ,PENDING (NOT ISSUED),20160330,3603357823,0,0
BEAUTIFUL SUN LLC                            ,422804,6.04E+15,7226 MARTIN WAY E  STE C      ,                         ,OLYMPIA                 ,WA,THURSTON,985165533,MARIJUANA RETAILER                 ,PENDING (NOT ISSUED),20160402,3608904918,0,0
WSQ AT BURIEN LLC                            ,422922,6.04E+15,723 EAST B ST                 ,                         ,PASCO                   ,WA,FRANKLIN,993015819,MARIJUANA RETAILER                 ,CLOSED (PERMANENT),20170711,2066043664,0,0
GREENFIELD COMPANY CANNABIS MERCANTILE       ,414356,6.03E+15,728 6TH ST                    ,                         ,CLARKSTON               ,WA,ASOTIN,994032012,MARIJUANA RETAILER                 ,ACTIVE (ISSUED),20161201,2069621025,0,0
SWEET RELEAF CANNABIS                        ,422793,6.04E+15,728 6TH ST STE B              ,                         ,CLARKSTON               ,WA,ASOTIN,994032012,MARIJUANA RETAILER                 ,PENDING (NOT ISSUED),20160401,2069621025,0,0
WALLA WALLA WEEDERY                          ,425273,6.03E+15,728 IRENE ST                  ,                         ,WALLA WALLA             ,WA,WALLA WALLA,993621604,MARIJUANA RETAILER                 ,CLOSED (PERMANENT),20170727,5098764279,0,0
LUCID                                        ,415429,6.03E+15,7294 MARTIN WAY E             ,                         ,OLYMPIA                 ,WA,THURSTON,985165533,MARIJUANA RETAILER                 ,ACTIVE (ISSUED),20161229,5304010839,0,0
HIGH SOCIETY                                 ,413533,6.03E+15,735 S. BURLINGTON BLVD        ,                         ,BURLINGTON              ,WA,SKAGIT,982332219,MARIJUANA RETAILER                 ,ACTIVE (ISSUED),20170323,3606610168,0,0
GREEN LADY MARIJUANA                         ,423145,6.04E+15,7359 OLD PACIFIC HWY S        ,                         ,KALAMA                  ,WA,COWLITZ,986250000,MARIJUANA RETAILER                 ,ACTIVE (ISSUED),20170206,3607898891,0,0
THE BAKEREE                                  ,421261,6.04E+15,74 S LUCILE ST STE 102        ,                         ,SEATTLE                 ,WA,KING,981342444,MARIJUANA RETAILER                 ,PENDING (ISSUED),20170510,2066969765,0,0
GREEN STOP CANNABIS                          ,413801,6.03E+15,7466 MT BAKER HWY             ,                         ,MAPLE FALLS             ,WA,WHATCOM,982660000,MARIJUANA RETAILER                 ,ACTIVE (ISSUED),20161208,3607468734,0,0
THE GRASS IS ALWAYS GREENER                  ,413564,6.03E+15,7505 W LAKE SAMMAMISH PARKWAY ,NE SUITE B               ,REDMOND                 ,WA,KING,980524302,MARIJUANA RETAILER                 ,PENDING (NOT ISSUED),20131210,2064094398,0,0
NATURE'S GIFTS                               ,414181,6.03E+15,755 W WASHINGTON ST STE C     ,                         ,SEQUIM                  ,WA,CLALLAM,983823272,MARIJUANA RETAILER                 ,ACTIVE (ISSUED),20161117,3607971993,0,0
AMERICAN HARVEST                             ,422954,6.03E+15,7550 US 97                    ,                         ,PESHASTIN               ,WA,CHELAN,988470000,MARIJUANA RETAILER                 ,ACTIVE (ISSUED),20170110,5033177035,0,0
CHAMBERS BAY CANNABIS COMPANY                ,423272,6.04E+15,7621 27TH ST W                ,                         ,UNIVERSITY PLACE        ,WA,PIERCE,984664107,MARIJUANA RETAILER                 ,ACTIVE (ISSUED),20170707,3607106475,0,0
ANACORTES CANNABIS                           ,421652,6.03E+15,7656 STATE ROUTE 20 UNIT A    ,                         ,ANACORTES               ,WA,SKAGIT,982218311,MARIJUANA RETAILER                 ,ACTIVE (ISSUED),20170110,3605886222,0,0
NORMAL HIGH                                  ,417659,6.03E+15,774 WATER ST STE C            ,                         ,CHINOOK                 ,WA,PACIFIC,986141345,MARIJUANA RETAILER                 ,PENDING (NOT ISSUED),20140311,3602449218,0,0
THE RETAIL POT SHOP                          ,412027,6.02E+15,7824 RIVER ROAD E             ,SUITE B                  ,PUYALLUP                ,WA,PIERCE,983713886,MARIJUANA RETAILER                 ,ACTIVE (ISSUED),20170711,2532250200,0,0
STICKY'S                                     ,413836,6.03E+15,7831 NE HIGHWAY 99            ,                         ,VANCOUVER               ,WA,CLARK,986658836,MARIJUANA RETAILER                 ,CLOSED (PERMANENT),20160314,5099521602,0,0
DANCING GYPSIES                              ,413529,6.03E+15,794 KENTUCKY ST               ,                         ,BELLINGHAM              ,WA,WHATCOM,982250000,MARIJUANA RETAILER                 ,ACTIVE (ISSUED),20170306,2088192110,0,0
STEVES GREENS                                ,414353,6.03E+15,800 164TH ST SE STE O         ,                         ,MILL CREEK              ,WA,SNOHOMISH,980126301,MARIJUANA RETAILER                 ,PENDING (NOT ISSUED),20131217,4253503881,0,0
CLEAR CHOICE CANNABIS                        ,413358,6.03E+15,8001 S HOSMER ST              ,                         ,TACOMA                  ,WA,PIERCE,984081017,MARIJUANA RETAILER                 ,ACTIVE (ISSUED),20170119,2534445444,0,0
LLJ MANAGEMENT LLC                           ,420886,6.03E+15,8001 S HOSMER ST STE C        ,                         ,TACOMA                  ,WA,PIERCE,984081017,MARIJUANA RETAILER                 ,PENDING (NOT ISSUED),20151027,2534445444,0,0
"SOLIDARITY AGENCY, LLC                       ",422053,6.04E+15,8004 MUKILTEO SPEEDWAY STE B3 ,                         ,MUKILTEO                ,WA,SNOHOMISH,982750015,MARIJUANA RETAILER                 ,CLOSED (PERMANENT),20170720,4252492047,0,0
PATIENT2PATIENT                              ,422873,6.03E+15,8004 MUKILTEO SPEEDWAY STE B3A,                         ,MUKILTEO                ,WA,SNOHOMISH,982752653,MARIJUANA RETAILER                 ,PENDING (NOT ISSUED),20160402,4252490247,0,0
PAPER AND LEAF                               ,414812,6.03E+15,8040 NE DAY RD W BLDG 3 STE 1 ,                         ,BAINBRIDGE ISLAND       ,WA,KITSAP,981100000,MARIJUANA RETAILER                 ,ACTIVE (ISSUED),20161116,2067807814,0,0
BUD NATION                                   ,422596,6.04E+15,811 PACIFIC AVE S             ,                         ,KELSO                   ,WA,COWLITZ,986261609,MARIJUANA RETAILER                 ,PENDING (NOT ISSUED),20160323,2068198898,0,0
BUD HUT                                      ,415361,6.03E+15,8142 HIGHWAY 14               ,                         ,LYLE                    ,WA,KLICKITAT,986350000,MARIJUANA RETAILER                 ,ACTIVE (ISSUED),20161109,4254781077,0,0
GREEN TIKI CANNABIS                          ,81400,6.02E+15,8208 NE STATE HIGHWAY 104     ,STE 101                  ,KINGSTON                ,WA,KITSAP,983468430,MARIJUANA RETAILER                 ,ACTIVE (ISSUED),20170728,3607106475,0,0
FREEDOM MARKET                               ,414280,6.03E+15,820 WESTSIDE HWY             ,                         ,KELSO                   ,WA,COWLITZ,986264355,MARIJUANA RETAILER                 ,ACTIVE (ISSUED),20170627,3603550682,1,Manual Validation
THE HERBAL GARDENS                           ,414446,6.03E+15,824 S 28TH ST                 ,                         ,TACOMA                  ,WA,PIERCE,984098105,MARIJUANA RETAILER                 ,CLOSED (PERMANENT),20160819,2532725265,0,0
SIMPLY CANNABIS                              ,422350,6.04E+15,827 E FRANCIS AVE             ,                         ,SPOKANE                 ,WA,SPOKANE,992083638,MARIJUANA RETAILER                 ,ACTIVE (ISSUED),20170224,4065465411,0,0
PLAUSIBLE PRODUCTS                           ,421577,6.04E+15,8296 AVONDALE WAY NE STE B    ,                         ,REDMOND                 ,WA,KING,980523302,MARIJUANA RETAILER                 ,ACTIVE (ISSUED),20170330,2066508928,0,0
"HERB-N-CARE, LLC                             ",422712,6.03E+15,8301 GREENWOOD AVE N          ,                         ,SEATTLE                 ,WA,KING,981034234,MARIJUANA RETAILER                 ,PENDING (NOT ISSUED),20160330,2069207778,0,0
CANNABIS PROVISIONS EAST                     ,423542,6.03E+15,831 N MILLER ST               ,                         ,WENATCHEE               ,WA,CHELAN,988012046,MARIJUANA RETAILER                 ,ACTIVE (ISSUED),20170404,2533347082,0,0
MARY JANE'S HOUSE OF GRASS                   ,422158,6.03E+15,8312 E MILL PLAIN BLVD        ,                         ,VANCOUVER               ,WA,CLARK,986642007,MARIJUANA RETAILER                 ,PENDING (ISSUED),20170531,3603357823,0,0
GREEN TO GOLD                                ,422759,6.03E+15,8325 212TH ST SW              ,                         ,EDMONDS                 ,WA,SNOHOMISH,980267435,MARIJUANA RETAILER                 ,PENDING (NOT ISSUED),20160401,2067557590,0,0
TOKEN HERB                                   ,400209,6.03E+15,837 A CRESCENT BEACH RD       ,                         ,EASTSOUND               ,WA,SAN JUAN,982451695,MARIJUANA RETAILER                 ,ACTIVE (ISSUED),20161108,3603766900,0,0
EPHEMERAL TOAST                              ,421619,6.04E+15,8401 AURORA AVE N STE F       ,                         ,SEATTLE                 ,WA,KING,981034332,MARIJUANA RETAILER                 ,PENDING (ISSUED),20170223,2066186094,0,0
ESHO FUNI                                    ,421618,6.04E+15,8401 AURORA AVE. N. STE A     ,                         ,SEATTLE                 ,WA,KING,981034332,MARIJUANA RETAILER                 ,ACTIVE (ISSUED),20170418,2068568781,0,0
BETTER BUDS                                  ,421709,6.04E+15,841 NESS CORNER RD  STE B     ,STE B                    ,PORT HADLOCK            ,WA,JEFFERSON,983399572,MARIJUANA RETAILER                 ,ACTIVE (ISSUED),20170526,3607316611,0,0
LOCAL ROOTS MARIJUANA                        ,415216,6.03E+15,8411 SR 92 STE 5              ,                         ,GRANITE FALLS           ,WA,SNOHOMISH,982520000,MARIJUANA RETAILER                 ,ACTIVE (ISSUED),20161103,3603227122,0,0
THE GREEN SEED                               ,412495,6.03E+15,8420 ASPI BLVD STE 3          ,                         ,MOSES LAKE              ,WA,GRANT,988373601,MARIJUANA RETAILER                 ,CLOSED (PERMANENT),20170609,5098552271,0,0
COLUMBIA HERBAL                              ,413806,6.03E+15,8459 MAIN ST                  ,                         ,DRYDEN                  ,WA,CHELAN,988210000,MARIJUANA RETAILER                 ,CLOSED (PERMANENT),20160722,5033177035,0,0
DABNABBITS                                   ,85059,6.03E+15,8459 MAIN ST  UNIT B          ,UNIT B                   ,DRYDEN                  ,WA,CHELAN,988210000,MARIJUANA RETAILER                 ,ACTIVE (ISSUED),20170718,5098607111,0,0
EVERGREEN STATE ENTERPRISES                  ,422825,6.04E+15,847 E SR 4                    ,                         ,CATHLAMET               ,WA,WAHKIAKUM,986120000,MARIJUANA RETAILER                 ,PENDING (ISSUED),20170613,3604702621,0,0
BUD COMMANDER                                ,413802,6.03E+15,849 TROSPER RD SW STE 207     ,                         ,TUMWATER                ,WA,THURSTON,985128145,MARIJUANA RETAILER                 ,ACTIVE (ISSUED),20161110,3606881709,0,0
BUDHUT                                       ,421642,6.04E+15,8529 52ND ST SE               ,                         ,SNOHOMISH               ,WA,SNOHOMISH,982909282,MARIJUANA RETAILER                 ,ACTIVE (ISSUED),20170504,4257896996,0,0
EMERALD CITY KUSH                            ,420839,6.04E+15,8529 52ND ST SE STE A         ,                         ,SNOHOMISH               ,WA,SNOHOMISH,982909282,MARIJUANA RETAILER                 ,PENDING (NOT ISSUED),20151023,4254781077,0,0
CPC TWO                                      ,414787,6.04E+15,8600 LAKE CITY WAY NE         ,                         ,SEATTLE                 ,WA,KING,981153260,MARIJUANA RETAILER                 ,PENDING (NOT ISSUED),20160528,2066969765,0,0
THE WASHINGTON STATE CANNABIS GROUP          ,421658,6.03E+15,8606 PRESTON FALL CITY RD SE  ,                         ,PRESTON                 ,WA,KING,980500000,MARIJUANA RETAILER                 ,ACTIVE (ISSUED),20160826,2063807824,0,0
HIGH SOCIETY                                 ,413534,6.03E+15,8630 S MARCH POINT RD         ,                         ,ANACORTES               ,WA,SKAGIT,982213412,MARIJUANA RETAILER                 ,ACTIVE (ISSUED),20161221,3606610168,0,0
CANNABIS PURVEYORS                           ,413785,6.03E+15,8701 14TH AVE S               ,                         ,SEATTLE                 ,WA,KING,981084808,MARIJUANA RETAILER                 ,PENDING (NOT ISSUED),20131220,2069191572,0,0
IHPP CORPORATION                             ,414475,6.04E+15,8734 120TH AVE NE             ,                         ,KIRKLAND                ,WA,KING,980335861,MARIJUANA RETAILER                 ,ACTIVE (ISSUED),20161122,4253188898,0,0
LOCAL AMSTERDAM                              ,422665,6.04E+15,8860 161ST AVE NE             ,                         ,REDMOND                 ,WA,KING,98052,MARIJUANA RETAILER                 ,PENDING (NOT ISSUED),20160326,2063699597,0,0
KUSHMAN                                      ,422380,6.03E+15,8921 EVERGREEN WAY            ,                         ,EVERETT                 ,WA,SNOHOMISH,982082626,MARIJUANA RETAILER                 ,ACTIVE (ISSUED),20170222,4254441575,0,0
HIGH COUNTRY GREEN                           ,421696,6.04E+15,8926 MILLER RD NE   STE 4     ,STE 4                    ,BAINBRIDGE ISLAND       ,WA,KITSAP,981103416,MARIJUANA RETAILER                 ,CLOSED (PERMANENT),20170726,2068543538,0,0
HERBAL ACCESS RETAIL                         ,421918,6.03E+15,8962 BEAVER VALLEY RD         ,                         ,CHIMACUM                ,WA,JEFFERSON,983250000,MARIJUANA RETAILER                 ,ACTIVE (ISSUED),20170725,2068543538,0,0
SAGE SHOP                                    ,414740,6.03E+15,903 ENGH RD  STE C            ,                         ,OMAK                    ,WA,OKANOGAN,988419627,MARIJUANA RETAILER                 ,ACTIVE (ISSUED),20161228,5093228090,0,0
FIRE CANNABIS CO                             ,421738,6.03E+15,903 ENGH RD SUITE D           ,                         ,OMAK                    ,WA,OKANOGAN,988419627,MARIJUANA RETAILER                 ,ACTIVE (ISSUED),20170619,7202719997,0,0
CHIMACUM CANNABIS                            ,413492,6.04E+15,9034 BEAVER VALLEY ROAD       ,                         ,CHIMACUM                ,WA,JEFFERSON,983258781,MARIJUANA RETAILER                 ,ACTIVE (ISSUED),20170726,2066818394,0,0
ZIA RECREATIONAL                             ,415488,6.03E+15,905 SIMPSON AVENUE            ,                         ,HOQUIAM                 ,WA,GRAYS HARBOR,985503020,MARIJUANA RETAILER                 ,ACTIVE (ISSUED),20161212,5057128255,0,0
THE BACK PORCH                               ,415645,6.03E+15,907 N WENATCHEE AVENUE STE B  ,                         ,WENATCHEE               ,WA,CHELAN,985011572,MARIJUANA RETAILER                 ,ACTIVE (ISSUED),20161021,5096699160,0,0
"MORE STEPS, LLC                              ",422718,6.04E+15,909 E FRANCIS AVE  STE C      ,                         ,SPOKANE                 ,WA,SPOKANE,992083640,MARIJUANA RETAILER                 ,PENDING (NOT ISSUED),20160330,3016336086,0,0
THE JOINT                                    ,422448,6.03E+15,909 FRONTAGE RD               ,                         ,LAKE STEVENS            ,WA,SNOHOMISH,982580000,MARIJUANA RETAILER                 ,ACTIVE (ISSUED),20170304,4254710283,0,0
SPOKANE GREEN LEAF                           ,422146,6.03E+15,9107 N COUNTRY HOMES BLVD     ,STE 13                   ,SPOKANE                 ,WA,SPOKANE,992185007,MARIJUANA RETAILER                 ,ACTIVE (ISSUED),20161019,5099193467,0,0
SPOKANE GREEN LEAF                           ,413347,6.03E+15,9107 N COUNTRY HOMES BLVD STEB,                         ,SPOKANE                 ,WA,SPOKANE,992182071,MARIJUANA RETAILER                 ,CLOSED (PERMANENT),20160212,5099193467,0,0
WOODY'S WEED WAREHOUSE                       ,414168,6.03E+15,9129 EVERGREEN WAY            ,                         ,EVERETT                 ,WA,SNOHOMISH,982047121,MARIJUANA RETAILER                 ,PENDING (NOT ISSUED),20131122,4252489600,0,0
EVERGREEN CANNABIS                           ,415064,6.03E+15,922 PEACE PORTAL DR           ,                         ,BLAINE                  ,WA,WHATCOM,982304409,MARIJUANA RETAILER                 ,ACTIVE (ISSUED),20170104,3603328922,0,0
CINDER                                       ,423096,6.03E+15,927 W 2ND AVE STE 1           ,                         ,SPOKANE                 ,WA,SPOKANE,992014501,MARIJUANA RETAILER                 ,ACTIVE (ISSUED),20170606,5092930365,0,0
WALLA WALLA CANNABIS COMPANY                 ,415641,6.03E+15,927 W MAIN ST                 ,                         ,WALLA WALLA             ,WA,WALLA WALLA,993622746,MARIJUANA RETAILER                 ,ACTIVE (ISSUED),20161201,5098764946,0,0
SATORI                                       ,414664,6.03E+15,9301 N DIVISION ST STE B-C    ,                         ,SPOKANE                 ,WA,SPOKANE,992181254,MARIJUANA RETAILER                 ,ACTIVE (ISSUED),20170331,5099947051,0,0
NIRVANA CANNABIS COMPANY                     ,422329,6.03E+15,930½ VALLEY MALL PKWY         ,                         ,EAST WENATCHEE          ,WA,DOUGLAS,988024402,MARIJUANA RETAILER                 ,ACTIVE (ISSUED),20170222,5098082361,0,0
FLORAL FANATIX LLC                           ,422059,6.04E+15,932 POINT BROWN AVE SE        ,                         ,OCEAN SHORES            ,WA,GRAYS HARBOR,985699659,MARIJUANA RETAILER                 ,PENDING (NOT ISSUED),20160308,3608904918,0,0
NORTHWEST COLLECTIVE                         ,421490,6.03E+15,9326 KIMMIE ST SW STE B       ,                         ,OLYMPIA                 ,WA,THURSTON,985129119,MARIJUANA RETAILER                 ,ACTIVE (ISSUED),20170314,3609156071,0,0
BATSTONE BUD SHOP                            ,420478,6.03E+15,933 E JOHNS PRAIRIE RD        ,                         ,SHELTON                 ,WA,MASON,985841270,MARIJUANA RETAILER                 ,PENDING (NOT ISSUED),20170304,3604262000,0,0
"DANK'S WONDER EMPORIUM, LLC                  ",415041,6.03E+15,9333 MARTIN WAY E             ,STE 102                  ,OLYMPIA                 ,WA,THURSTON,985165969,MARIJUANA RETAILER                 ,CLOSED (PERMANENT),20160812,3234543767,0,0
CANNABIS PROVISIONS INC.                     ,421083,6.03E+15,938 N 200TH ST                ,STE D                    ,SHORELINE               ,WA,KING,981333149,MARIJUANA RETAILER                 ,ACTIVE (ISSUED),20160921,2069137903,0,0
EMERALD COAST                                ,420416,6.03E+15,939 N CALLOW AVE # 100-B      ,                         ,BREMERTON               ,WA,KITSAP,983123806,MARIJUANA RETAILER                 ,PENDING (ISSUED),20170620,3608131006,0,0
SWEET LEAF LLC                               ,422877,6.03E+15,9401 STATE ROUTE 302 NW STE B ,                         ,GIG HARBOR              ,WA,PIERCE,983297107,MARIJUANA RETAILER                 ,PENDING (NOT ISSUED),20160402,3605092931,0,0
CANNABIS & GLASS                             ,82587,6.04E+15,9403 E TRENT AVE              ,                         ,MILLWOOD                ,WA,SPOKANE,992064218,MARIJUANA RETAILER                 ,ACTIVE (ISSUED),20161221,5099991112,0,0
CANNABIS FACTORY 21                          ,422362,6.04E+15,9409 NE HWY 99 SUITE B        ,                         ,VANCOUVER               ,WA,CLARK,986658928,MARIJUANA RETAILER                 ,ACTIVE (ISSUED),20160923,2063900295,0,0
STICKY'S                                     ,421326,6.03E+15,9411 NE HIGHWAY 99 STE 4      ,                         ,VANCOUVER               ,WA,CLARK,986658969,MARIJUANA RETAILER                 ,ACTIVE (ISSUED),20161021,5099521602,0,0
MAIN STREET MARIJUANA LONGVIEW               ,421789,6.04E+15,945 WASHINGTON WAY STE 121    ,                         ,LONGVIEW                ,WA,COWLITZ,986320000,MARIJUANA RETAILER                 ,ACTIVE (ISSUED),20170622,2065520020,0,0
PUGET SOUND GROUP                            ,413998,6.03E+15,9451 35TH AVE SW STE 1 & 4    ,                         ,SEATTLE                 ,WA,KING,981263871,MARIJUANA RETAILER                 ,PENDING (NOT ISSUED),        ,2065882841,0,0
NORTHWEST PATIENT RESOURCE CENTER            ,413996,6.03E+15,9456 35TH AVE SW              ,                         ,SEATTLE                 ,WA,KING,981263825,MARIJUANA RETAILER                 ,PENDING (NOT ISSUED),        ,2065882841,0,0
MARI J'S HIGHWAY POT SHOP                    ,414893,6.03E+15,9506 19TH AVE SE              ,                         ,EVERETT                 ,WA,SNOHOMISH,982083801,MARIJUANA RETAILER                 ,ACTIVE (ISSUED),20170218,2065506021,0,0
NORTHWEST CANNABIS CONNECTION                ,415227,6.03E+15,9506 CANYON RD E              ,                         ,PUYALLUP                ,WA,PIERCE,983716302,MARIJUANA RETAILER                 ,CLOSED (PERMANENT),20160729,2532123000,0,0
SWEET JANE                                   ,423829,6.03E+15,9507 STATE ROUTE 302 NW # B   ,                         ,GIG HARBOR              ,WA,PIERCE,983297102,MARIJUANA RETAILER                 ,ACTIVE (ISSUED),20170112,2532457831,0,0
GREEN GROTTO                                 ,423778,6.03E+15,9531 EDMONDS WAY STE A        ,                         ,EDMONDS                 ,WA,SNOHOMISH,980205935,MARIJUANA RETAILER                 ,PENDING (NOT ISSUED),20160712,4252466547,0,0
APEX CANNABIS                                ,421110,6.03E+15,955 W BROADWAY AVE            ,                         ,MOSES LAKE              ,WA,GRANT,988370000,MARIJUANA RETAILER                 ,ACTIVE (ISSUED),20170713,5094990646,0,0
THE JOINT                                    ,420801,6.03E+15,9574 OLD HWY 99 NORTH RD      ,                         ,BURLINGTON              ,WA,SKAGIT,982336811,MARIJUANA RETAILER                 ,ACTIVE (ISSUED),20170112,3603251201,0,0
LTTLE MOON TRADING COMPANY                   ,413820,6.03E+15,9601 EL CAMINO LN SE          ,                         ,YELM                    ,WA,THURSTON,985978717,MARIJUANA RETAILER                 ,PENDING (NOT ISSUED),20131217,3602642775,0,0
LOCALS CANNA HOUSE                           ,414823,6.03E+15,9616 E SPRAGUE AVE            ,STE B                    ,SPOKANE VALLEY          ,WA,SPOKANE,992060000,MARIJUANA RETAILER                 ,ACTIVE (ISSUED),20161213,5092946552,0,0
A GREEN LIFE                                 ,421755,6.03E+15,9625 15TH AVE SW              ,                         ,SEATTLE                 ,WA,KING,981062821,MARIJUANA RETAILER                 ,ACTIVE (ISSUED),20170107,2068537391,0,0
THE VAULT CANNABIS                           ,414829,6.04E+15,9626 32ND ST SE               ,                         ,LAKE STEVENS            ,WA,SNOHOMISH,982050000,MARIJUANA RETAILER                 ,PENDING (ISSUED),20170502,4252488559,0,0
BUD NATION                                   ,72437,6.03E+15,9640 16TH AVE SW STE A        ,                         ,SEATTLE                 ,WA,KING,981062827,MARIJUANA RETAILER                 ,CLOSED (PERMANENT),20160819,2068198898,0,0
BUD NATION                                   ,415203,6.03E+15,9640 16TH AVE SW STE C & D    ,STE C & D                ,SEATTLE                 ,WA,KING,981062827,MARIJUANA RETAILER                 ,ACTIVE (ISSUED),20170621,2068198898,0,0
GREEN REVOLUTION LLC                         ,422750,6.04E+15,9660 153RD AVE NE STE P-2     ,                         ,REDMOND                 ,WA,KING,980522546,MARIJUANA RETAILER                 ,PENDING (NOT ISSUED),20160331,2062915544,0,0
SKAGIT NATURAL MEDICINE LLC                  ,422774,6.04E+15,9660 OLD HWY N RD STE C       ,                         ,BURLINGTON              ,WA,SKAGIT,982338106,MARIJUANA RETAILER                 ,PENDING (NOT ISSUED),20160401,4255126880,0,0
LONGVIEW FREEDOM MARKET                      ,413544,6.03E+15,971 14TH AVE STE 110          ,                         ,LONGVIEW                ,WA,COWLITZ,986324049,MARIJUANA RETAILER                 ,ACTIVE (ISSUED),20170104,3606360420,0,0
OCEAN GREENS                                 ,413372,6.03E+15,9724 AURORA AVE N             ,                         ,SEATTLE                 ,WA,KING,981033223,MARIJUANA RETAILER                 ,ACTIVE (ISSUED),20161018,2062299893,0,0
GREENSIDE RECREATIONAL                       ,414298,6.03E+15,9804 LAKE CITY WAY NE STE A   ,                         ,SEATTLE                 ,WA,KING,981250000,MARIJUANA RETAILER                 ,ACTIVE (ISSUED),20170224,2063803129,0,0
UNCLE IKES                                   ,421514,6.04E+15,9822 15TH AVE SW STE B        ,SUITE B                  ,SEATTLE                 ,WA,KING,981062850,MARIJUANA RETAILER                 ,ACTIVE (ISSUED),20170328,2063915510,0,0
ORIGINS CANNABIS                             ,417949,6.04E+15,9823 15TH AVE SW UNIT D1      ,UNIT D1                  ,SEATTLE                 ,WA,KING,981062847,MARIJUANA RETAILER                 ,ACTIVE (ISSUED),20161103,2065511309,0,0
A GREEN LIFE                                 ,421995,6.03E+15,9823 15TH AVE SW UNIT D2      ,UNIT D2                  ,SEATTLE                 ,WA,KING,981062847,MARIJUANA RETAILER                 ,ACTIVE (ISSUED),20170306,2068537391,0,0
FIVE STAR TRADING COMPANY                    ,413743,6.03E+15,9920 STATE AVE                ,SUITE B                  ,MARYSVILLE              ,WA,SNOHOMISH,982712255,MARIJUANA RETAILER                 ,CLOSED (PERMANENT),20160414,4258706335,0,0
4EVER HEALING                                ,414775,6.03E+15,9925 214TH AVE E              ,STE F                    ,BONNEY LAKE             ,WA,PIERCE,983910000,MARIJUANA RETAILER                 ,CLOSED (PERMANENT),20160920,2532241442,0,0
CHRONICS                                     ,415292,6.03E+15,PARCEL #10102000301           ,                         ,ROCK ISLAND             ,WA,DOUGLAS,988500000,MARIJUANA RETAILER                 ,PENDING (NOT ISSUED),20140103,2062354678,0,0